{"type":"node","id":249399280,"lat":-34.996496300000004,"lon":-64.9672817,"visible":true,"version":97,"timestamp":"2021-08-01T15:46:18Z","tags":{"ISO3166-1":"AR","ISO3166-1:alpha2":"AR","ISO3166-1:alpha3":"ARG","ISO3166-1:numeric":"032","capital_city":"Buenos Aires","country_code_fips":"AR","country_code_iso3166_1_alpha_2":"AR","geonames:id":"3865483","int_name":"Argentina","name":"Argentina","name:af":"Argentinië","name:ak":"Agyɛntina","name:am":"አርጀንቲና","name:ar":"الأرجنتين","name:ast":"Arxentina","name:az":"Arqentina","name:be":"Аргенціна","name:bg":"Аржентина","name:bm":"Arizantin","name:bn":"আর্জেণ্টাইনা","name:bo":"ཨར་ཇེན་ཊི་ན།","name:br":"Arcʼhantina","name:ca":"Argentina","name:chr":"ᎠᏥᏂᏘᏂᎠ","name:cs":"Argentina","name:cy":"Yr Ariannin","name:de":"Argentinien","name:dz":"ཨར་ཇེན་ཊི་ན","name:ee":"Argentina nutome","name:el":"Αργεντινή","name:en":"Argentina","name:eo":"Argentino","name:es":"Argentina","name:et":"Argentina","name:fa":"آرژانتین","name:ff":"Arjantiin","name:fi":"Argentiina","name:fr":"Argentine","name:fur":"Argjentine","name:fy":"Argentynje","name:ga":"An Airgintín","name:gd":"An Argantain","name:gl":"Arxentina","name:gu":"આર્જેન્ટીના","name:gv":"Yn Argenteen","name:ha":"Arjantiniya","name:haw":"‘Alekina","name:he":"ארגנטינה","name:hi":"अर्जेन्टीना","name:hr":"Argentina","name:hsb":"Argentinska","name:hu":"Argentína","name:hy":"Արգենտինա","name:ia":"Argentina","name:io":"Arjentinia","name:is":"Argentína","name:it":"Argentina","name:ja":"アルゼンチン","name:jbo":"getygu'e","name:ka":"არგენტინა","name:kab":"Arjuntin","name:ki":"Ajentina","name:kk":"Аргентина","name:km":"អាហ្សង់ទីន","name:kn":"ಅರ್ಜೆಂಟೈನಾ","name:ko":"아르헨티나","name:ks":"أرجَنٹینا","name:ksh":"Ajjentiinije","name:ku":"Arjentîn","name:lb":"Argentinien","name:lfn":"Arjentina","name:lg":"Arigentina","name:li":"Argentinië","name:ln":"Arizantinɛ","name:lo":"ອາເຈນຕິນາ່","name:lv":"Argentīna","name:mg":"Arzantina","name:mi":"Āketina","name:mk":"Аргентина","name:ml":"അർജൻറീന","name:mn":"Аргентин","name:mr":"अर्जेंटिना","name:mt":"Arġentina","name:my":"အာဂျင်တီးနား","name:nds":"Argentinien","name:ne":"अर्जेण्टिना","name:nl":"Argentinië","name:no":"Argentina","name:or":"ଆର୍ଜେଣ୍ଟିନା","name:pl":"Argentyna","name:pt":"Argentina","name:rm":"Argentinia","name:rn":"Arijantine","name:ru":"Аргентина","name:se":"Argentiinná","name:sg":"Arzantîna","name:si":"ආර්ජෙන්ටිනාව","name:sk":"Argentína","name:sl":"Argentina","name:smn":"Argentiina","name:sms":"Argentiin","name:sn":"Ajentina","name:so":"Arjantiin","name:sq":"Argjentina","name:sr":"Аргентина","name:sv":"Argentina","name:sw":"Ajentina","name:ta":"அர்ஜென்டினா","name:te":"ఆర్జెంటినా","name:tg":"Аргентина","name:th":"ประเทศอาร์เจนตินา","name:ti":"አርጀንቲና","name:tl":"Arhentina","name:to":"ʻAsenitina","name:tok":"ma Alensina","name:tr":"Arjantin","name:tzl":"Arxhentì","name:uk":"Аргентина","name:ur":"ارجنٹینا","name:uz":"Argentina","name:vi":"Argentina","name:vo":"Largäntän","name:yo":"Orílẹ́ède Agentínà","name:zh":"阿根廷","name:zh-Hans":"阿根廷","name:zh-Hant":"阿根廷","name:zu":"i-Argentina","official_name":"República Argentina","official_name:be":"Рэспубліка Аргенціна","official_name:cy":"Gweriniaeth yr Ariannin","official_name:el":"Δημοκρατία της Αργεντινής","official_name:en":"Argentine Republic","official_name:eo":"Argentina Respubliko","official_name:fi":"Argentiinan tasavalta","official_name:fr":"République Argentine","official_name:id":"Republik Argentina","official_name:is":"Argentínska lýðveldið","official_name:ku":"Komara Arjentînê","official_name:lb":"Republik Argentinien","official_name:lt":"Argentinos Respublika","official_name:lv":"Argentīnas Republika","official_name:no":"Republikken Argentina","official_name:pt":"República Argentina","official_name:ru":"Аргентинская Республика","official_name:sr":"Република Аргентина","official_name:sv":"Republiken Argentina","official_name:tl":"Republikang Arhentino","official_name:vi":"Cộng Hòa Argentina","official_name:zh":"阿根廷共和国 / 阿根廷共和國","official_name:zh-Hans":"阿根廷共和国","official_name:zh-Hant":"阿根廷共和國","old_name:vi":"Á Căn Đình","place":"country","population":"40117096","source:sqkm":"wikipedia","sqkm":"2780400","wikidata":"Q414","wikipedia":"es:Argentina"}}
{"type":"node","id":249399339,"lat":-54.8432857,"lon":-35.8090698,"visible":true,"version":61,"timestamp":"2020-04-30T06:58:27Z","tags":{"alt_name:el":"Νήσοι Νότια Γεωργία και Νότιες Σάντουιτς;Νησιά Νότια Γεωργία και Νότιες Σάντουιτς;Νησιά Νότια Γεωργία και Νότιοι Σάντουιτς","capital_city":"King Edward Point","country_code_fips":"SX","country_code_iso3166_1_alpha_2":"GS","int_name":"South Georgia and South Sandwich Islands","name":"South Georgia and South Sandwich Islands","name:af":"Suid-Georgië en die Suidelike Sandwich-eilande","name:am":"ደቡብ ጆርጂያ እና የደቡብ ሳንድዊች ደሴቶች","name:ar":"جزر جورجيا الجنوبية وساندويتش الجنوبية","name:ast":"Islles Xeorxa del Sur y Sandwich del Sur","name:az":"Cənub Gürcüstan və Cənub Sandvilç Adaları","name:be":"Паўднёвая Георгія і Паўднёвыя Сэндвічавы астравы","name:be-tarask":"Паўднёвая Георгія і Паўднёвыя Сэндвічавыя выспы","name:bg":"Южна Джорджия и Южни Сандвичеви острови","name:bn":"দক্ষিণ জর্জিয়া ও দক্ষিণ স্যান্ডউইচ দ্বীপপুঞ","name:br":"Jorjia ar Su hag Inizi Sandwich ar Su","name:bs":"Južna Džordžija i Južna Sendvička Ostrva","name:ca":"Illes Geòrgia del Sud i Sandwich del Sud","name:chr":"ᏧᎦᏃᏮ ᏣᏥᏱ ᎠᎴ ᎾᏍᎩ ᏧᎦᏃᏮ ᎠᏍᏛᎭᏟ ᏚᎦᏚᏛ","name:cs":"Jižní Georgie a Jižní Sandwichovy ostrovy","name:cy":"Ynysoedd De Georgia a De Sandwich","name:da":"Sydgeorgien og Sydsandwichøerne","name:de":"Südgeorgien und die Südlichen Sandwichinseln","name:dsb":"Pódpołdnjowa Georgiska a kupy Pódpołdnjowy Sandwich","name:dz":"སཱའུཐ་ཇཽར་ཇཱ་ དང་ སཱའུཐ་སེནཌ྄་ཝིཅ་གླིང་ཚོམ","name:ee":"Anyiehe Georgia kple Anyiehe Sandwich ƒudomekpowo nutome","name:el":"Νήσοι Νότιος Γεωργία και Νότιοι Σάντουιτς","name:en":"South Georgia and South Sandwich Islands","name:eo":"Sud-Georgio kaj Sud-Sandviĉinsuloj","name:es":"Islas Georgias del Sur y Sandwich del Sur","name:et":"Lõuna-Georgia ja Lõuna-Sandwichi saared","name:eu":"Hegoaldeko Georgiak eta Hegoaldeko Sandwich uharteak","name:fa":"جزایر جورجیای جنوبی و ساندویچ جنوبی","name:fi":"Etelä-Georgia ja Eteläiset Sandwichsaaret","name:fo":"Suðurgeorgia","name:fr":"Géorgie du Sud-et-les Îles Sandwich du Sud","name:fur":"Georgia dal Sud e Isulis Sandwich dal Sud","name:fy":"Súd-Geörgje en de Súdlike Sandwicheilannen","name:ga":"An tSeoirsia Theas agus Oileáin Sandwich Theas","name:gd":"Seòirsia-a-Deas is na h-Eileanan Shandwich-a-Deas","name:gl":"Illas Xeorxia do Sur e Sandwich do Sur","name:gu":"દક્ષિણ જ્યોર્જીયા અને દક્ષિણ સેન્ડવિચ આઇલેન્ડ","name:gv":"Georgia Yiass as Ellanyn Sandwich Yiass","name:he":"ג׳ורג׳יה הדרומית ואיי סנדוויץ׳ הדרומיים","name:hi":"दक्षिण जोर्जिया और दक्षिण सैंडविच द्वीपसमूह","name:hr":"Južna Georgija i otočje Južni Sandwich","name:hu":"Déli-Georgia és Déli-Sandwich-szigetek","name:id":"Georgia Selatan dan Kepulauan Sandwich Selatan","name:is":"Suður-Georgía og Suður-Sandvíkureyjar","name:it":"Georgia del Sud e isole Sandwich meridionali","name:ja":"サウスジョージア・サウスサンドウィッチ諸島","name:ka":"სამხრეთი ჯორჯია და სამხრეთ სენდვიჩის კუნძულები","name:km":"កោះ​ហ្សកហ្ស៊ី​ខាង​ត្បូង និង​សាន់វិច​ខាង​ត្បូង","name:kn":"ದಕ್ಷಿಣ ಜಾರ್ಜಿಯಾ ಮತ್ತು ದಕ್ಷಿಣ ಸ್ಯಾಂಡ್ವಿಚ್ ದ್ವೀಪಗಳು","name:ko":"사우스조지아 사우스샌드위치 제도","name:ks":"جنوٗبی جارجِیا تہٕ جنوٗبی سینٛڑوٕچ جٔزیٖرٕ","name:ksh":"Söd-Jeorjie un de södlijje Botteramms-Enselle","name:ku":"Georgiaya Başûr û giravên Sandwichê yên Başûr","name:kw":"Jeorji Dheghow hag Ynysow Sandwich Deghow","name:lfn":"Jorjia Sude e Isolas Sanduitx Sude","name:lij":"Geòrgia do Sud e isoe Sandwich meridionæ","name:lo":"ເກາະຈອດເຈຍໃຕ້ແລະຫມູ່ເກາະແຊນວິດຕອນໃຕ້","name:lt":"Pietų Džordžija ir Pietų Sandvičo salos","name:lv":"Dienviddžordžija un Dienvidsendviču salas","name:mk":"Јужна Џорџија и Јужни Сендвички Острови","name:ml":"ദക്ഷിണ ജോർജ്ജിയയും ദക്ഷിണ സാൻഡ്‌വിച്ച് ദ്വീപുകളും","name:mn":"Өмнөд Жоржиа ба Өмнөд Сэндвичийн Арлууд","name:mr":"साउथ जॉर्जिया व साउथ सँडविच द्वीपसमूह","name:ms":"Georgia Selatan dan Kepulauan Sandwich Selatan","name:mt":"South Georgia and the South Sandwich Islands","name:my":"တောင် ဂျော်ဂျီယာ နှင့် တောင် ဆင်းဒဝစ်ဂျ် ကျွန်းစုများ","name:ne":"दक्षिण जर्जिया र दक्षिण स्यान्डवीच टापुहरू","name:nl":"Zuid-Georgië en de Zuidelijke Sandwicheilanden","name:nn":"Sør-Georgia og Sør-Sandwichøyane","name:no":"Sør-Georgia og Sør-Sandwichøyene","name:nov":"Sud Georgia e li Sud Sandwich Isles","name:or":"ଦକ୍ଷିଣ ଜର୍ଜିଆ ଏବଂ ଦକ୍ଷିଣ ସାଣ୍ଡୱିଚ୍ ଦ୍ବୀପପୁଞ୍ଜ","name:os":"Хуссар Джорджи æмæ Хуссар Сандвичы сакъадæхтæ","name:pl":"Georgia Południowa i Sandwich Południowy","name:pt":"Ilhas Geórgia do Sul e Sandwich do Sul","name:rm":"Georgia dal Sid e las Inslas Sandwich dal Sid","name:ro":"Georgia de Sud şi Insulele Sandwich de Sud","name:ru":"Южная Георгия и Южные Сандвичевы Острова","name:sah":"Соҕуруу Георгия уонна Соҕуруу Сэндуич арыылара","name:se":"Lulli Georgia ja Lulli Sandwich-sullot","name:si":"දකුණු ජෝර්ජියාව සහ දකුණු සැන්ඩ්ිච් දූපත්","name:sk":"Južná Georgia a Južné Sandwichove ostrovy","name:sl":"Južna Georgia in Južni Sandwichevi otoki","name:sq":"Gjeorgjia Jugore dhe Ishujt Jugorë Sanduiç","name:sr":"Јужна Џорџија и Јужна Сендвичка Острва","name:sv":"Sydgeorgien och Sydsandwichöarna","name:sw":"Jojia Kusini na Visiwa vya Sandwich Kusini","name:ta":"தெற்கு யோர்சியா மற்றும் தெற்கு சண்ட்விச் தீவுகள்","name:te":"దక్షిణ జార్జియా మరియు దక్షిణ సాండ్విచ్ దీవులు","name:th":"เกาะเซาท์จอร์เจียและหมู่เกาะเซาท์แซนด์วิช","name:ti":"ደቡብ ጆርጂያ እና የደቡድ ሳንድዊች ደሴቶች","name:to":"ʻOtumotu Siosia-tonga mo Saniuisi-tonga","name:tr":"Güney Georgia ve Güney Sandwich Adaları","name:tt":"Көньяк Георгия һәм Көньяк Сандвич утраулары","name:uk":"Південна Джорджія та Південні Сандвічеві острови","name:ur":"جنوبی جارجیا اور جنوبی سینڈوچ جزائر","name:vi":"Quần đảo Nam Georgia và Nam Sandwich","name:wo":"Jeoorji gu Bëj-saalum ak Duni Islaand yi Bëj-saalum","name:zh":"南喬治亞島與南桑威奇群島","name:zu":"i-South Georgia ne-South Sandwich Islands","place":"country","population":"3","source:sqkm":"CIA World Factbook","sqkm":"3903","wikidata":"Q35086","wikipedia":"en:South Georgia and the South Sandwich Islands"}}
{"type":"node","id":249399406,"lat":-6.8699697,"lon":-75.0458515,"visible":true,"version":69,"timestamp":"2022-04-19T14:37:44Z","tags":{"ISO3166-1:alpha2":"PE","alt_name":"Pê-ru","capital_city":"Lima","country_code_fips":"PE","geonames:id":"3932488","int_name":"Peru","name":"Perú","name:ab":"Перу","name:ace":"Pèru","name:af":"Peru","name:ak":"Peru","name:als":"Peru","name:am":"ፔሩ","name:an":"Perú","name:ang":"Peru","name:ar":"بيرو","name:arz":"بيرو","name:ast":"Perú","name:ay":"Piruw","name:az":"Peru","name:ba":"Перу","name:bar":"Peru","name:bat-smg":"Perū","name:bcl":"Peru","name:be":"Перу","name:be-tarask":"Пэру","name:bg":"Перу","name:bi":"Peru","name:bm":"Peru","name:bn":"পেরু","name:bo":"པེ་རུ།","name:bpy":"পেরু","name:br":"Perou","name:bs":"Peru","name:ca":"Perú","name:cbk-zam":"Peru","name:ce":"Перу","name:ceb":"Peru","name:ch":"Perú","name:chr":"ᏇᎷ","name:ckb":"پێروو","name:co":"Perù","name:crh":"Peru","name:cs":"Peru","name:cv":"Перу","name:cy":"Periw","name:da":"Peru","name:de":"Peru","name:diq":"Peru","name:dsb":"Peru","name:dv":"ޕެރޫ","name:dz":"པེ་རུ","name:ee":"Peru","name:el":"Περού","name:en":"Peru","name:eo":"Peruo","name:es":"Perú","name:et":"Peruu","name:eu":"Peru","name:ext":"Perú","name:fa":"پرو","name:ff":"Peru","name:fi":"Peru","name:fiu-vro":"Peruu","name:fo":"Peru","name:fr":"Pérou","name:frp":"Pèrou","name:frr":"Peruu","name:fur":"Perù","name:fy":"Perû","name:ga":"Peiriú","name:gag":"Peru","name:gd":"Pearù","name:gl":"Perú","name:gn":"Perũ","name:gu":"પેરુ","name:gv":"Yn Pheroo","name:ha":"Peru","name:hak":"Pi-lû","name:he":"פרו","name:hi":"पेरू","name:hif":"Peru","name:hr":"Peru","name:hsb":"Peru","name:ht":"Pewou","name:hu":"Peru","name:hy":"Պերու","name:ia":"Peru","name:id":"Peru","name:ie":"Perú","name:ilo":"Peru","name:io":"Peru","name:is":"Perú","name:it":"Perù","name:iu":"ᐱᕉ","name:ja":"ペルー","name:jbo":"perus","name:jv":"Peru","name:ka":"პერუ","name:kaa":"Peru","name:kab":"Piru","name:ki":"Peru","name:kk":"Перу","name:kl":"Peru","name:km":"ប៉េរូ","name:kn":"ಪೆರು","name:ko":"페루","name:ks":"پیٖروٗ","name:ksh":"Perruh","name:ku":"Perû","name:kv":"Перу","name:kw":"Perou","name:ky":"Перу","name:la":"Peruvia","name:lad":"Peru","name:lb":"Peru","name:lez":"Перу","name:lfn":"Peru","name:lg":"Peru","name:li":"Peru","name:lij":"Perù","name:lmo":"Perù","name:ln":"Peru","name:lo":"ເປລູ","name:lt":"Peru","name:ltg":"Peru","name:lv":"Peru","name:lzh":"祕魯","name:mg":"Peroa","name:mhr":"Перу","name:mi":"Perū","name:mk":"Перу","name:ml":"പെറു","name:mn":"Перу","name:mr":"पेरू","name:mrj":"Перу","name:ms":"Peru","name:mt":"Perù","name:mwl":"Peru","name:my":"ပီရူးနိုင်ငံ","name:na":"Peru","name:nah":"Peru","name:nan":"Perú","name:nap":"Perù","name:nds":"Peru","name:ne":"पेरू","name:new":"पेरु","name:nl":"Peru","name:nn":"Peru","name:no":"Peru","name:nov":"Peru","name:nrm":"Pérou","name:oc":"Peró","name:or":"ପେରୁ","name:os":"Перу","name:pa":"ਪੇਰੂ","name:pam":"Peru","name:pap":"Peru","name:pih":"Peruu","name:pl":"Peru","name:pms":"Perù","name:pnb":"پیرو","name:ps":"پيرو","name:pt":"Peru","name:qu":"Piruw","name:rm":"Peru","name:rmy":"Peru","name:rn":"Peru","name:ro":"Peru","name:ru":"Перу","name:rue":"Перу","name:rw":"Peru","name:sa":"पेरु","name:sah":"Перу","name:scn":"Perù","name:sco":"Peru","name:se":"Peru","name:sg":"Perüu","name:sh":"Peru","name:si":"පේරූ","name:sk":"Peru","name:sl":"Peru","name:smn":"Peru","name:sms":"Peru","name:sn":"Peru","name:so":"Peru","name:sq":"Peruja","name:sr":"Перу","name:ss":"IPheru","name:su":"Péru","name:sv":"Peru","name:sw":"Peru","name:szl":"Peru","name:ta":"பெரு","name:te":"పెరూ","name:tet":"Perú","name:tg":"Перу","name:th":"ประเทศเปรู","name:ti":"ፔሩ","name:tk":"Peru","name:tl":"Peru","name:to":"Pelū","name:tok":"ma Pelu","name:tr":"Peru","name:tt":"Перу","name:tzl":"Perù","name:ug":"پېرۇ","name:uk":"Перу","name:ur":"پیرو","name:uz":"Peru","name:vec":"Perù","name:vi":"Peru","name:vo":"Peruvän","name:war":"Perú","name:wo":"Peru","name:wuu":"秘鲁","name:xal":"Перумудин Орн","name:xmf":"პერუ","name:yi":"פערו","name:yo":"Perú","name:yue":"秘魯","name:zea":"Peru","name:zh":"秘鲁","name:zh-Hans":"秘魯","name:zh-Hant":"秘魯","name:zu":"Peru","official_name":"República del Perú","official_name:be":"Рэспубліка Перу","official_name:el":"Δημοκρατία του Περού","official_name:en":"Republic of Peru","official_name:eo":"Perua Respubliko","official_name:es":"República del Perú","official_name:et":"Peruu Vabariik","official_name:eu":"Peruko Errepublika","official_name:fr":"République du Pérou","official_name:id":"Republik Peru","official_name:ku":"Komara Perûyê","official_name:lb":"Republik Peru","official_name:lt":"Peru Respublika","official_name:lv":"Peru Republika","official_name:ro":"Republica Peru","official_name:ru":"Республика Перу","official_name:sk":"Peruánska republika","official_name:sv":"Republiken Peru","official_name:vi":"Cộng hòa Peru","place":"country","population":"29180899","source:sqkm":"wikipedia","sqkm":"1285216","wikidata":"Q419","wikipedia":"es:Perú"}}
{"type":"node","id":424298227,"lat":-1.3397668,"lon":-79.3666965,"visible":true,"version":66,"timestamp":"2021-08-07T10:51:18Z","tags":{"alt_name:el":"Εκουαδόρ","capital_city":"Quito","country_code_fips":"EC","country_code_iso3166_1_alpha_2":"EC","geonames:id":"3658394","gns_classification":"PCLI","gns_uni":"-1371330","int_name":"Ecuador","name":"Ecuador","name:ace":"Èkuador","name:af":"Ecuador","name:ak":"Ikuwadɔ","name:als":"Ecuador","name:am":"ኢኳዶር","name:an":"Ecuador","name:ang":"Ecuador","name:ar":"إكوادور","name:arz":"اكوادور","name:ast":"Ecuador","name:ay":"Ikwadur","name:az":"Ekvador","name:ba":"Эквадор","name:bat-smg":"Ekvaduors","name:bcl":"Ekwador","name:be":"Эквадор","name:be-tarask":"Эквадор","name:bg":"Еквадор","name:bm":"Ekwatɔr","name:bn":"ইকুয়েডর","name:bo":"ཨི་ཁྭ་ཌོར།","name:bpy":"ইকুয়াডর","name:br":"Ecuador","name:bs":"Ekvador","name:ca":"Equador","name:ce":"Эквадор","name:ceb":"Ecuador","name:chr":"ᎡᏆᏙᎵ","name:ckb":"ئێکوادۆر","name:crh":"Ekvador","name:cs":"Ekvádor","name:cv":"Эквадор","name:cy":"Ecwador","name:da":"Ecuador","name:de":"Ecuador","name:diq":"Ekwador","name:dsb":"Ekuador","name:dv":"އިކުއެޑޯރު","name:dz":"ཨེ་ཁྭ་ཌོར","name:ee":"Ekuadɔ nutome","name:el":"Ισημερινός","name:en":"Ecuador","name:eo":"Ekvadoro","name:es":"Ecuador","name:et":"Ecuador","name:eu":"Ekuador","name:ext":"Equadol","name:fa":"اکوادور","name:ff":"Ekuwatoor","name:fi":"Ecuador","name:fiu-vro":"Ecuador","name:fo":"Ekvador","name:fr":"Équateur","name:frp":"Èquator","name:frr":"Ekwadoor","name:fy":"Ekwador","name:ga":"Eacuadór","name:gag":"Ekvador","name:gd":"Eacuador","name:gl":"Ecuador","name:gn":"Ekuator","name:gu":"એક્વાડોર","name:gv":"Ecuador","name:ha":"Ekwador","name:he":"אקואדור","name:hi":"इक्वाडोर","name:hif":"Ecuador","name:hr":"Ekvador","name:hsb":"Ekwador","name:ht":"Ekwatè","name:hu":"Ecuador","name:hy":"Էկվադոր","name:ia":"Ecuador","name:id":"Ekuador","name:ie":"Ecuador","name:ilo":"Ecuador","name:io":"Equador","name:is":"Ekvador","name:it":"Ecuador","name:ja":"エクアドル","name:jbo":"ekuador","name:jv":"Ekuador","name:ka":"ეკვადორი","name:kab":"Ikwaṭur","name:ki":"Ekwado","name:kk":"Эквадор","name:kl":"Ecuador","name:km":"អេក្វាឌ័រ","name:kn":"ಈಕ್ವೆಡಾರ್","name:ko":"에콰도르","name:ks":"اِکواڑور","name:ksh":"Äkwador","name:ku":"Ekuador","name:kw":"Pow Ekwadorel","name:la":"Aequatoria","name:lad":"Ekvador","name:lb":"Ecuador","name:lfn":"Ecuador","name:lg":"Ekwado","name:li":"Ecuador","name:lij":"Ecuadòr","name:lmo":"Ecuador","name:ln":"Ekwatɛ́lɛ","name:lo":"ເອກວາດໍ","name:lt":"Ekvadoras","name:ltg":"Ekvadors","name:lv":"Ekvadora","name:mg":"Ekoatera","name:mhr":"Эквадор","name:mi":"Ekuatoa","name:mk":"Еквадор","name:ml":"ഇക്വഡോർ","name:mn":"Эквадор","name:mr":"इक्वाडोर","name:mrj":"Эквадор","name:ms":"Ecuador","name:mt":"Ekwador","name:mwl":"Eiquador","name:my":"အီကွေဒေါ","name:mzn":"اکوادر","name:na":"Ekwador","name:nah":"Ecuador","name:nan":"Ecuador","name:nds":"Ecuador","name:ne":"इक्वडेर","name:nl":"Ecuador","name:nn":"Ecuador","name:no":"Ecuador","name:nov":"Equador","name:nv":"Kéyah Nahasdzáán Ałníiʼgi Siʼánígíí","name:oc":"Eqüator","name:or":"ଇକ୍ୱାଡୋର୍","name:os":"Эквадор","name:pa":"ਏਕੁਆਦੋਰ","name:pag":"Equador","name:pam":"Ecuador","name:pap":"Ecuador","name:pih":"Ekwador","name:pl":"Ekwador","name:pms":"Ecuador","name:pnb":"ایکویڈار","name:ps":"اېکوادور","name:pt":"Equador","name:qu":"Ikwadur","name:rm":"Ecuador","name:rmy":"Ekuador","name:rn":"Ekwateri","name:ro":"Ecuador","name:roa-rup":"Ecuador","name:ru":"Эквадор","name:rue":"Еквадор","name:rw":"Ekwadoro","name:sa":"एक्वाडोर","name:sah":"Экуадор","name:scn":"Ecuador","name:sco":"Ecuador","name:se":"Ecuador","name:sg":"Ekuatëre","name:sh":"Ekvador","name:si":"ඉක්වදෝරය","name:sk":"Ekvádor","name:sl":"Ekvador","name:smn":"Ecuador","name:sms":"Ecuador","name:so":"Ikuwadoor","name:sq":"Ekuator","name:sr":"Еквадор","name:su":"Ékuador","name:sv":"Ecuador","name:sw":"Ekwado","name:szl":"Ekwadůr","name:ta":"ஈக்வடார்","name:te":"ఈక్వడోర్","name:tet":"Ekuadór","name:tg":"Экуадор","name:th":"ประเทศเอกวาดอร์","name:ti":"ኢኳዶር","name:tl":"Ekwador","name:to":"ʻEkuetoa","name:tok":"ma Ekato","name:tr":"Ekvador","name:tt":"Эквадор","name:tzl":"Ecuadour","name:ug":"ئېكۋادور","name:uk":"Еквадор","name:ur":"ایکواڈور","name:uz":"Ekvador","name:vec":"Ecuador","name:vi":"Ecuador","name:vo":"Lekvadorän","name:war":"Ecuador","name:wo":"Ekwadoor","name:wuu":"厄瓜多尔","name:xal":"Эквадормудин Орн","name:yi":"עקוואדאר","name:yo":"Orílẹ́ède Ekuádò","name:yue":"厄瓜多爾","name:zea":"Ecuador","name:zh":"厄瓜多尔 / 厄瓜多","name:zh-Hans":"厄瓜多尔","name:zh-Hant":"厄瓜多","name:zh-TW":"厄瓜多","name:zu":"i-Ecuador","official_name":"República del Ecuador","official_name:be":"Рэспубліка Эквадор","official_name:el":"Δημοκρατία του Ισημερινού","official_name:en":"Republic of Ecuador","official_name:eo":"Ekvadora Respubliko","official_name:fr":"République de l'Équateur","official_name:gd":"Poblachd Eacuador","official_name:id":"Republik Ekuador","official_name:ku":"Komara Ekuadorê","official_name:lt":"Ekvadoro Respublika","official_name:lv":"Ekvadoras Republika","official_name:no":"Republikken Ecuador","official_name:pl":"Republika Ekwadoru","official_name:pt":"República do Equador","official_name:ru":"Республика Эквадор","official_name:sk":"Ekvádorská republika","official_name:sv":"Republiken Ecuador","official_name:tl":"Republika ng Ekwador","official_name:vi":"Cộng hoà Ecuador","place":"country","population":"13755680","source":"GNS","source:sqkm":"CIA World Factbook","sqkm":"283561","wikidata":"Q736","wikipedia":"es:Ecuador"}}
{"type":"node","id":424311104,"lat":-31.761336500000002,"lon":-71.3187697,"visible":true,"version":77,"timestamp":"2021-08-01T15:46:18Z","tags":{"alt_name:vi":"Chi-lê","capital_city":"Santiago","country_code_fips":"CI","country_code_iso3166_1_alpha_2":"CL","geonames:id":"3895114","int_name":"Chile","name":"Chile","name:ab":"Чили","name:ace":"Chili","name:af":"Chili","name:ak":"Kyili","name:als":"Chile","name:am":"ቺሊ","name:an":"Chile","name:ang":"Cile","name:ar":"شيلي","name:arc":"ܬܫܝܠܝ","name:arz":"تشيلى","name:ast":"Chile","name:ay":"Chili","name:az":"Çile","name:ba":"Чили","name:bar":"Chile","name:bat-smg":"Čilė","name:bcl":"Tsile","name:be":"Чылі","name:be-tarask":"Чылі","name:bg":"Чили","name:bi":"Chile","name:bm":"Sili","name:bn":"চিলি","name:bo":"ཅི་ལི།","name:bpy":"চিলি","name:br":"Chile","name:bs":"Čile","name:ca":"Xile","name:cbk-zam":"Chile","name:ce":"Чили","name:ceb":"Chile","name:ch":"Chile","name:chr":"ᏥᎵ","name:chy":"Chile","name:ckb":"چیلی","name:co":"Cile","name:crh":"Çile","name:cs":"Chile","name:csb":"Chile","name:cv":"Чили","name:cy":"Chile","name:da":"Chile","name:de":"Chile","name:diq":"Şili","name:dsb":"Chilska","name:dv":"ޗިލީ","name:dz":"ཅི་ལི","name:ee":"Tsile nutome","name:el":"Χιλή","name:eml":"Cîl","name:en":"Chile","name:eo":"Ĉilio","name:es":"Chile","name:et":"Tšiili","name:eu":"Txile","name:ext":"Chili","name:fa":"شیلی","name:ff":"Cilii","name:fi":"Chile","name:fiu-vro":"Tsiili","name:fo":"Kili","name:fr":"Chili","name:frp":"Ch·ili","name:frr":"Chiile","name:fur":"Cile","name:fy":"Sily","name:ga":"An tSile","name:gag":"Çili","name:gd":"An t-Sile","name:gl":"Chile","name:gn":"Chile","name:gu":"ચિલી","name:gv":"Yn Çhillee","name:ha":"Cayile","name:hak":"Chṳ-li","name:he":"צ'ילה","name:hi":"चिली","name:hif":"Chile","name:hr":"Čile","name:hsb":"Chilska","name:ht":"Chili","name:hu":"Chile","name:hy":"Չիլի","name:ia":"Chile","name:id":"Chili","name:ie":"Chile","name:ilo":"Chile","name:io":"Chili","name:is":"Chile","name:it":"Cile","name:ja":"チリ","name:jbo":"tciles","name:jv":"Chili","name:ka":"ჩილე","name:kaa":"Chili","name:kab":"Cili","name:kg":"Chile","name:kk":"Чили","name:kl":"Chile","name:km":"ស៊ីលី","name:kn":"ಚಿಲಿ","name:ko":"칠레","name:ks":"چِلی","name:ksh":"Schiile","name:ku":"Şîle","name:kv":"Чили","name:kw":"Chile","name:ky":"Чили","name:la":"Chilia","name:lad":"Chile","name:lb":"Chile","name:lez":"Чили","name:lfn":"Txile","name:lg":"Cile","name:li":"Chili","name:lij":"Cile","name:lmo":"Cile","name:ln":"Síli","name:lo":"ຊິສິ","name:lt":"Čilė","name:ltg":"Čile","name:lv":"Čīle","name:lzh":"智利","name:mg":"Shili","name:mhr":"Чили","name:mi":"Hiri","name:mk":"Чиле","name:ml":"ചിലി","name:mn":"Чили","name:mr":"चिली","name:mrj":"Чили","name:ms":"Cile","name:mt":"Ċili","name:mwl":"Chile","name:my":"ချီလီ","name:mzn":"شیلی","name:na":"Tsire","name:nah":"Chile","name:nan":"Chile","name:nap":"Cile","name:nds":"Chile","name:nds-nl":"Chili","name:ne":"चिली","name:nl":"Chili","name:nn":"Chile","name:no":"Chile","name:nov":"Chile","name:nrm":"Chili","name:nso":"Chile","name:nv":"Chíilii","name:oc":"Chile","name:or":"ଚିଲ୍ଲୀ","name:os":"Чили","name:pa":"ਚਿਲੇ","name:pag":"Chile","name:pam":"Chile","name:pap":"Chile","name:pdc":"Chile","name:pih":"Chili","name:pl":"Chile","name:pms":"Cile","name:pnb":"چلی","name:ps":"چېلي","name:pt":"Chile","name:qu":"Chili","name:rm":"Chile","name:rmy":"Chile","name:rn":"Shili","name:ro":"Chile","name:roa-rup":"Cile","name:roa-tara":"Cile","name:ru":"Чили","name:rue":"Чіле","name:rw":"Shili","name:sa":"चिले","name:sah":"Чили","name:sc":"Cile","name:scn":"Cili","name:sco":"Chile","name:se":"Chile","name:sg":"Shilïi","name:sh":"Čile","name:si":"චිලී","name:sk":"Čile","name:sl":"Čile","name:smn":"Chile","name:sms":"Chile","name:so":"Jili","name:sq":"Kili","name:sr":"Чиле","name:ss":"IShile","name:st":"Chile","name:stq":"Chile","name:su":"Chili","name:sv":"Chile","name:sw":"Chile","name:szl":"Czile","name:ta":"சிலி","name:te":"చిలి","name:tet":"Xile","name:tg":"Чили","name:th":"ประเทศชิลี","name:ti":"ቺሊ","name:tk":"Çili","name:tl":"Tsile","name:to":"Sili","name:tok":"ma Sile","name:tr":"Şili","name:ts":"Chile","name:tt":"Чили","name:tzl":"Cile","name:ug":"چىلى","name:uk":"Чілі","name:ur":"چلی","name:uz":"Chili","name:vec":"Ciłe","name:vep":"Čili","name:vi":"Chile","name:vls":"Chili","name:vo":"Cilän","name:wa":"Tchili","name:war":"Chile","name:wo":"Sili","name:wuu":"智利","name:xal":"Чилмудин Орн","name:xmf":"ჩილე","name:yi":"טשילע","name:yo":"Orílẹ́ède ṣílè","name:yue":"智利","name:za":"Chile","name:zea":"Chili","name:zh":"智利","name:zh-Hans":"智利","name:zh-Hant":"智利","name:zu":"i-Chile","official_name":"República de Chile","official_name:be":"Рэспубліка Чылі","official_name:el":"Δημοκρατία της Χιλής","official_name:en":"Republic of Chile","official_name:eo":"Ĉilia Respubliko","official_name:es":"República de Chile","official_name:gd":"Poblachd na Sile","official_name:it":"Repubblica del Cile","official_name:ja":"チリ共和国","official_name:ku":"Komara Şîleyê","official_name:lb":"Republik Chile","official_name:lt":"Čilės Respublika","official_name:lv":"Čīles Republika","official_name:no":"Republikken Chile","official_name:pl":"Republika Chile","official_name:pt":"República do Chile","official_name:ru":"Республика Чили","official_name:sv":"Republiken Chile","official_name:tl":"Republika ng Tsile","official_name:vi":"Cộng hoà Chile","official_name:zh":"智利共和国 / 智利共和國","official_name:zh-Hans":"智利共和国","official_name:zh-Hant":"智利共和國","old_name:vi":"Chí Lợi","place":"country","population":"16634603","source:sqkm":"CIA World Factbook","sqkm":"756102","wikidata":"Q298","wikipedia":"es:Chile"}}
{"type":"node","id":424311237,"lat":-51.949293700000005,"lon":-59.53836570000001,"visible":true,"version":72,"timestamp":"2021-11-04T14:31:00Z","tags":{"ISO3166-1":"FK","alt_name:el":"Νησιά Φώκλαντ","alt_name:eo":"Malvinoj","alt_name:mk":"Малвински Острови","capital_city":"Stanley","country_code_fips":"FK","country_code_iso3166_1_alpha_2":"FK","disputed":"yes","flag":"http://upload.wikimedia.org/wikipedia/commons/8/83/Flag_of_the_Falkland_Islands.svg","int_name":"Falkland Islands (Malvinas)","is_in:continent":"South America","name":"Falkland Islands (Malvinas)","name:af":"Falklandeilande","name:ak":"Fɔlkman Aeland","name:am":"ፎክላንድ ደሴቶች (ኢስላስ ማልቪናስ)","name:ar":"جزر الفولكلاند","name:ast":"Islles Malvines","name:az":"Folkland Adaları","name:be":"Фалклендскія астравы","name:bg":"Фолкландски острови (Малвини)","name:bm":"Maluwini Gun","name:bn":"ফকল্যান্ড আইল্যান্ড (ইসল্যাস মাসভেনিস)","name:bo":"ཕལྐ་ལནྜ་གླིང་ཕྲན།","name:br":"Inizi Falkland (Inizi Maloù)","name:bs":"Folklandska ostrva (Malvinska ostrva)","name:ca":"Illes Malvines","name:chr":"ᏩᎩ ᎤᎦᏚᏛ (ᎢᏍᎳᏍ ᎹᎸᏫᎾᏍ)","name:cs":"Falklandy (Malvíny)","name:cy":"Ynysoedd y Falklands","name:da":"Falklandsøerne","name:de":"Falklandinseln","name:dz":"ཕལྐ་ལནྜ་གླིང་ཚོམ (ཨིས་ལཱས་མལ་བི་ཎཱས)","name:ee":"Falkland ƒudomekpowo (Islas Malvinas) nutome","name:el":"Νήσοι Φώκλαντ","name:en":"Falkland Islands","name:eo":"Falklandoj","name:es":"Islas Malvinas","name:et":"Falklandi saared","name:eu":"Falkland uharteak (Malvina uharteak)","name:fa":"جزایر فالکلند","name:ff":"Duuɗe Falkland","name:fi":"Falklandinsaaret","name:fo":"Falklandsoyggjarnar","name:fr":"Îles Malouines (Îles Falkland)","name:fur":"Isulis Falkland (Isulis Malvinas)","name:fy":"Falklâneilannen","name:ga":"Oileáin Fháclainne","name:gd":"Na h-Eileanan Fàclainn","name:gl":"Illas Malvinas","name:gu":"ફૉકલેન્ડ આઇલેન્ડ્સ","name:gv":"Ny Malveenaghyn","name:ha":"Tsibiran Falkilan","name:hak":"Falkland Khiùn-tó","name:he":"איי פוקלנד (מלווינס)","name:hi":"फ़ॉकलैंड आइलैंड (इज्लास माल्विनास)","name:hr":"Falklandski Otoci","name:hu":"Falkland-szigetek","name:ia":"Insulas Falkland","name:id":"Kepulauan Falkland","name:io":"Falklandi","name:is":"Falklandseyjar","name:it":"Isole Falkland (Isole Malvine)","name:ja":"フォークランド諸島 (マルビナス諸島)","name:ka":"ფალკლენდის კუნძულები","name:kab":"Tigzirin n Falkland","name:ki":"Visiwa vya Falkland","name:kl":"Falklandi qeqertaq","name:km":"កោះ​ហ្វក់ឡែន (Islas Malvinas)","name:kn":"ಫಾಲ್ಕ್‌ಲ್ಯಾಂಡ್ ದ್ವೀಪಗಳು (ಇಸ್ಲಾಸ್ ಮಾಲ್ವಿನಸ್)","name:ko":"포클랜드 제도 (말비나스 군도)","name:ks":"فٕلاکلینٛڑ جٔزیٖرٕ","name:ksh":"de malleviinesche Enselle","name:ku":"Giravên Malvîn","name:la":"Insulae Malvinae","name:lb":"Falkland Inselen","name:lfn":"Isolas Falkland","name:lg":"Bizinga by'eFalikalandi","name:ln":"Bisanga bya Falkland","name:lo":"ຫມູ່ເກາະຟອກແລນ (ອິສລາສ ມາວິລນາສ)","name:lt":"Folklando (Malvinų) Salos","name:lv":"Folklenda salas","name:mg":"Nosy Falkand","name:mk":"Фолкландски Острови","name:ml":"ഫോക്ൿലൻഡ് ദ്വീപുകൾ (മൽവിനാസ്)","name:mn":"Фолклендийн Арлууд","name:mr":"फॉकलंड बेटे (इस्लास मालविनास)","name:ms":"Kepulauan Falkland (Islas Malvinas)","name:mt":"Falkland Islands","name:my":"ဖောက်ကလန် ကျွန်းစု","name:nan":"Falkland Kûn-tó","name:ne":"फक्ल्याण्ड टापुहरू (इज्लास माल्भिनास)","name:nl":"Falklandeilanden","name:nn":"Falklandsøyane","name:no":"Falklandsøyene","name:or":"ଫଲ୍କଲ୍ୟାଣ୍ଡ ଦ୍ବୀପପୁଞ୍ଜ","name:pl":"Falklandy (Malwiny)","name:pt":"Ilhas Malvinas","name:rm":"Inslas dal Falkland","name:rn":"Izinga rya Filikilandi","name:ro":"Insulele Falkland","name:ru":"Фолклендские Oстрова","name:se":"Falklandsullot","name:sg":"Âzûâ tî Mälüîni","name:si":"ෆෝක්ලන්ත දූපත් (අයිලස් මල්වියනාස්)","name:sk":"Falklandy","name:sl":"Falklandi","name:sn":"Zvitsuwa zveFalklands","name:so":"Jaziiradaha Fooklaan","name:sr":"Фокландска (Малвинска) Острва","name:sv":"Falklandsöarna","name:sw":"Visiwa vya Falklandi (Islas Malvinas)","name:ta":"ஃபாக்லாந்து தீவுகள் (இஸ்லாஸ் மால்வினஸ்)","name:te":"ఫాక్ లేండ్ దీవులు (ఇస్లాస్ మాల్వినాస్)","name:th":"หมู่เกาะฟอล์กแลนด์","name:ti":"የፎልክላንድ ደሴቶች","name:tl":"Kapuluang Falkland (Kapuluang Malvinas)","name:to":"ʻOtumotu Fokuleni","name:tr":"Falkland Adaları","name:tt":"Фолкленд утраулары","name:uk":"Фолклендські острови","name:ur":"فاکلینڈ آئلینڈز (ازلاس مالوینس)","name:vi":"Quần đảo Falkland","name:yo":"Orílẹ́ède Etikun Fakalandi","name:zh":"福克兰群岛 / 福克蘭群島","name:zh-Hans":"福克兰群岛","name:zh-Hant":"福克蘭群島","name:zu":"i-Falkland Islands (i-Islas Malvinas)","note:name":"OSM policy is that the 'name' to be used is that spoken by the inhabitants. Plural. Malvinas is the Spanish name, and is entered in name:es. The UN naming convention is shown as 'int_name'","official_name":"Falkland Islands","official_name:en":"Falkland Islands","official_name:eo":"Insuloj Falklandoj","official_name:es":"Islas Malvinas","official_name:fr":"Îles Falkland (Îles Malouines)","official_name:lv":"Folklenda salas","place":"country","population":"2955","source":"www.falklands.gov.fk","source:sqkm":"CIA World Factbook","sqkm":"12173","timezone":"Atlantic/Stanley","website":"https://www.falklands.gov.fk/","wikidata":"Q9648","wikipedia":"en:Falkland Islands"}}
{"type":"node","id":424311328,"lat":4.8417097,"lon":-58.6416891,"visible":true,"version":59,"timestamp":"2021-08-01T15:46:18Z","tags":{"alt_name:sk":"Guayana","capital_city":"Georgetown","country_code_fips":"GY","country_code_iso3166_1_alpha_2":"GY","geonames:id":"3378535","int_name":"Guyana","name":"Guyana","name:ace":"Guyana","name:af":"Guyana","name:ak":"Gayana","name:als":"Guyana","name:am":"ጉያና","name:an":"Guyana","name:ar":"غيانا","name:arz":"جويانا","name:ast":"Guyana","name:ay":"Wayana","name:az":"Quyana","name:ba":"Гайана","name:bat-smg":"Gajana","name:bcl":"Guyana","name:be":"Гаяна","name:be-tarask":"Гаяна","name:bg":"Гвиана","name:bm":"Gwiyana","name:bn":"গিয়ানা","name:bo":"གྷུ་ཡཱ་ན།","name:bpy":"গায়েনা","name:br":"Guyana","name:bs":"Gvajana","name:ca":"Guyana","name:ce":"Гайана","name:ceb":"Guyana","name:chr":"ᎦᏯᎾ","name:ckb":"گویانا","name:crh":"Gayana","name:cs":"Guyana","name:cv":"Гайана","name:cy":"Guyana","name:da":"Guyana","name:de":"Guyana","name:diq":"Guyana","name:dsb":"Guyana","name:dv":"ގުޔާނާ","name:dz":"གྷ་ཡ་ན","name:ee":"Guyanadu","name:el":"Γουιάνα","name:en":"Guyana","name:eo":"Gujano","name:es":"Guyana","name:et":"Guyana","name:eu":"Guyana","name:ext":"Guyana","name:fa":"گویان","name:ff":"Giyaan","name:fi":"Guyana","name:fiu-vro":"Guyana","name:fo":"Gujana","name:fr":"Guyana","name:frp":"Guyana","name:frr":"Guyana","name:fy":"Guyana","name:ga":"An Ghuáin","name:gag":"Gayana","name:gd":"Guiana","name:gl":"Güiana","name:gn":"Gujána","name:gu":"ગયાના","name:gv":"Geeaaney","name:hak":"Koi-â-nâ","name:he":"גיאנה","name:hi":"गुयाना","name:hif":"Guyana","name:hr":"Gvajana","name:hsb":"Guyana","name:ht":"Giyàn","name:hu":"Guyana","name:hy":"Գայանա","name:ia":"Guyana","name:id":"Guyana","name:ie":"Guyana","name:ilo":"Guyana","name:io":"Guyana","name:is":"Gvæjana","name:it":"Guyana","name:ja":"ガイアナ","name:jbo":"gudjanas","name:jv":"Guyana","name:ka":"გაიანა","name:kab":"Guwana","name:kk":"Гайана","name:kl":"Guyana","name:km":"ហ្គីយ៉ាណា","name:kn":"ಗಯಾನಾ","name:ko":"가이아나","name:krc":"Гайана","name:ks":"گُیانا","name:ksh":"Jujaana","name:ku":"Guyana","name:kw":"Gwayana","name:la":"Guiana","name:lb":"Guyana","name:lg":"Gayana","name:li":"Guyana","name:lij":"Guyana","name:lmo":"Gujana","name:ln":"Giyane","name:lo":"ກູຢານາ","name:lt":"Gajana","name:ltg":"Gajana","name:lv":"Gajāna","name:mdf":"Гайана","name:mhr":"Гайане","name:mk":"Гвајана","name:ml":"ഗയാന","name:mn":"Гайана","name:mr":"गयाना","name:mrj":"Гайана","name:ms":"Guyana","name:mt":"Gujana","name:my":"ဂိုင်ယာနာနိုင်ငံ","name:na":"Guyana","name:nah":"Guyana","name:nan":"Guyana","name:nds":"Guyana","name:ne":"गुयाना","name:nl":"Guyana","name:nn":"Guyana","name:no":"Guyana","name:nov":"Guyana","name:oc":"Guyana","name:or":"ଗୁଇନା","name:os":"Гайанæ","name:pa":"ਗੁਇਆਨਾ","name:pam":"Guyana","name:pap":"Guiana","name:pih":"Gwiiana","name:pl":"Gujana","name:pms":"Gujan-a","name:pnb":"گیآنا","name:ps":"ګويانا","name:pt":"Guiana","name:qu":"Wayana","name:rn":"Guyane","name:ro":"Guyana","name:roa-rup":"Gaiana","name:ru":"Гайана","name:rw":"Giyana","name:sa":"गयाना","name:sah":"Гайана","name:sc":"Guyana","name:sco":"Guyana","name:se":"Guyana","name:sg":"Gayâna","name:sh":"Gvajana","name:si":"ගයනාව","name:sk":"Guyana","name:sl":"Gvajana","name:smn":"Guyana","name:sms":"Guyana","name:so":"Guyana","name:sq":"Guajana","name:sr":"Гвајана","name:srn":"Kayanakondre","name:su":"Guyana","name:sv":"Guyana","name:sw":"Guyana","name:szl":"Gujana","name:ta":"கயானா","name:te":"గయానా","name:tet":"Giana","name:th":"ประเทศกายอานา","name:ti":"ጉያና","name:tl":"Guyana","name:to":"Kuiana","name:tr":"Guyana","name:tt":"Гайана","name:ug":"گايانا","name:uk":"Гаяна","name:ur":"گیانا","name:uz":"Gayana","name:vec":"Guyana","name:vi":"Guyana","name:vo":"Gvayän","name:war":"Guyana","name:wo":"Guyaana","name:wuu":"圭亚那","name:xal":"Ниитә Гайанмудин Орн","name:yi":"גויאנע","name:yo":"Orílẹ́ède Guyana","name:yue":"圭亞那","name:zh":"圭亚那 / 蓋亞那 / 圭亞那","name:zh-HK":"圭亞那","name:zh-Hans":"圭亚那","name:zh-Hant":"蓋亞那 / 圭亞那","name:zh-TW":"蓋亞那","name:zu":"i-Guyana","official_name":"Co-operative Republic of Guyana","official_name:be":"Кааператыўная Рэспубліка Гаяна","official_name:el":"Συνεργατική Δημοκρατία της Γουιάνας","official_name:eo":"Gujana Kooperativa Respubliko","official_name:es":"República Cooperativa de Guyana","official_name:id":"Republik Kooperatif Guyana","official_name:lt":"Gajanos Respublika","official_name:lv":"Gajānas Kooperatīvā Republika","official_name:no":"Den kooperative republikk Guyana","official_name:pl":"Kooperacyjna Republika Gujany","official_name:pt":"República Cooperativa da Guiana","official_name:sk":"Guyanská kooperatívna republika","official_name:sv":"Republiken Guyana","official_name:vi":"Cộng Hòa Hợp Tác Guyana","place":"country","population":"752940","source:sqkm":"CIA World Factbook","sqkm":"214969","wikidata":"Q734","wikipedia":"en:Guyana"}}
{"type":"node","id":424311890,"lat":8.0018709,"lon":-66.1109318,"visible":true,"version":55,"timestamp":"2021-03-24T13:25:49Z","tags":{"capital_city":"Caracas","country_code_fips":"VE","country_code_iso3166_1_alpha_2":"VE","int_name":"Venezuela","is_in:continent":"South America","name":"Venezuela","name:am":"ቬንዙዌላ","name:ar":"فنزويلا","name:az":"Venesuela","name:be":"Венесуэла","name:bg":"Венецуела","name:bm":"Venezuwela","name:bn":"ভেনেজুয়েলা","name:bo":"ཝེ་ནི་ཛུའེ་ལ།","name:br":"Venezuela","name:bs":"Venecuela","name:ca":"Veneçuela","name:cs":"Venezuela","name:da":"Venezuela","name:de":"Venezuela","name:dz":"བེ་ནི་ཛུ་ཝེ་ལ","name:ee":"Venezuela nutome","name:el":"Βενεζουέλα","name:en":"Venezuela","name:eo":"Venezuelo","name:es":"Venezuela","name:et":"Venezuela","name:fa":"ونزوئلا","name:ff":"Wenesuwelaa","name:fi":"Venezuela","name:fo":"Venesuela","name:fr":"Venezuela","name:fy":"Fenezuëla","name:ga":"Veiniséala","name:gd":"A' Bheiniseala","name:gu":"વેનેઝુએલા","name:gv":"Yn Veneswaaley","name:ha":"Benezuwela","name:he":"ונצואלה","name:hi":"वेनेजुएला","name:hu":"Venezuela","name:hy":"Վենեսուելա","name:ia":"Venezuela","name:io":"Venezuela","name:is":"Venusúela","name:it":"Venezuela","name:ja":"ベネズエラ","name:jbo":"benesuel","name:ka":"ვენესუელა","name:kab":"Venzwila","name:km":"វេនេហ្ស៊ុយឡា","name:kn":"ವೆನೆಜುವೆಲಾ","name:ko":"베네수엘라","name:ks":"وینازوٗلا","name:ku":"Venezuêla","name:la":"Venetiola","name:lfn":"Venezuela","name:lg":"Venzwera","name:ln":"Venézuela","name:lo":"ເວເນຊູເອລາ","name:lt":"Venesuela","name:lv":"Venecuēla","name:mg":"Venezoelà","name:mk":"Венецуела","name:ml":"വെനിസ്വേല","name:mn":"Венесуэл","name:mr":"व्हेनेझुएला","name:mt":"Venezwela","name:my":"ဗင်နီဇွဲလား","name:nds":"Venezuela","name:ne":"भेनेजुएला","name:nl":"Venezuela","name:no":"Venezuela","name:or":"ଭେନଜୁଏଲା","name:pl":"Wenezuela","name:pt":"Venezuela","name:rn":"Venezuwela","name:ru":"Венесуэла","name:se":"Venezuela","name:sg":"Venezueläa","name:si":"වෙනිසියුපාව","name:sk":"Venezuela","name:smn":"Venezuela","name:sms":"Venezuela","name:so":"Fenisuweela","name:sq":"Venezuelë","name:sr":"Венецуела","name:sv":"Venezuela","name:ta":"வெனஜுவேலா","name:te":"వెనుజువేలా","name:tg":"Венесуэла","name:th":"ประเทศเวเนซุเอลา","name:ti":"ቬንዙዌላ","name:tl":"Beneswela","name:to":"Venisuela","name:tok":"ma Penesuwela","name:tzl":"Veneþuela","name:uk":"Венесуела","name:ur":"وینزوئیلا","name:vi":"Venezuela","name:vo":"Venesolän","name:yo":"Orílẹ́ède Fẹnẹṣuẹla","name:zh":"委内瑞拉","name:zu":"i-Venezuela","official_name":"República Bolivariana de Venezuela","official_name:be":"Баліварыянская Рэспубліка Венесуэла","official_name:de":"Bolivarische Republik Venezuela","official_name:en":"Bolivarian Republic of Venezuela","official_name:eo":"Bolivara Respubliko Venezuelo","official_name:id":"Republik Bolivar Venezuela","official_name:ku":"Komara Bolîvarî ya Venezuêla","official_name:lt":"Venesuelos Bolivaro Respublika","official_name:no":"Den bolivariske republikken Venezuela","official_name:pl":"Boliwariańska Republika Wenezueli","official_name:pt":"República Bolivariana da Venezuela","official_name:sv":"Bolivarianska republiken Venezuela","official_name:tl":"Bolivar na Republika ng Beneswela","official_name:vi":"Cộng hòa Bolivar Venezuela","place":"country","population":"28946101","source:sqkm":"CIA World Factbook","sqkm":"912050","wikidata":"Q717","wikipedia":"es:Venezuela"}}
{"type":"node","id":424313730,"lat":-17.056869600000002,"lon":-64.9912286,"visible":true,"version":75,"timestamp":"2021-08-01T15:46:18Z","tags":{"ISO3166-1":"BO","ISO3166-1:alpha2":"BO","ISO3166-1:alpha3":"BOL","ISO3166-1:numeric":"068","capital_city":"Sucre","country_code_fips":"BL","country_code_iso3166_1_alpha_2":"BO","geonames:id":"3923057","int_name":"Bolivia","name":"Bolivia","name:ab":"Боливиа","name:ace":"Bolivia","name:af":"Bolivië","name:als":"Bolivien","name:am":"ቦሊቪያ","name:an":"Bolivia","name:ang":"Bolifia","name:ar":"بوليفيا","name:arz":"بوليفيا","name:ast":"Bolivia","name:ay":"Wuliwya","name:az":"Boliviya","name:ba":"Боливия","name:bat-smg":"Buolėvėjė","name:bcl":"Bolibya","name:be":"Балівія","name:be-tarask":"Балівія","name:bg":"Боливия","name:bi":"Bolivia","name:bm":"Bolivi","name:bn":"বোলিভিয়া","name:bo":"བོ་ལི་ཝིཡ།","name:bpy":"বলিভিয়া","name:br":"Bolivia","name:bs":"Bolivija","name:ca":"Bolívia","name:cbk-zam":"Bolivia","name:ce":"Боливи","name:ceb":"Bolivia","name:chr":"ᏉᎵᏫᎠ","name:ckb":"بۆلیڤیا","name:co":"Bolivia","name:crh":"Boliviya","name:cs":"Bolívie","name:cv":"Боливи","name:cy":"Bolifia","name:da":"Bolivia","name:de":"Bolivien","name:diq":"Bolivya","name:dsb":"Boliwiska","name:dv":"ބޮލީވިއާ","name:dz":"བྷེ་ལི་བི་ཡ","name:ee":"Bolivia nutome","name:el":"Βολιβία","name:en":"Bolivia","name:eo":"Bolivio","name:et":"Boliivia","name:eu":"Bolibia","name:ext":"Bolívia","name:fa":"بولیوی","name:ff":"Boliwii","name:fi":"Bolivia","name:fiu-vro":"Boliivia","name:fo":"Bolivia","name:fr":"Bolivie","name:frp":"Bolivie","name:frr":"Boliiwien","name:fur":"Bolivie","name:fy":"Bolivia","name:ga":"An Bholaiv","name:gag":"Boliviya","name:gd":"Boilibhia","name:gl":"Bolivia","name:gn":"Volívia","name:gu":"બોલિવિયા","name:gv":"Yn Volivia","name:ha":"Bolibiya","name:hak":"Pô-li-vì-â","name:he":"בוליוויה","name:hi":"बोलिविया","name:hif":"Bolivia","name:hr":"Bolivija","name:hsb":"Boliwiska","name:ht":"Bolivi","name:hu":"Bolívia","name:hy":"Բոլիվիա","name:ia":"Bolivia","name:id":"Bolivia","name:ie":"Bolivia","name:ilo":"Bolivia","name:io":"Bolivia","name:is":"Bólivía","name:it":"Bolivia","name:ja":"ボリビア","name:jbo":"bolivias","name:jv":"Bolivia","name:ka":"ბოლივია","name:kaa":"Boliviya","name:kab":"Bulivi","name:kk":"Боливия","name:kl":"Bolivia","name:km":"បូលីវី","name:kn":"ಬೊಲಿವಿಯಾ","name:ko":"볼리비아","name:krc":"Боливия","name:ks":"بولِوِیا","name:ksh":"Bolliivije","name:ku":"Bolîvya","name:kw":"Bolivi","name:ky":"Боливия","name:la":"Bolivia","name:lb":"Bolivien","name:lez":"Боливия","name:lfn":"Bolivia","name:lg":"Boliviya","name:li":"Bolivia","name:lij":"Bolivia","name:lmo":"Bulivia","name:ln":"Bolivi","name:lo":"ໂບລິເວຍ","name:lt":"Bolivija","name:ltg":"Boliveja","name:lv":"Bolīvija","name:lzh":"玻利維亞","name:mhr":"Боливий","name:mi":"Poriwia","name:mk":"Боливија","name:ml":"ബൊളീവിയ","name:mn":"Болив","name:mr":"बोलिव्हिया","name:mrj":"Боливи","name:ms":"Bolivia","name:mt":"Bolivja","name:mwl":"Bolíbia","name:my":"ဘိုလီးဘီးယား","name:na":"Boribiya","name:nah":"Bolivia","name:nan":"Bolivia","name:nds":"Bolivien","name:ne":"बोलिभिया","name:new":"बोलिभिया","name:nl":"Bolivia","name:nn":"Bolivia","name:no":"Bolivia","name:nov":"Bolivia","name:nv":"Bolíbiya","name:oc":"Bolívia","name:or":"ବୋଲଭିଆ","name:os":"Боливи","name:pa":"ਬੋਲੀਵੀਆ","name:pam":"Bolivia","name:pap":"Bolivia","name:pih":"Boliwya","name:pl":"Boliwia","name:pms":"Bolivia","name:pnb":"بولیویا","name:ps":"بولېویا","name:pt":"Bolívia","name:qu":"Buliwya","name:rm":"Bolivia","name:rmy":"Boliviya","name:rn":"Boliviya","name:ro":"Bolivia","name:ru":"Боливия","name:rue":"Болівія","name:rw":"Boliviya","name:sa":"बोलिविया","name:sah":"Боливия","name:scn":"Bolivia","name:sco":"Bolivie","name:se":"Bolivia","name:sg":"Bolivïi","name:sh":"Bolivija","name:si":"බොලීවියාව","name:sk":"Bolívia","name:sl":"Bolivija","name:smn":"Bolivia","name:sms":"Bolivia","name:so":"Boliifiya","name:sq":"Bolivi","name:sr":"Боливија","name:ss":"IBholiviya","name:su":"Bolivia","name:sv":"Bolivia","name:sw":"Bolivia","name:szl":"Boliwijo","name:ta":"பொலிவியா","name:te":"బొలీవియా","name:tet":"Bolívia","name:tg":"Боливия","name:th":"ประเทศโบลิเวีย","name:ti":"ቦሊቪያ","name:tl":"Bulibya","name:to":"Polīvia","name:tr":"Bolivya","name:tt":"Боливия","name:ug":"بولىۋىيە","name:uk":"Болівія","name:ur":"بولیویا","name:uz":"Boliviya","name:vec":"Bołivia","name:vi":"Bolivia","name:vo":"Bolivän","name:wa":"Boliveye","name:war":"Bolivia","name:wo":"Boliibi","name:wuu":"玻利维亚","name:xal":"Дала Улста Боливмудин Орн","name:xmf":"ბოლივია","name:yi":"באליוויע","name:yo":"Orílẹ́ède Bọ̀lífíyà","name:yue":"玻利維亞","name:zh":"玻利维亚 / 玻利維亞","name:zh-Hans":"玻利维亚","name:zh-Hant":"玻利維亞","name:zu":"i-Bolivia","official_name":"Estado Plurinacional de Bolivia","official_name:ay":"Wuliwya Suyu","official_name:be":"Рэспубліка Балівія","official_name:el":"Πολυεθνοτικό Κράτος της Βολιβίας","official_name:en":"Plurinational State of Bolivia","official_name:fi":"Bolivian monikansallinen valtio","official_name:fr":"État plurinational de Bolivie","official_name:ku":"Komara Bolîvyayê","official_name:pl":"Wielonarodowe Państwo Boliwii","official_name:pt":"Estado Plurinacional da Bolívia","official_name:qu":"Bulibiya Mama llaqta","official_name:ru":"Многонациональное Государство Боливия","official_name:vi":"Cộng hoà Bolivia","official_name:zh":"多民族玻利维亚国 / 玻利維亞共和國","official_name:zh-Hans":"多民族玻利维亚国","official_name:zh-Hant":"玻利維亞共和國","old_name:1825":"República de Bolívar","old_name:1825-2009":"República de Bolivia","place":"country","population":"10027254","source":"wikipedia, 2019","source:sqkm":"CIA World Factbook","sqkm":"1098581","wikidata":"Q750","wikipedia":"es:Bolivia"}}
{"type":"node","id":424313734,"lat":-10.333333300000001,"lon":-53.2,"visible":true,"version":89,"timestamp":"2021-08-01T15:46:18Z","tags":{"ISO3166-1:alpha2":"BR","alt_name:vi":"Brazil;Bra-xin","capital_city":"Brasília","country_code_fips":"BR","geonames:id":"3469034","int_name":"Brazil","name":"Brasil","name:aa":"Brazil","name:ace":"Brasil","name:af":"Brasilië","name:ak":"Brazil","name:als":"Brasilien","name:am":"ብራዚል","name:an":"Brasil","name:ang":"Brasil","name:ar":"البرازيل","name:arc":"ܒܪܐܙܝܠ","name:arz":"البرازيل","name:as":"ব্ৰাজিল","name:ast":"Brasil","name:ay":"Wrasil","name:az":"Braziliya","name:ba":"Бразилия","name:bar":"Brasilien","name:bat-smg":"Brazilėjė","name:bcl":"Brasil","name:be":"Бразілія","name:be-tarask":"Бразылія","name:bg":"Бразилия","name:bi":"Brazil","name:bm":"Berezili","name:bn":"ব্রাজিল","name:bo":"བ་རཱ་ཛིལ།","name:bpy":"ব্রাজিল","name:br":"Brazil","name:brx":"ब्राज़ील","name:bs":"Brazil","name:bxr":"Бразил","name:ca":"Brasil","name:cbk-zam":"Brasil","name:cdo":"Brazil","name:ce":"Бразилия","name:ceb":"Brasil","name:chr":"ᏆᏏᎵᎢ","name:ckb":"بەڕازیل","name:co":"Brasile","name:crh":"Brazil","name:cs":"Brazílie","name:csb":"Brazylskô","name:cu":"Браꙁїлїꙗ","name:cv":"Бразили","name:cy":"Brasil","name:da":"Brasilien","name:de":"Brasilien","name:diq":"Brezilya","name:dsb":"Brazilska","name:dv":"ބުރެޒިލް","name:dz":"བྲ་ཛིལ","name:ee":"Brazil nutome","name:el":"Βραζιλία","name:eml":"Brasil","name:en":"Brazil","name:eo":"Brazilo","name:es":"Brasil","name:et":"Brasiilia","name:eu":"Brasil","name:ext":"Brasil","name:fa":"برزیل","name:ff":"Beresiil","name:fi":"Brasilia","name:fiu-vro":"Brasiilia","name:fo":"Brasilia","name:fr":"Brésil","name:frp":"Brèsil","name:frr":"Brasiilien","name:fur":"Brasîl","name:fy":"Brazylje","name:ga":"An Bhrasaíl","name:gag":"Braziliya","name:gan":"巴西","name:gd":"Braisil","name:gl":"Brasil","name:gn":"Pindorama","name:gu":"બ્રાઝિલ","name:gv":"Yn Vrasseel","name:ha":"Birazil","name:hak":"Pâ-sî","name:haw":"Palakila","name:he":"ברזיל","name:hi":"ब्राजील","name:hif":"Brazil","name:hr":"Brazil","name:hsb":"Brazilska","name:ht":"Brezil","name:hu":"Brazília","name:hy":"Բրազիլիա","name:ia":"Brasil","name:id":"Brasil","name:ie":"Brasil","name:ig":"Brazil","name:ii":"ꀠꑭ","name:ilo":"Brasil","name:io":"Brazilia","name:is":"Brasilía","name:it":"Brasile","name:ja":"ブラジル","name:jbo":"razgu'e","name:jv":"Brasil","name:ka":"ბრაზილია","name:kaa":"Braziliya","name:kab":"Brizil","name:kbd":"Бразил","name:kg":"Brazil","name:ki":"Brazili","name:kk":"Бразилия","name:kl":"Brazil","name:km":"ប្រេស៊ីល","name:kn":"ಬ್ರೆಜಿಲ್","name:ko":"브라질","name:krc":"Бразилия","name:ks":"برٛازِل","name:ksh":"Brasilije","name:ku":"Brazîl","name:kv":"Бразилия","name:kw":"Brasil","name:ky":"Бразилия","name:la":"Brasilia","name:lad":"Brasil","name:lb":"Brasilien","name:lez":"Бразилия","name:lfn":"Brasil","name:lg":"Buraziiri","name:li":"'t Braziel","name:lij":"Braxî","name:lmo":"Brasil","name:ln":"Brezílɛ","name:lo":"ບຼາຊິວ","name:lt":"Brazilija","name:ltg":"Brazileja","name:lv":"Brazīlija","name:lzh":"巴西","name:mdf":"Бразилие","name:mg":"Brezila","name:mhr":"Бразилий","name:mi":"Parīhi","name:mk":"Бразил","name:ml":"ബ്രസീൽ","name:mn":"Бразил","name:mr":"ब्राझिल","name:mrj":"Бразили","name:ms":"Brazil","name:mt":"Brażil","name:mwl":"Brasil","name:my":"ဘရာဇီး","name:mzn":"برزیل","name:na":"Bradir","name:nah":"Brasil","name:nan":"Pa-se","name:nap":"Brasile","name:nds":"Brasilien","name:nds-nl":"Brazilië","name:ne":"ब्राजिल","name:new":"ब्राजिल","name:nl":"Brazilië","name:nn":"Brasil","name:no":"Brasil","name:nov":"Brasilia","name:nrm":"Brési","name:nv":"Bwazííl","name:oc":"Brasil","name:om":"Brazil","name:or":"ବ୍ରାଜିଲ୍","name:os":"Бразили","name:pa":"ਬ੍ਰਾਜ਼ੀਲ","name:pag":"Brazil","name:pam":"Brasil","name:pap":"Brazil","name:pcd":"Brésil","name:pdc":"Brasilien","name:pih":"Bresel","name:pl":"Brazylia","name:pms":"Brasil","name:pnb":"برازیل","name:ps":"برازیل","name:pt":"Brasil","name:qu":"Brasil","name:rm":"Brasila","name:rmy":"Brazil","name:rn":"Burezili","name:ro":"Brazilia","name:roa-tara":"Brasile","name:ru":"Бразилия","name:rue":"Бразілія","name:rw":"Burezile","name:sa":"संस्कृतम्","name:sah":"Бразилия","name:sc":"Brasile","name:scn":"Brasili","name:sco":"Brazil","name:se":"Brasilia","name:sg":"Brezîli","name:sh":"Brazil","name:si":"බ්රසීලය","name:sk":"Brazília","name:sl":"Brazilija","name:smn":"Brasilia","name:sms":"Brasilia","name:sn":"Brazil","name:so":"Braasiil","name:sq":"Brazili","name:sr":"Бразил","name:srn":"Brasilkondre","name:st":"Brazil","name:stq":"Brasilien","name:su":"Brasil","name:sv":"Brasilien","name:sw":"Brazili","name:szl":"Brazylijo","name:ta":"பிரேஸில்","name:te":"బ్రజిల్","name:tet":"Brazíl","name:tg":"Бразилия","name:th":"บราซิล","name:ti":"ብራዚል","name:tk":"Braziliýa","name:tl":"Brasil","name:to":"Palāsili","name:tok":"ma Pasila","name:tr":"Brezilya","name:tt":"Бразилия","name:ty":"Brazil","name:tzl":"Brasil","name:ug":"برازىلىيە","name:uk":"Бразилія","name:ur":"برازیلی","name:uz":"Braziliya","name:vec":"Braxil","name:vep":"Brazilii","name:vi":"Brazil","name:vls":"Brazilië","name:vo":"Brasilän","name:wa":"Braezi","name:war":"Brasil","name:wo":"Breesil","name:wuu":"巴西","name:xal":"Ниицәтә Бразилмудин Орн","name:xh":"Brasil","name:xmf":"ბრაზილია","name:yi":"בראזיל","name:yo":"Orílẹ́ède Bàràsílì","name:yue":"巴西","name:za":"Bahsih","name:zea":"Brezilië","name:zh":"巴西","name:zh-Hans":"巴西","name:zh-Hant":"巴西","name:zu":"i-Brazil","note":"Centro geográfico oficial, não mover.","note:en":"Official geographical centre, do not move.","official_name":"República Federativa do Brasil","official_name:be":"Федэратыўная Рэспубліка Бразілія","official_name:cy":"Gweriniaeth Ffederal Brasil","official_name:el":"Ομοσπονδιακή Δημοκρατία της Βραζιλίας","official_name:en":"Federative Republic of Brazil","official_name:eo":"Federacia Respubliko Brazilo","official_name:es":"República Federativa del Brasil","official_name:fi":"Brasilian liittotasavalta","official_name:fr":"République fédérative du Brésil","official_name:id":"Republik Federal Brasil","official_name:ku":"Komara Federal a Brazîlê","official_name:lt":"Brazilijos Federacinė Respublika","official_name:lv":"Brazīlijas Federatīvā Republika","official_name:no":"Forbundsrepublikken Brasil","official_name:pl":"Federacyjna Republika Brazylii","official_name:ru":"Федеративная Республика Бразилия","official_name:sr":"Савезна Република Бразил","official_name:sv":"Förbundsrepubliken Brasilien","official_name:tl":"Pederatibong Republika ng Brasil","official_name:uz":"Braziliya Federativ Respublikasi","official_name:vi":"Cộng Hòa Liên Bang Brazil","official_name:zh":"巴西联邦共和国 / 巴西聯邦共和國","official_name:zh-Hans":"巴西联邦共和国","official_name:zh-Hant":"巴西聯邦共和國","old_name:vi":"Ba Tây","place":"country","population":"208714806","population:date":"2018-07-01","source":"IBGE","source:sqkm":"wikipedia","sqkm":"8515767","wikidata":"Q155","wikipedia":"pt:Brasil"}}
{"type":"node","id":424314631,"lat":4.0999170000000005,"lon":-72.9088133,"visible":true,"version":67,"timestamp":"2021-08-19T02:52:43Z","tags":{"ISO3166-1":"CO","ISO3166-1:alpha2":"CO","ISO3166-1:alpha3":"COL","ISO3166-1:numeric":"170","capital_city":"Bogotá","country_code_fips":"CO","int_name":"Colombia","name":"Colombia","name:af":"Kolombië","name:ak":"Kolombia","name:am":"ኮሎምቢያ","name:ar":"كولومبيا","name:ay":"Kuluwya","name:az":"Kolumbiya","name:be":"Калумбія","name:bg":"Колумбия","name:bm":"Kolombi","name:bn":"কোলোম্বিয়া","name:bo":"ཀོ་ལོམ་བི་ཡ།","name:br":"Kolombia","name:bs":"Kolumbija","name:ca":"Colòmbia","name:ce":"Колумби","name:chr":"ᎪᎸᎻᏈᎢᎠ","name:cs":"Kolumbie","name:cv":"Колумби","name:da":"Colombia","name:de":"Kolumbien","name:dv":"ކޮލަންބިއާ","name:dz":"ཀོ་ལོམ་བྷི་ཡ","name:ee":"Kolombia nutome","name:el":"Κολομβία","name:en":"Colombia","name:eo":"Kolombio","name:es":"Colombia","name:et":"Colombia","name:eu":"Kolonbia","name:fa":"کلمبیا","name:ff":"Kolombiya","name:fi":"Kolumbia","name:fo":"Kolombia","name:fr":"Colombie","name:fur":"Colombie","name:fy":"Kolombia","name:ga":"An Cholóim","name:gd":"Coloimbia","name:gn":"Kolómbia","name:gu":"કોલમ્બિયા","name:gv":"Yn Cholombey","name:ha":"Kolambiya","name:hak":"Colombia","name:he":"קולומביה","name:hi":"कोलम्बिया","name:hr":"Kolumbija","name:hsb":"Kolumbiska","name:ht":"Kolonbi","name:hu":"Kolumbia","name:hy":"Կոլումբիա","name:ia":"Colombia","name:id":"Kolombia","name:ie":"Columbia","name:io":"Kolumbia","name:is":"Kólumbía","name:it":"Colombia","name:ja":"コロンビア","name:jbo":"kolombias","name:jv":"Kolombia","name:ka":"კოლუმბია","name:kab":"Kulumbi","name:ki":"Kolombia","name:kk":"Колумбия","name:km":"កូឡុំប៊ី","name:kn":"ಕೊಲಂಬಿಯಾ","name:ko":"콜롬비아","name:ks":"کولَمبِیا","name:ksh":"Kolumbije","name:ku":"Kolombiya","name:kw":"Kolombi","name:la":"Columbia","name:lb":"Kolumbien","name:lfn":"Colombia","name:lg":"Kolombya","name:ln":"Kolombi","name:lo":"ໂຄລຳເບຍ","name:lt":"Kolumbija","name:lv":"Kolumbija","name:mg":"Kôlômbia","name:mk":"Колумбија","name:ml":"കൊളംബിയ","name:mn":"Колумб","name:mr":"कोलम्बिया","name:mt":"Kolumbja","name:my":"ကိုလံဘီယာ","name:na":"Korombiya","name:nan":"Colombia","name:nds":"Kolumbien","name:ne":"कोलोम्बिया","name:nl":"Colombia","name:no":"Colombia","name:nv":"Kolámbiya","name:oc":"Colómbia","name:or":"କୋଲମ୍ବିଆ","name:os":"Колумби","name:pa":"ਕੋਲੰਬੀਆ","name:pl":"Kolumbia","name:ps":"کولمبیا","name:pt":"Colômbia","name:qu":"Kulumbya","name:rm":"Columbia","name:rn":"Kolombiya","name:ro":"Columbia","name:ru":"Колумбия","name:rw":"Kolombiya","name:sa":"कोलोम्बिया","name:se":"Colombia","name:sg":"Kolombïi","name:si":"කොළොම්බියාව","name:sk":"Kolumbia","name:sl":"Kolumbija","name:smn":"Kolumbia","name:sms":"Kolumbia","name:sn":"Kolombia","name:so":"Kolombiya","name:sq":"Kolumbi","name:sr":"Колумбија","name:su":"Kolombia","name:sv":"Colombia","name:sw":"Kolombia","name:ta":"கொலம்பியா","name:te":"కొలంబియా","name:tg":"Колумбия","name:th":"ประเทศโคลอมเบีย","name:ti":"ኮሎምቢያ","name:tl":"Kolombiya","name:to":"Kolomipia","name:tr":"Kolombiya","name:tt":"Колумбия","name:ug":"كولومبىيە","name:uk":"Колумбія","name:ur":"کولمبیا","name:uz":"Kolumbiya","name:vi":"Colombia","name:vo":"Kolumbän","name:wo":"Koloombi","name:xh":"IsiColombia","name:yi":"קאלאמביע","name:yo":"Orílẹ́ède Kòlómíbìa","name:zh":"哥伦比亚 / 哥倫比亞","name:zh-Hans":"哥伦比亚","name:zh-Hant":"哥倫比亞","name:zu":"i-Colombia","official_name":"República de Colombia","official_name:be":"Рэспубліка Калумбія","official_name:el":"Δημοκρατία της Κολομβίας","official_name:en":"Republic of Colombia","official_name:eo":"Kolombia Respubliko","official_name:fr":"République de Colombie","official_name:id":"Republik Kolombia","official_name:ku":"Komara Kolombiya","official_name:lt":"Kolumbijos Respublika","official_name:no":"Republikken Colombia","official_name:pl":"Republika Kolumbii","official_name:ro":"Republica Columbia","official_name:ru":"Республика Колумбия","official_name:sv":"Republiken Colombia","official_name:tl":"Republika ng Kolombiya","official_name:vi":"Cộng hoà Colombia","place":"country","population":"44050548","source:sqkm":"CIA World Factbook","sqkm":"1138910","wikidata":"Q739","wikipedia":"es:Colombia"}}
{"type":"node","id":432425087,"lat":4.1413025,"lon":-56.07711870000001,"visible":true,"version":61,"timestamp":"2021-08-01T15:46:18Z","tags":{"capital_city":"Paramaribo","country_code_fips":"NS","country_code_iso3166_1_alpha_2":"SR","int_name":"Suriname","name":"Suriname","name:ace":"Suriname","name:af":"Suriname","name:als":"Suriname","name:am":"ሱሪናም","name:an":"Surinam","name:ar":"سورينام","name:arz":"سورينام","name:ast":"Surinam","name:ay":"Suriname","name:az":"surinamə","name:ba":"Суринам","name:bat-smg":"Sorėnams","name:bcl":"Surinam","name:be":"Сурынам","name:be-tarask":"Сурынам","name:bg":"Суринам","name:bm":"Surinami","name:bn":"সুরিনাম","name:bo":"སུ་རི་ནཱམ།","name:bpy":"সুরিনাম","name:br":"Surinam","name:bs":"Surinam","name:ca":"Surinam","name:ce":"Суринам","name:ceb":"Surinam","name:ckb":"سورینام","name:crh":"Surinam","name:cs":"Surinam","name:cv":"Суринам","name:cy":"Swrinam","name:da":"Surinam","name:de":"Surinam","name:diq":"Surinam","name:dsb":"Surinam","name:dv":"ސުރިނާމް","name:dz":"སུ་རི་ནཱམ","name:ee":"Suriname nutome","name:el":"Σουρινάμ","name:en":"Suriname","name:eo":"Surinamo","name:es":"Surinam","name:et":"Suriname","name:eu":"Surinam","name:ext":"Surinam","name:fa":"سورینام","name:ff":"Surinaam","name:fi":"Suriname","name:fiu-vro":"Suriname","name:fo":"Surinam","name:fr":"Suriname","name:frp":"Suriname","name:frr":"Suurinam","name:fy":"Suriname","name:ga":"Suranam","name:gag":"Surinam","name:gd":"Suranam","name:gl":"Surinam","name:gn":"Surinam","name:gu":"સુરીનામ","name:gv":"Yn Toorinam","name:hak":"Sû-li-nàm","name:he":"סורינאם","name:hi":"सुरिनाम","name:hif":"Suriname","name:hr":"Surinam","name:hsb":"Surinamska","name:ht":"Sirinam","name:hu":"Suriname","name:hy":"Սուրինամ","name:ia":"Suriname","name:id":"Suriname","name:ie":"Surinam","name:ilo":"Surinam","name:io":"Surinam","name:is":"Súrínam","name:it":"Suriname","name:ja":"スリナム","name:jbo":"surinam","name:jv":"Suriname","name:ka":"სურინამი","name:kab":"Surinam","name:ki":"Surinamu","name:kk":"Суринам","name:kl":"Suriname","name:km":"សូរីណាម","name:kn":"ಸುರಿನಾಮ","name:ko":"수리남","name:ks":"سُرِنام","name:ksh":"Sürinamm","name:ku":"Sûrînam","name:kw":"Surinam","name:la":"Surinamia","name:lb":"Suriname","name:lfn":"Suriname","name:lg":"Surinaamu","name:li":"Suriname","name:lij":"Suriname","name:lmo":"Suriname","name:ln":"Surinamɛ","name:lo":"ຊູລິນາມິ","name:lt":"Surinamas","name:ltg":"Surinams","name:lv":"Surinama","name:mdf":"Суринам","name:mg":"Sorinam","name:mhr":"Суринам","name:mk":"Суринам","name:ml":"സുറിനാം","name:mn":"Суринам","name:mr":"सुरिनाम","name:mrj":"Суринам","name:ms":"Surinam","name:mt":"Surinam","name:my":"ဆူရာနမ်နိုင်ငံ","name:nah":"Surinam","name:nan":"Suriname","name:nds":"Surinam","name:ne":"सुरिनेम","name:nl":"Suriname","name:nn":"Surinam","name:no":"Surinam","name:nov":"Suriname","name:nv":"Sówinam","name:oc":"Surinam","name:or":"ସୁରିନାମ","name:os":"Суринам","name:pa":"ਸੂਰੀਨਾਮ","name:pam":"Surinam","name:pap":"Suriname","name:pdc":"Surinaem","name:pl":"Surinam","name:pms":"Suriname","name:pnb":"سورینام","name:ps":"سورينام","name:pt":"Suriname","name:qu":"Surinam","name:rm":"Surinam","name:ro":"Surinam","name:ru":"Суринам","name:rw":"Surinamu","name:sah":"Суринам","name:scn":"Surinami","name:sco":"Suriname","name:se":"Suriname","name:sg":"Surinäm","name:sh":"Surinam","name:si":"සුරිනාමය","name:sk":"Surinam","name:sl":"Surinam","name:smn":"Suriname","name:sms":"Surinaam","name:so":"Surinam","name:sq":"Surinami","name:sr":"Суринам","name:srn":"Sranankondre","name:su":"Suriname","name:sv":"Surinam","name:sw":"Surinamu","name:ta":"சூரினாம்","name:te":"సురినామ్","name:tet":"Suriname","name:th":"ประเทศซูรินาเม","name:ti":"ሱሪናም","name:tl":"Surinam","name:to":"Sulinami","name:tr":"Surinam","name:tt":"Суринам","name:ug":"سۇرىنام","name:uk":"Суринам","name:ur":"سورینام","name:uz":"Surinam","name:vec":"Suriname","name:vi":"Surinam","name:vo":"Surinän","name:war":"Surinam","name:wo":"Surinaam","name:wuu":"苏里南","name:xal":"Суринамудин Орн","name:yi":"סורינאם","name:yo":"Orílẹ́ède Surinami","name:yue":"蘇里南","name:zea":"Surinaome","name:zh":"苏里南 / 蘇利南 / 蘇里南","name:zh-HK":"蘇里南","name:zh-Hans":"苏里南","name:zh-Hant":"蘇利南 / 蘇里南","name:zh-TW":"蘇利南","name:zu":"i-Suriname","official_name":"Republiek van Suriname","official_name:be":"Рэспубліка Сурынам","official_name:el":"Δημοκρατία του Σουρινάμ","official_name:en":"Republic of Suriname","official_name:eo":"Surinama Respubliko","official_name:es":"República de Surinam","official_name:id":"Republik Suriname","official_name:ku":"Komara Sûrînam","official_name:lb":"Republik Suriname","official_name:lt":"Surinamo Respublika","official_name:pl":"Republika Surinam","official_name:sv":"Republiken Surinam","official_name:vi":"Cộng Hòa Surinam","old_name:es":"Guyana Holandesa","old_name:pl":"Gujana Holenderska","place":"country","population":"492829","source:sqkm":"CIA World Factbook","sqkm":"163820","wikidata":"Q730","wikipedia":"nl:Suriname"}}
{"type":"node","id":432425116,"lat":-32.8755548,"lon":-56.0201525,"visible":true,"version":64,"timestamp":"2021-08-01T15:46:18Z","tags":{"ISO3166-1:alpha2":"UY","capital_city":"Montevideo","country_code_fips":"UY","name":"Uruguay","name:ace":"Uruguay","name:af":"Uruguay","name:ak":"Yurugwae","name:als":"Uruguay","name:am":"ኡራጓይ","name:an":"Uruguai","name:ang":"Uruguay","name:ar":"أوروغواي","name:arz":"اوروجواى","name:ast":"Uruguái","name:ay":"Uruwayi","name:az":"Uruqvay","name:ba":"Уругвай","name:bat-smg":"Urugvajos","name:bcl":"Uruguay","name:be":"Уругвай","name:be-tarask":"Уругвай","name:bg":"Уругвай","name:bi":"Uruguay","name:bm":"Urugwayi","name:bn":"উরুগোয়ে","name:bo":"ཨུ་རུ་གྷེ།","name:bpy":"উরুগুয়ে","name:br":"Uruguay","name:bs":"Urugvaj","name:bxr":"Уругвай","name:ca":"Uruguai","name:cbk-zam":"Uruguay","name:ce":"Уругвай","name:ceb":"Uruguay","name:ckb":"ئوروگوای","name:co":"Uruguay","name:crh":"Urugvay","name:cs":"Uruguay","name:cu":"Оуроугваи","name:cv":"Уругвай","name:cy":"Uruguay","name:da":"Uruguay","name:de":"Uruguay","name:diq":"Uruguay","name:dsb":"Uruguay","name:dv":"އުރުގުއޭ","name:dz":"ཡུ་རུ་གུ་ཝའི","name:ee":"uruguaydukɔ","name:el":"Ουρουγουάη","name:en":"Uruguay","name:eo":"Urugvajo","name:es":"Uruguay","name:et":"Uruguay","name:eu":"Uruguai","name:ext":"Uruguai","name:fa":"اروگوئه","name:ff":"Uruguwaay","name:fi":"Uruguay","name:fiu-vro":"Uruguay","name:fo":"Uruguei","name:fr":"Uruguay","name:frp":"Urugoayi","name:frr":"Uruguay","name:fy":"Urûguay","name:ga":"Uragua","name:gag":"Urugvay","name:gd":"Uruguaidh","name:gl":"Uruguai","name:gn":"Uruguái","name:gu":"ઉરુગ્વે","name:gv":"Yn Ooraguay","name:ha":"Yurugai","name:hak":"Vû-lâ-kûi","name:he":"אורוגואי","name:hi":"युरूगुए","name:hif":"Uruguay","name:hr":"Urugvaj","name:hsb":"Uruguay","name:ht":"Irigwe","name:hu":"Uruguay","name:hy":"Ուրուգվայ","name:ia":"Uruguay","name:id":"Uruguay","name:ie":"Uruguay","name:ilo":"Uruguay","name:io":"Uruguay","name:is":"Úrúgvæ","name:it":"Uruguay","name:ja":"ウルグアイ","name:jbo":"uruguais","name:jv":"Uruguay","name:ka":"ურუგვაი","name:kab":"Urugway","name:ki":"Urugwai","name:kk":"Уругвай","name:kl":"Uruguay","name:km":"អ៊ុយរុយហ្គាយ","name:kn":"ಉರುಗ್ವೇ","name:ko":"우루과이","name:ks":"یوٗروگے","name:ksh":"Urrujwai","name:ku":"Ûrûguay","name:kw":"Urugway","name:la":"Uruguaia","name:lad":"Uruguay","name:lb":"Uruguay","name:lez":"Уругвай","name:lfn":"Uruguai","name:lg":"Wurugwayi","name:li":"Urugay","name:lij":"Uruguay","name:lmo":"Uruguay","name:ln":"Irigwei","name:lo":"ອຸລຸກວຍ","name:lt":"Urugvajus","name:ltg":"Urugvajs","name:lv":"Urugvaja","name:mg":"Orogoay","name:mhr":"Уругвай","name:mk":"Уругвај","name:ml":"ഉറുഗ്വേ","name:mn":"Уругвай","name:mr":"उरुग्वे","name:mrj":"Уругвай","name:ms":"Uruguay","name:mt":"Urugwaj","name:my":"ဥရုဂွေး","name:nah":"Uruguay","name:nan":"Uruguay","name:nap":"Uruguay","name:nds":"Uruguay","name:ne":"युरूगुए","name:nl":"Uruguay","name:nn":"Uruguay","name:no":"Uruguay","name:nov":"Uruguay","name:nv":"Táłtłʼááh Chʼosh Bitooh (Kéyah Dah Siʼánígíí)","name:oc":"Uruguai","name:or":"ଉରୁଗୁଏ","name:os":"Уругвай","name:pa":"ਉਰੂਗੁਏ","name:pag":"Uruguay","name:pam":"Uruguay","name:pap":"Uruguay","name:pdc":"Uruguay","name:pl":"Urugwaj","name:pms":"Uruguay","name:pnb":"یوراگوۓ","name:ps":"یوروګوای","name:pt":"Uruguai","name:qu":"Uruwayi","name:rm":"Uruguay","name:rmy":"Uruguay","name:rn":"Irigwe","name:ro":"Uruguay","name:ru":"Уругвай","name:rw":"Irigwe","name:sa":"उरुग्वाय","name:sah":"Уругуай","name:sc":"Uruguay","name:scn":"Uruguai","name:sco":"Uruguay","name:se":"Uruguay","name:sg":"Uruguëe","name:sh":"Urugvaj","name:si":"උරුගුවේ","name:sk":"Uruguaj","name:sl":"Urugvaj","name:smn":"Uruguay","name:sms":"Uruguay","name:so":"Uruguwaay","name:sq":"Uruguaj","name:sr":"Уругвај","name:su":"Uruguay","name:sv":"Uruguay","name:sw":"Urugwai","name:szl":"Urugwaj","name:ta":"உருகுவே","name:te":"ఉరుగువే","name:tet":"Uruguai","name:tg":"Уругвай","name:th":"ประเทศอุรุกวัย","name:ti":"ኡራጓይ","name:tl":"Urugway","name:to":"ʻUlukuei","name:tok":"ma Ulukawi","name:tr":"Uruguay","name:tt":"Уругвай","name:tzl":"Uruguai","name:ug":"ئۇرۇگۋاي","name:uk":"Уруґвай","name:ur":"یوروگوئے","name:uz":"Urugvay","name:vec":"Uruguay","name:vi":"Uruguay","name:vo":"Luruguyän","name:wa":"Ourougway","name:war":"Uruguay","name:wo":"Uruguwaay","name:wuu":"乌拉圭","name:xal":"Уругаймудин Орн","name:yi":"אורוגוויי","name:yo":"Orílẹ́ède Nruguayi","name:yue":"烏拉圭","name:zh":"乌拉圭 / 烏拉圭","name:zh-Hans":"乌拉圭","name:zh-Hant":"烏拉圭","name:zu":"i-Uruguay","official_name":"República Oriental del Uruguay","official_name:be":"Усходняя Рэспубліка Уругвай","official_name:br":"Republik-Reter Uruguay","official_name:de":"Republik Östlich des Uruguay","official_name:en":"Oriental Republic of Uruguay","official_name:eo":"Orienta Respubliko de Urugvajo","official_name:es":"República Oriental del Uruguay","official_name:fr":"République Orientale de l'Uruguay","official_name:id":"Republik Timur Uruguay","official_name:ku":"Komara Rojhelata Ûrûguayê","official_name:lb":"Republik östlich vum Uruguay","official_name:lt":"Urugvajaus Rytų Respublika","official_name:no":"Republikken øst for Uruguay","official_name:pl":"Wschodnia Republika Urugwaju","official_name:ru":"Восточная Республика Уругвай","official_name:sv":"Republiken Uruguay","official_name:vi":"Cộng Hòa Đông Uruguay","place":"country","population":"3286314","source:population":"http://www.ine.gub.uy/censos2011/index.html","source:sqkm":"CIA World Factbook","sqkm":"176215","wikidata":"Q77","wikipedia":"es:Uruguay"}}
{"type":"node","id":1644764586,"lat":-23.3165935,"lon":-58.1693445,"visible":true,"version":38,"timestamp":"2022-05-17T09:00:44Z","tags":{"ISO3166-1":"PY","country_code_iso3166_1_alpha_2":"PY","name":"Paraguay","name:ace":"Paraguay","name:af":"Paraguay","name:als":"Paraguay","name:am":"ፓራጓይ","name:an":"Paraguai","name:ang":"Paraguay","name:ar":"باراغواي","name:arz":"باراجواى","name:ast":"Paraguái","name:ay":"Parawayi","name:az":"Paraqvay","name:ba":"Парагвай","name:bar":"Paraguay","name:bat-smg":"Paragvajos","name:bcl":"Paraguay","name:be":"Парагвай","name:be-tarask":"Парагвай","name:bg":"Парагвай","name:bi":"Paraguay","name:bn":"প্যারাগুয়ে","name:bo":"པ་ར་གུ་ཡེ།","name:bpy":"পারাগুয়ে","name:br":"Paraguay","name:bs":"Paragvaj","name:ca":"Paraguai","name:ce":"Парагвай","name:ceb":"Paraguay","name:ckb":"پاراگوای","name:co":"Paraguay","name:crh":"Paragvay","name:cs":"Paraguay","name:cv":"Парагвай","name:cy":"Paraguay","name:da":"Paraguay","name:de":"Paraguay","name:diq":"Paraguay","name:dsb":"Paraguay","name:dv":"ޕެރަގުއޭ","name:ee":"Paraguay","name:el":"Παραγουάη","name:en":"Paraguay","name:eo":"Paragvajo","name:es":"Paraguay","name:et":"Paraguay","name:eu":"Paraguai","name:ext":"Paraguai","name:fa":"پاراگوئه","name:fi":"Paraguay","name:fiu-vro":"Paraguay","name:fo":"Paraguei","name:fr":"Paraguay","name:frp":"Paragoayi","name:frr":"Paraguay","name:fy":"Paraguay","name:ga":"Paragua","name:gag":"Paragvay","name:gd":"Paraguaidh","name:gl":"Paraguai - Paraguay","name:gn":"Paraguái","name:gv":"Yn Pharaguay","name:hak":"Pâ-lâ-kûi","name:he":"פרגוואי","name:hi":"पैराग्वे","name:hif":"Paraguay","name:hr":"Paragvaj","name:hsb":"Paraguay","name:ht":"Paragwe","name:hu":"Paraguay","name:hy":"Պարագվայ","name:ia":"Paraguay","name:id":"Paraguay","name:ie":"Paraguay","name:ilo":"Paraguay","name:io":"Paraguay","name:is":"Paragvæ","name:it":"Paraguay","name:ja":"パラグアイ","name:jbo":"paraguais","name:jv":"Paraguay","name:ka":"პარაგვაი","name:kab":"Paragway","name:kk":"Парагвай","name:kl":"Paraguay","name:kn":"ಪೆರಗ್ವೆ","name:ko":"파라과이","name:ku":"Paraguay","name:kw":"Paragway","name:la":"Paraquaria","name:lad":"Paraguay","name:lb":"Paraguay","name:lez":"Парагвай","name:lfn":"Paraguai","name:li":"Paraguay","name:lij":"Paraguay","name:lmo":"Paraguay","name:ln":"Palagway","name:lt":"Paragvajus","name:ltg":"Paragvajs","name:lv":"Paragvaja","name:mhr":"Парагвай","name:mk":"Парагвај","name:ml":"പരഗ്വെ","name:mn":"Парагвай","name:mr":"पेराग्वे","name:mrj":"Парагвай","name:ms":"Paraguay","name:mt":"Paragwaj","name:my":"ပါရာဂွေးနိုင်ငံ","name:nah":"Paraguay","name:nan":"Paraguay","name:nap":"Paraguay","name:nds":"Paraguay","name:ne":"पाराग्वे","name:nl":"Paraguay","name:nn":"Paraguay","name:no":"Paraguay","name:nov":"Paraguay","name:oc":"Paraguai","name:or":"ପାରାଗୁଏ","name:os":"Парагвай","name:pa":"ਪੈਰਾਗੁਏ","name:pam":"Paraguay","name:pap":"Paraguay","name:pdc":"Paraguay","name:pl":"Paragwaj","name:pms":"Paraguay","name:pnb":"پیراگوۓ","name:pt":"Paraguai","name:qu":"Parawayi","name:rm":"Paraguay","name:rmy":"Paraguay","name:ro":"Paraguay","name:ru":"Парагвай","name:rw":"Paragwe","name:sa":"पेरेग्वाय","name:sah":"Парагуай","name:sco":"Paraguay","name:se":"Paraguay","name:sh":"Paragvaj","name:sk":"Paraguaj","name:sl":"Paragvaj","name:smn":"Paraguay","name:sms":"Paraguay","name:so":"Paraguay","name:sq":"Paraguaji","name:sr":"Парагвај","name:su":"Paraguay","name:sv":"Paraguay","name:sw":"Paraguay","name:szl":"Paragwaj","name:ta":"பரகுவை","name:tet":"Paraguai","name:tg":"Парагвай","name:th":"ประเทศปารากวัย","name:tl":"Paraguay","name:tok":"ma Palakawi","name:tr":"Paraguay","name:tt":"Парагвай","name:tzl":"Paraguai","name:ug":"پاراگۋاي","name:uk":"Парагвай","name:ur":"پیراگوئے","name:uz":"Paragvay","name:vec":"Paraguay","name:vi":"Paraguay","name:vo":"Paragvän","name:war":"Paraguay","name:wo":"Paraguwaay","name:wuu":"巴拉圭","name:xal":"Парагаймудин Орн","name:xmf":"პარაგვაი","name:yi":"פאראגוויי","name:yo":"Paragúáì","name:yue":"巴拉圭","name:zh":"巴拉圭","name:zh-Hans":"巴拉圭","name:zh-Hant":"巴拉圭","official_name:be":"Рэспубліка Парагвай","official_name:eo":"Paragvaja Respubliko","official_name:es":"Republica del Paraguay","official_name:no":"Republikken Paraguay","official_name:ru":"Республика Парагвай","place":"country","population":"7012433","population:date":"2015","source:population":"wikipedia","source:sqkm":"CIA World Factbook","sqkm":"406752","wikidata":"Q733","wikipedia":"es:Paraguay"}}
{"type":"node","id":1770467684,"lat":12.5013629,"lon":-69.9618475,"visible":true,"version":48,"timestamp":"2022-05-01T14:36:31Z","tags":{"ISO3166-1":"AW","ISO3166-1:alpha2":"AW","ISO3166-1:alpha3":"ABW","ISO3166-1:numeric":"533","ISO3166-2":"NL-AW","admin_level":"3","description:en":"Constituent country of the Kingdom of the Netherlands.","description:nl":"Constituerend land van het Koninkrijk der Nederlanden.","name":"Aruba","name:ar":"أروبا","name:be":"Аруба","name:br":"Aruba","name:ca":"Aruba","name:ckb":"ئارووبا","name:de":"Aruba","name:el":"Αρούμπα","name:en":"Aruba","name:eo":"Arubo","name:es":"Aruba","name:et":"Aruba","name:eu":"Aruba uhartea","name:fa":"آروبا","name:fi":"Aruba","name:fr":"Aruba","name:fy":"Arûba","name:gv":"Aruba","name:he":"ארובה","name:hu":"Aruba","name:ia":"Aruba","name:io":"Aruba","name:is":"Arúba","name:it":"Aruba","name:ja":"アルバ","name:jbo":"arubas","name:kn":"ಅರುಬ","name:ku":"Arûba","name:lfn":"Aruba","name:lt":"Aruba","name:mr":"अरुबा","name:nds":"Aruba","name:nl":"Aruba","name:no":"Aruba","name:pl":"Aruba","name:ru":"Аруба","name:sk":"Aruba","name:sr":"Аруба","name:sv":"Aruba","name:uk":"Аруба","name:uz":"Aruba","name:vi":"Aruba","name:zh":"阿鲁巴","place":"country","population":"116576","source:name:br":"ofis publik ar brezhoneg","source:sqkm":"CIA World Factbook","sqkm":"180","wikidata":"Q21203","wikipedia":"nl:Aruba"}}
{"type":"node","id":9127842095,"lat":12.117648800000001,"lon":-68.93092630000001,"visible":true,"version":3,"timestamp":"2021-10-07T19:41:22Z","tags":{"ISO3166-1":"CW","ISO3166-1:alpha2":"CW","ISO3166-1:alpha3":"CUW","ISO3166-1:numeric":"531","ISO3166-2":"NL-CW","alt_name:pt":"Curaçau","description:en":"Constituent country of the Kingdom of the Netherlands.","description:nl":"Constituerend land van het Koninkrijk der Nederlanden.","name":"Curaçao","name:am":"ኩራሳዎ","name:ar":"كوراساو","name:be":"Кюрасаа","name:bg":"Кюрасао","name:bn":"কুরাসাও","name:br":"Curaçao","name:ca":"Curaçao","name:chr":"ᏂᎦᏓ ᎤᏂᎲ ᎾᎿ ᎫᎳᎨᎣ","name:cy":"Cwracao","name:da":"Curacao","name:de":"Curaçao","name:dz":"ཀྱཱུར་ར་ཀོ","name:ee":"Kurakao nutome","name:el":"Κουρασάο","name:en":"Curacao","name:eo":"Kuracao","name:es":"Curazao","name:fa":"کوراکائو","name:fi":"Curaçao","name:fr":"Curaçao","name:gu":"કુરાકાઓ","name:he":"קוראסאו","name:hi":"क्यूरासाओ","name:hr":"Curaçao","name:is":"Curacao","name:it":"Curaçao","name:ja":"キュラソー","name:km":"កូរ៉ាកៅ","name:kn":"ಕುರಾಕಾವ್","name:ko":"퀴라소","name:lo":"ເຄີເລັກຄາວ","name:lt":"Kiurasao","name:lv":"Kirasao","name:mk":"Курасао","name:ml":"കുറാകാവോ","name:mr":"कुरॅको","name:ms":"Curacao","name:ne":"कुराकाओ","name:nl":"Curaçao","name:no":"Curaçao","name:pap":"Kòrsou","name:pt":"Curaçao","name:ru":"Кюрасао","name:si":"කුරකාවෝ","name:sr":"Курасао","name:sv":"Curaçao","name:sw":"Kurakao","name:ta":"குராகவ்","name:te":"కురాకవో","name:th":"คูราเซา","name:to":"Kulasao","name:uk":"Кюрасао","name:ur":"کیوراکاؤ","name:uz":"Kyurasao","name:vi":"Curaçao","name:zh":"库拉索","name:zu":"I-Curaçao","note:ISO3166-2":"Curaçao is a subset (type Country) of the Kingdom of the Netherlands (ISO3166-1 country code NL)","official_name":"Curaçao","place":"country","source:name:br":"ofis publik ar brezhoneg","wikidata":"Q25279","wikipedia":"nl:Curaçao"}}
