{"type":"node","id":249420307,"lat":-0.060689900000000005,"lon":-90.67389800000001,"visible":true,"version":11,"timestamp":"2020-04-27T07:34:13Z","tags":{"ISO3166-2":"EC-W","gns_classification":"ADM1","is_in:country_code":"EC","name":"Galápagos","name:cs":"Galapágy","name:ku":"Giravên Galapagosê","name:ru":"Галапагосские острова","name:sk":"Galapágy","place":"state","ref":"GA","source":"GNS","state_code":"GA"}}
{"type":"node","id":249420312,"lat":-2,"lon":-80,"visible":true,"version":10,"timestamp":"2020-04-19T23:41:40Z","tags":{"ISO3166-2":"EC-G","gns_classification":"ADM1","name":"Guayas","name:ru":"Гуаяс","place":"state","ref":"GY","source":"GNS"}}
{"type":"node","id":249420393,"lat":-1.9166670000000001,"lon":-77,"visible":true,"version":9,"timestamp":"2020-04-20T00:21:31Z","tags":{"ISO3166-2":"EC-Y","gns_classification":"ADM1","name":"Pastaza","name:ru":"Пастаса","place":"state","ref":"PA","source":"GNS"}}
{"type":"node","id":249420465,"lat":-0.039138,"lon":-76.51196780000001,"visible":true,"version":12,"timestamp":"2020-04-20T00:21:31Z","tags":{"ISO3166-2":"EC-U","gns_classification":"ADM1","name":"Sucumbíos","name:ru":"Сукумбиос","place":"state","ref":"SU","source":"GNS"}}
{"type":"node","id":306394501,"lat":7.000008500000001,"lon":-73.2500086,"visible":true,"version":6,"timestamp":"2016-07-07T11:51:45Z","tags":{"gns:dsg":"ADM1","gns:uni":"-844278","is_in:country":"Colombia","is_in:country_code":"CO","name":"Santander","name:eo":"Santandero","name:ru":"Сантандер","place":"state","population":"2085084","ref":"SAN","source":"GNS","state_capital":"Bucaramanga","state_code":"SAN"}}
{"type":"node","id":306394504,"lat":3.5000086,"lon":-73.0000086,"visible":true,"version":6,"timestamp":"2016-07-07T11:51:44Z","tags":{"gns:dsg":"ADM1","gns:uni":"-835921","is_in:country":"Colombia","is_in:country_code":"CO","name":"Meta","name:eo":"Metao","name:ru":"Мета","place":"state","population":"771089","ref":"MET","source":"GNS","state_capital":"Villavicencio","state_code":"MET"}}
{"type":"node","id":306394506,"lat":12.808690200000001,"lon":-81.4908431,"visible":true,"version":10,"timestamp":"2017-09-11T05:28:13Z","tags":{"gns:dsg":"ADM1","gns:uni":"9161874","is_in:country":"Colombia","is_in:country_code":"CO","name":"San Andrés y Providencia","name:de":"San Andrés und Providencia","name:en":"San Andrés and Providencia","name:eo":"Sankta Andreo kaj Providenco","name:ru":"Сан-Андрес-и-Провиденция","official_name":"Archipiélago de San Andrés, Providencia y Santa Catalina","official_name:en":"Archipelago of San Andrés, Providencia and Santa Catalina","place":"state","population":"83491","ref":"SAP","source":"GNS","state_capital":"San Andrés","state_code":"SAP","website":"www.sanandres.gov.co","wikidata":"Q26855","wikipedia":"en:Archipelago of San Andrés, Providencia and Santa Catalina"}}
{"type":"node","id":306394508,"lat":2.7156450000000003,"lon":-76.662665,"visible":true,"version":14,"timestamp":"2017-09-11T17:43:56Z","tags":{"gns:dsg":"ADM1","gns:uni":"-818895","is_in:country":"Colombia","is_in:country_code":"CO","name":"Cauca","name:eo":"Kaŭko","name:ru":"Каука","place":"state","population":"1363054","ref":"CAU","source":"GNS","state_capital":"Popayán","state_code":"CAU","wikidata":"Q230602","wikipedia":"es:Cauca (Colombia)"}}
{"type":"node","id":306394513,"lat":8.3344713,"lon":-75.66662380000001,"visible":true,"version":9,"timestamp":"2021-05-26T13:39:29Z","tags":{"gns:dsg":"ADM1","gns:uni":"-820598","is_in:country":"Colombia","is_in:country_code":"CO","name":"Córdoba","name:eo":"Kordovo","name:ru":"Кордоба","place":"state","population":"1392905","ref":"COR","source":"GNS","wikidata":"Q234912","wikipedia":"en:Córdoba Department"}}
{"type":"node","id":306394516,"lat":6.000008500000001,"lon":-77.0000086,"visible":true,"version":8,"timestamp":"2017-09-11T17:45:24Z","tags":{"gns:dsg":"ADM1","gns:uni":"-819769","is_in:country":"Colombia","is_in:country_code":"CO","name":"Chocó","name:eo":"Ĉokoo","name:ru":"Чоко","place":"state","population":"413173","ref":"CHO","source":"GNS","state_capital":"Quibdó","state_code":"CHO","wikidata":"Q230584","wikipedia":"es:Chocó"}}
{"type":"node","id":306394518,"lat":1.6894444000000002,"lon":-72.8202864,"visible":true,"version":7,"timestamp":"2019-12-15T20:09:33Z","tags":{"gns:dsg":"ADM1","gns:uni":"9161880","is_in:country":"Colombia","is_in:country_code":"CO","name":"Guaviare","name:eo":"Gŭavjaro","name:ru":"Гуавиар","place":"state","population":"73081","ref":"GUV","source":"GNS","state_capital":"San José del Guaviare","state_code":"GUV"}}
{"type":"node","id":306394521,"lat":2.5000086,"lon":-69.0000086,"visible":true,"version":6,"timestamp":"2016-07-07T11:51:43Z","tags":{"gns:dsg":"ADM1","gns:uni":"567947","is_in:country":"Colombia","is_in:country_code":"CO","name":"Guainía","name:eo":"Gvajnio","name:ru":"Гуаинья","place":"state","population":"43314","ref":"GUA","source":"GNS","state_capital":"Inirida","state_code":"GUA"}}
{"type":"node","id":306394523,"lat":3.7500086,"lon":-75.2500086,"visible":true,"version":6,"timestamp":"2016-07-07T11:51:46Z","tags":{"gns:dsg":"ADM1","gns:uni":"-846556","is_in:country":"Colombia","is_in:country_code":"CO","name":"Tolima","name:eo":"Tolimo","name:ru":"Толима","place":"state","population":"1312972","ref":"TOL","source":"GNS","state_capital":"Ibagué","state_code":"TOL"}}
{"type":"node","id":306394524,"lat":1.5,"lon":-78.0000086,"visible":true,"version":6,"timestamp":"2016-07-07T11:51:44Z","tags":{"gns:dsg":"ADM1","gns:uni":"-837022","is_in:country":"Colombia","is_in:country_code":"CO","name":"Nariño","name:eo":"Narino","name:ru":"Нариньо","place":"state","population":"1775139","ref":"NAR","source":"GNS","state_capital":"Pasto","state_code":"NAR"}}
{"type":"node","id":306394531,"lat":1.1153385,"lon":-74.10568380000001,"visible":true,"version":8,"timestamp":"2016-09-21T04:28:48Z","tags":{"gns:dsg":"ADM1","gns:uni":"-817710","is_in:country":"Colombia","is_in:country_code":"CO","name":"Caquetá","name:eo":"Kaketao","name:ru":"Какьета","place":"state","population":"463333","ref":"CAQ","source":"GNS","state_capital":"Florencia","state_code":"CAQ"}}
{"type":"node","id":306394536,"lat":5.500008500000001,"lon":-71.5000086,"visible":true,"version":7,"timestamp":"2020-11-28T04:22:57Z","tags":{"gns:dsg":"ADM1","gns:uni":"9161881","is_in:country":"Colombia","is_in:country_code":"CO","name":"Casanare","name:eo":"Kasanareo","name:ru":"Касанар","place":"state","population":"435195","ref":"CAS","source":"GNS","source:population":"DANE proyección 2020","state_capital":"Yopal","state_code":"CAS"}}
{"type":"node","id":306394540,"lat":9.333341500000001,"lon":-73.5000086,"visible":true,"version":6,"timestamp":"2016-07-07T11:51:42Z","tags":{"gns:dsg":"ADM1","gns:uni":"-819126","is_in:country":"Colombia","is_in:country_code":"CO","name":"Cesar","name:eo":"Cezaro","name:ru":"Сесар","place":"state","population":"1050303","ref":"CES","source":"GNS","state_capital":"Valledupar","state_code":"CES"}}
{"type":"node","id":306394548,"lat":6.6666755,"lon":-71.0000086,"visible":true,"version":6,"timestamp":"2016-07-07T11:51:40Z","tags":{"gns:dsg":"ADM1","gns:uni":"9161884","is_in:country":"Colombia","is_in:country_code":"CO","name":"Arauca","name:eo":"Araŭko","name:ru":"Араука","place":"state","population":"282302","ref":"ARA","source":"GNS","state_capital":"Arauca","state_code":"ARA"}}
{"type":"node","id":306394550,"lat":-1.0197136,"lon":-71.93833330000001,"visible":true,"version":6,"timestamp":"2016-07-07T11:51:40Z","tags":{"gns:dsg":"ADM1","gns:uni":"8021983","is_in:country":"Colombia","is_in:country_code":"CO","name":"Amazonas","name:eo":"Amazono","name:ru":"Амазонас","place":"state","population":"80360","ref":"AMA","source":"GNS","state_capital":"Leticia","state_code":"AMA"}}
{"type":"node","id":306394554,"lat":8.4417924,"lon":-73.0492505,"visible":true,"version":8,"timestamp":"2016-07-07T11:51:44Z","tags":{"gns:dsg":"ADM1","gns:uni":"-837343","is_in:country":"Colombia","is_in:country_code":"CO","name":"Norte de Santander","name:eo":"Norda Santandero","name:ru":"Северный Сантандер","place":"state","population":"1493932","ref":"NSA","source":"GNS","state_capital":"Cúcuta","state_code":"NSA"}}
{"type":"node","id":306394562,"lat":5.330251400000001,"lon":-75.2873471,"visible":true,"version":11,"timestamp":"2017-09-11T17:44:33Z","tags":{"DANE:departamento":"17","gns:dsg":"ADM1","gns:uni":"-817089","is_in:country":"Colombia","is_in:country_code":"CO","name":"Caldas","name:ar":"كالداس","name:de":"Caldas","name:el":"Καλδάς","name:en":"Caldas","name:eo":"Kaldaso","name:fr":"Caldas","name:ja":"カルダス","name:ko":"칼다스","name:lt":"Kaldas","name:ru":"Калдас","name:uk":"Кальдас","name:zh":"卡尔达斯省","place":"state","population":"1170187","ref":"CAL","source":"GNS","state_capital":"Manizales","state_code":"CAL","wikidata":"Q230607","wikipedia":"es:Caldas"}}
{"type":"node","id":306394564,"lat":0.5000086,"lon":-76.0000086,"visible":true,"version":6,"timestamp":"2016-07-07T11:51:44Z","tags":{"gns:dsg":"ADM1","gns:uni":"9161879","is_in:country":"Colombia","is_in:country_code":"CO","name":"Putumayo","name:eo":"Putumajo","name:ru":"Путумайо","place":"state","population":"378483","ref":"PUT","source":"GNS","state_capital":"Mocoa","state_code":"PUT"}}
{"type":"node","id":306394567,"lat":7.000008500000001,"lon":-75.5000086,"visible":true,"version":6,"timestamp":"2016-07-07T11:51:40Z","tags":{"gns:dsg":"ADM1","gns:uni":"-814522","is_in:country":"Colombia","is_in:country_code":"CO","name":"Antioquia","name:eo":"Antjokio","name:ru":"Антиокия","place":"state","population":"5750478","ref":"ANT","source":"GNS","state_capital":"Medellín","state_code":"ANT"}}
{"type":"node","id":306394570,"lat":5.0000086,"lon":-74.1666756,"visible":true,"version":8,"timestamp":"2017-09-11T17:45:38Z","tags":{"gns:dsg":"ADM1","gns:uni":"-821619","is_in:country":"Colombia","is_in:country_code":"CO","name":"Cundinamarca","name:eo":"Kundinamarko","name:ru":"Кундинамарка","place":"state","population":"9467562","ref":"CUN","source":"GNS","state_capital":"Bogotá","state_code":"CUN","wikidata":"Q232564","wikipedia":"es:Cundinamarca"}}
{"type":"node","id":306394572,"lat":9,"lon":-75,"visible":true,"version":9,"timestamp":"2017-09-11T17:45:51Z","tags":{"gns:dsg":"ADM1","gns:uni":"-845419","is_in:country":"Colombia","is_in:country_code":"CO","name":"Sucre","name:eo":"Sukreo","name:ru":"Сукре","place":"state","population":"868648","ref":"SUC","source":"GNS","state_capital":"Sincelejo","state_code":"SUC","wikidata":"Q235188","wikipedia":"es:Sucre (Colombia)"}}
{"type":"node","id":306394574,"lat":5.0000086,"lon":-69.5000086,"visible":true,"version":6,"timestamp":"2016-07-07T11:51:46Z","tags":{"gns:dsg":"ADM1","gns:uni":"9161843","is_in:country":"Colombia","is_in:country_code":"CO","name":"Vichada","name:eo":"Viĉado","name:ru":"Вичада","place":"state","population":"97276","ref":"VID","source":"GNS","state_capital":"Puerto Carreño","state_code":"VID"}}
{"type":"node","id":306394577,"lat":2.4738993000000002,"lon":-75.5900113,"visible":true,"version":6,"timestamp":"2016-07-07T11:51:43Z","tags":{"gns:dsg":"ADM1","gns:uni":"-828728","is_in:country":"Colombia","is_in:country_code":"CO","name":"Huila","name:eo":"Ujlao","name:ru":"Уила","place":"state","population":"994218","ref":"HUI","source":"GNS","state_capital":"Neiva","state_code":"HUI"}}
{"type":"node","id":306394579,"lat":0.2500086,"lon":-70.7500086,"visible":true,"version":6,"timestamp":"2016-07-07T11:51:46Z","tags":{"gns:dsg":"ADM1","gns:uni":"9161845","is_in:country":"Colombia","is_in:country_code":"CO","name":"Vaupés","name:eo":"Vaŭpeso","name:ru":"Ваупес","place":"state","population":"33152","ref":"VAU","source":"GNS","state_capital":"Mitú","state_code":"VAU"}}
{"type":"node","id":306394580,"lat":5.627897900000001,"lon":-72.82686170000001,"visible":true,"version":10,"timestamp":"2016-07-07T11:51:41Z","tags":{"gns:dsg":"ADM1","gns:uni":"-816325","is_in:country":"Colombia","is_in:country_code":"CO","name":"Boyacá","name:eo":"Bojakao","name:ru":"Бояка","place":"state","population":"1411239","ref":"BOY","source":"GNS","state_capital":"Tunja","state_code":"BOY"}}
{"type":"node","id":306394583,"lat":5.210294800000001,"lon":-75.9842236,"visible":true,"version":7,"timestamp":"2016-07-07T11:51:45Z","tags":{"gns:dsg":"ADM1","gns:uni":"-841647","is_in:country":"Colombia","is_in:country_code":"CO","name":"Risaralda","name:eo":"Risaraldo","name:ru":"Рисаральда","place":"state","population":"1024362","ref":"RIS","source":"GNS","state_capital":"Pereira","state_code":"RIS"}}
{"type":"node","id":313466839,"lat":8.166667,"lon":-69.83333300000001,"visible":true,"version":5,"timestamp":"2016-07-07T12:36:08Z","tags":{"gns:dsg":"ADM1","gns:uni":"-1385015","is_in:country":"Venezuela","is_in:country_code":"VE","name":"Barinas","name:eo":"Barinaso","name:ru":"Баринас","place":"state","ref":"E","source":"GNS"}}
{"type":"node","id":313466859,"lat":10,"lon":-67.166667,"visible":true,"version":5,"timestamp":"2016-07-07T12:36:08Z","tags":{"gns:dsg":"ADM1","gns:uni":"-1384278","is_in:country":"Venezuela","is_in:country_code":"VE","name":"Aragua","name:eo":"Aragŭo","name:ru":"Арагуа","place":"state","ref":"D","source":"GNS"}}
{"type":"node","id":313466922,"lat":8.6282101,"lon":-61.564810800000004,"visible":true,"version":5,"timestamp":"2013-11-10T03:48:54Z","tags":{"gns:dsg":"ADM1","gns:uni":"-1390089","is_in:country":"Venezuela","is_in:country_code":"VE","name":"Delta Amacuro","name:en":"Delta Amacuro State","name:ru":"Дельта-Амакуро","place":"state","population":"152700","ref":"Y","source":"GNS"}}
{"type":"node","id":313466933,"lat":7.166667,"lon":-68.83333300000001,"visible":true,"version":5,"timestamp":"2016-07-07T11:57:44Z","tags":{"gns:dsg":"ADM1","gns:uni":"-1384218","is_in:country":"Venezuela","is_in:country_code":"VE","name":"Apure","name:eo":"Apuro","name:ru":"Апуре","place":"state","ref":"C","source":"GNS"}}
{"type":"node","id":313466942,"lat":6.3333330000000005,"lon":-63.50000000000001,"visible":true,"version":5,"timestamp":"2016-07-07T11:57:44Z","tags":{"gns:dsg":"ADM1","gns:uni":"-1385573","is_in:country":"Venezuela","is_in:country_code":"VE","name":"Bolívar","name:eo":"Bolivaro","name:ru":"Боливар","place":"state","ref":"F","source":"GNS"}}
{"type":"node","id":313466946,"lat":9.333333000000001,"lon":-68.33333300000001,"visible":true,"version":5,"timestamp":"2016-07-07T12:36:09Z","tags":{"gns:dsg":"ADM1","gns:uni":"-1388981","is_in:country":"Venezuela","is_in:country_code":"VE","name":"Cojedes","name:eo":"Kojedeso","name:ru":"Кохедес","place":"state","ref":"H","source":"GNS"}}
{"type":"node","id":313466992,"lat":3.5,"lon":-66,"visible":true,"version":7,"timestamp":"2017-09-11T06:00:19Z","tags":{"ISO3166-2":"VE-Z","gns:dsg":"ADM1","gns:uni":"567517","is_in:country":"Venezuela","is_in:country_code":"VE","name":"Amazonas","name:eo":"Amazonio","name:ru":"Амасонас","place":"state","population":"142200","ref":"X","source":"GNS","wikidata":"Q170453","wikipedia":"en:Amazonas, Venezuela"}}
{"type":"node","id":313466993,"lat":9,"lon":-64.5,"visible":true,"version":5,"timestamp":"2016-07-07T12:38:21Z","tags":{"gns:dsg":"ADM1","gns:uni":"-1384157","is_in:country":"Venezuela","is_in:country_code":"VE","name":"Anzoátegui","name:eo":"Anzoategio","name:ru":"Ансоатеги","place":"state","ref":"B","source":"GNS"}}
{"type":"node","id":313466997,"lat":8.666667,"lon":-66.58333300000001,"visible":true,"version":5,"timestamp":"2016-07-07T12:36:09Z","tags":{"gns:dsg":"ADM1","gns:uni":"-1395284","is_in:country":"Venezuela","is_in:country_code":"VE","name":"Guárico","name:eo":"Gŭariko","name:ru":"Гуарико","place":"state","ref":"J","source":"GNS"}}
{"type":"node","id":313467022,"lat":10.166667,"lon":-68.08333300000001,"visible":true,"version":5,"timestamp":"2016-07-07T11:57:44Z","tags":{"gns:dsg":"ADM1","gns:uni":"-1387218","is_in:country":"Venezuela","is_in:country_code":"VE","name":"Carabobo","name:eo":"Karabobo","name:ru":"Карабобо","place":"state","ref":"G","source":"GNS"}}
{"type":"node","id":313467052,"lat":10.333333000000001,"lon":-68.75,"visible":true,"version":4,"timestamp":"2013-11-10T03:29:34Z","tags":{"gns:dsg":"ADM1","gns:uni":"-1413361","is_in:country":"Venezuela","is_in:country_code":"VE","name":"Yaracuy","name:ru":"Яракуй","place":"state","ref":"U","source":"GNS"}}
{"type":"node","id":313467066,"lat":10.25,"lon":-66.416667,"visible":true,"version":5,"timestamp":"2016-07-07T12:36:09Z","tags":{"gns:dsg":"ADM1","gns:uni":"-1404552","is_in:country":"Venezuela","is_in:country_code":"VE","name":"Miranda","name:eo":"Mirando","name:ru":"Миранда","place":"state","ref":"M","source":"GNS"}}
{"type":"node","id":313753808,"lat":4.0039882,"lon":-52.999998000000005,"visible":true,"version":22,"timestamp":"2021-08-01T15:46:18Z","tags":{"ISO3166-1":"GF","ISO3166-1:alpha2":"GF","ISO3166-1:alpha3":"GUF","ISO3166-1:numeric":"254","alt_name:ru":"Французская Гвиана","capital_city":"Cayenne","country_code_fips":"FG","currency":"EUR","description":"France, départements et régions d'outre-mer, territoires régis par l’article 73 de la Constitution","gns:dsg":"ADM1","gns:uni":"-1356972","int_name":"French Guiana","name":"Guyane","name:af":"Frans-Guyana","name:ak":"Frɛnkye Gayana","name:am":"የፈረንሳይ ጉዊአና","name:ar":"غيانا","name:ast":"Guyana Francesa","name:az":"Fransız Quyanası","name:be":"Французская Гвіяна","name:bg":"Френска Гвиана","name:bm":"Faransi ka gwiyani","name:bn":"ফরাসী গায়ানা","name:br":"Gwiana c’hall","name:bs":"Francuska Gvajana","name:ca":"Guaiana Francesa","name:chr":"ᎠᏂᎦᎸᏥ ᎩᎠ","name:cs":"Francouzská Guyana","name:cy":"Guyane","name:da":"Fransk Guyana","name:de":"Französisch-Guayana","name:dz":"གུའི་ཡ་ན་ ཕྲནས྄་མངའ་ཁོངས","name:ee":"Frentsi Gayana nutome","name:el":"Γαλλική Γουιάνα","name:en":"French Guiana","name:eo":"Franca Gviano","name:es":"Guayana Francesa","name:et":"Prantsuse Guajaana","name:eu":"Guyana Frantsesa","name:fa":"گویان فرانسه","name:ff":"Giyaan Farayse","name:fi":"Ranskan Guayana","name:fo":"Fransk Gujana","name:fr":"Guyane","name:fur":"Guiana francês","name:fy":"Frânsk Guyana","name:ga":"Guáin na Fraince","name:gd":"Guiana Fhrangach","name:gl":"Güiana Francesa","name:gu":"ફ્રેંચ ગયાના","name:ha":"Gini Ta Faransa","name:he":"גיאנה הצרפתית","name:hi":"फ़्रांसीसी गिआना","name:hr":"Francuska Gvajana","name:hu":"Francia Guyana","name:ia":"Guyana francese","name:id":"Guyana Perancis","name:is":"Franska Gvæjana","name:it":"Guyana francese","name:ja":"仏領ギアナ","name:kab":"Ɣana tafransist","name:ki":"Gwiyana ya Ufaransa","name:km":"ហ្វ្វេន​ហ្គៀណា","name:kn":"ಫ್ರೆಂಚ್ ಗಯಾನಾ","name:ko":"프랑스령 기아나","name:ks":"فرٛانسِسی گِانا","name:ksh":"Franzüüsesch Jujaana","name:la":"Guiana Francica","name:lg":"Guyana enfalansa","name:li":"Frans Guyana","name:ln":"Giyanɛ ya Falánsɛ","name:lo":"ເຟັນສກິວນາ","name:lt":"Prancūzijos Gviana","name:lv":"Franču Gviāna","name:mg":"Guyana frantsay","name:mi":"Kaiana Wīwī","name:mk":"Француска Гвајана","name:ml":"ഫ്രഞ്ച് ഗയാന","name:mn":"Франц Гвиана","name:mr":"फ्रेंच गयाना","name:ms":"French Guiana","name:mt":"Gujana Franċiża","name:my":"ပြင်သစ် ဂီယာနာ","name:ne":"फ्रान्सेली गायना","name:nl":"Frans-Guyana","name:nn":"Fransk Guyana","name:no":"Fransk Guyana","name:or":"ଫ୍ରେଞ୍ଚ ଗୁଇନା","name:pl":"Gujana Francuska","name:pt":"Guiana Francesa","name:rm":"Guyana Franzosa","name:rn":"Gwayana y'Abafaransa","name:ro":"Guyana Franceză","name:ru":"Французская Гвиана","name:se":"Frankriikka Guayana","name:sg":"Güyâni tî farânzi","name:si":"ප්රංශ ගයනාව","name:sk":"Francúzska Guyana","name:sl":"Francoska Gvajana","name:sn":"French Guiana","name:so":"French Guiana","name:sr":"Француска Гвајана","name:sv":"Franska Guyana","name:sw":"Gwiyana ya Ufaransa","name:te":"ఫ్రెంచ్ గియానా","name:th":"เฟรนช์เกียนา","name:ti":"የፈረንሳይ ጉዊአና","name:to":"Falanise Kuiana","name:tr":"Fransız Guyanası","name:tt":"Француз Гвианасы","name:uk":"Французька Гвіана","name:ur":"فرینچ گیانا","name:vi":"Guyane thuộc Pháp","name:yo":"Orílẹ́ède Firenṣi Guana","name:yue":"法屬圭亞那","name:zh":"法属圭亚那 / 法屬圭亞那","name:zh-Hans":"法属圭亚那","name:zh-Hant":"法屬圭亞那","name:zu":"isi-French Guiana","official_name":"Région de la Guyane","official_name:cs":"Region Francouzská Guyana","old_name:fr":"Guyane française","place":"state","population":"237549","source:population":"INSEE 2014","timezone":"America/Cayenne","website":"http://www.cr-guyane.fr/","wikidata":"Q3769","wikipedia":"fr:Guyane"}}
{"type":"node","id":313928961,"lat":-25.25,"lon":-57,"visible":true,"version":6,"timestamp":"2017-09-11T17:40:22Z","tags":{"ISO3166-2":"PY-3","capital_city":"Caacupé","gns:dsg":"ADM1","gns:uni":"-1347940","is_in:country":"Paraguay","is_in:country_code":"PY","name":"Departamento de la Cordillera","name:fr":"Cordillera","name:ru":"Кордильера","place":"state","population":"234805","source":"GNS","wikidata":"Q755121","wikipedia":"es:Departamento de Cordillera"}}
{"type":"node","id":313928963,"lat":-26,"lon":-57.166667000000004,"visible":true,"version":6,"timestamp":"2017-09-11T17:58:21Z","tags":{"ISO3166-2":"PY-9","capital_city":"Paraguarí","gns:dsg":"ADM1","gns:uni":"-1349798","is_in:country":"Paraguay","is_in:country_code":"PY","name":"Departamento de Paraguarí","name:fr":"Paraguarí","name:ru":"Парагуари","place":"state","population":"226514","source":"GNS","wikidata":"Q240014","wikipedia":"es:Departamento de Paraguarí"}}
{"type":"node","id":313928965,"lat":-25.5,"lon":-57.50000000000001,"visible":true,"version":7,"timestamp":"2020-12-27T10:05:18Z","tags":{"ISO3166-2":"PY-11","capital_city":"Areguá","gns:dsg":"ADM1","gns:uni":"-1347524","name":"Departamento Central","name:fr":"Central","name:ru":"Центральный департамент","place":"state","population":"1363399","source":"GNS","wikidata":"Q372461","wikipedia":"es:Departamento Central"}}
{"type":"node","id":313928966,"lat":-25.333333000000003,"lon":-55.833333,"visible":true,"version":6,"timestamp":"2017-09-11T17:58:06Z","tags":{"ISO3166-2":"PY-5","capital_city":"Coronel Oviedo","gns:dsg":"ADM1","gns:uni":"-1347252","is_in:country":"Paraguay","is_in:country_code":"PY","name":"Departamento de Caaguazú","name:fr":"Caaguazú","name:ru":"Каагуасу","place":"state","population":"448983","source":"GNS","wikidata":"Q880399","wikipedia":"es:Departamento de Caaguazú"}}
{"type":"node","id":313928967,"lat":-25.75,"lon":-56.5,"visible":true,"version":6,"timestamp":"2017-09-11T17:40:23Z","tags":{"ISO3166-2":"PY-4","capital_city":"Villarrica","gns:dsg":"ADM1","gns:uni":"-1349025","is_in:country":"Paraguay","is_in:country_code":"PY","name":"Departamento del Guairá","name:fr":"Guairá","name:ru":"Гуайра","place":"state","population":"178130","source":"GNS","wikidata":"Q755116","wikipedia":"es:Departamento de Guairá"}}
{"type":"node","id":313928968,"lat":-27,"lon":-58.00000000000001,"visible":true,"version":6,"timestamp":"2017-09-11T17:23:32Z","tags":{"ISO3166-2":"PY-12","capital_city":"Pilar","gns:dsg":"ADM1","gns:uni":"-1349668","is_in:country":"Paraguay","is_in:country_code":"PY","name":"Departamento de Ñeembucú","name:fr":"Ñeembucú","name:ru":"Ньеэмбуку","place":"state","population":"76738","source":"GNS","wikidata":"Q755115","wikipedia":"es:Departamento de Ñeembucú"}}
{"type":"node","id":313928969,"lat":-24.25,"lon":-55.25,"visible":true,"version":6,"timestamp":"2017-09-11T17:41:05Z","tags":{"ISO3166-2":"PY-14","capital_city":"Salto del Guairá","gns:dsg":"ADM1","gns:uni":"-1347385","is_in:country":"Paraguay","is_in:country_code":"PY","name":"Departamento de Canindeyú","name:fr":"Canindeyú","name:ru":"Канендию","place":"state","population":"140551","source":"GNS","wikidata":"Q279085","wikipedia":"es:Departamento de Canindeyú"}}
{"type":"node","id":313928971,"lat":-23.5,"lon":-58.833333,"visible":true,"version":6,"timestamp":"2017-09-11T06:02:31Z","tags":{"ISO3166-2":"PY-15","capital_city":"Pozo Colorado","gns:dsg":"ADM1","gns:uni":"-1350069","is_in:country":"Paraguay","is_in:country_code":"PY","name":"Departamento de Presidente Hayes","name:fr":"Presidente Hayes","name:ru":"Пресиденте-Аес","place":"state","population":"81876","source":"GNS","wikidata":"Q750551","wikipedia":"es:Departamento Presidente Hayes"}}
{"type":"node","id":313928972,"lat":-25.5,"lon":-54.833333,"visible":true,"version":6,"timestamp":"2017-09-11T17:58:06Z","tags":{"ISO3166-2":"PY-10","capital_city":"Ciudad del Este","gns:dsg":"ADM1","gns:uni":"-1347053","is_in:country":"Paraguay","is_in:country_code":"PY","name":"Departamento del Alto Paraná","name:fr":"Alto Paraná","name:ru":"Альто-Парана","place":"state","population":"563042","source":"GNS","wikidata":"Q682654","wikipedia":"es:Departamento de Alto Paraná"}}
{"type":"node","id":313928973,"lat":-26.166667,"lon":-56,"visible":true,"version":6,"timestamp":"2017-09-11T17:58:21Z","tags":{"ISO3166-2":"PY-6","capital_city":"Caazapá","gns:dsg":"ADM1","gns:uni":"-1347274","is_in:country":"Paraguay","is_in:country_code":"PY","name":"Departamento de Caazapá","name:fr":"Caazapá","name:ru":"Каасапа","place":"state","population":"139241","source":"GNS","wikidata":"Q881839","wikipedia":"es:Departamento de Caazapá"}}
{"type":"node","id":313928977,"lat":-20.5,"lon":-59.166667000000004,"visible":true,"version":7,"timestamp":"2017-09-11T06:02:31Z","tags":{"ISO3166-2":"PY-16","capital_city":"Fuerte Olimpo","gns:dsg":"ADM1","gns:uni":"-1347051","is_in:country":"Paraguay","is_in:country_code":"PY","name":"Departamento de Alto Paraguay","name:eo":"Alta Paragvajo","name:fr":"Alto Paraguay","name:ru":"Альто-Парагвай","old_name":"Olimpo","place":"state","population":"15008","source":"GNS","wikidata":"Q682642","wikipedia":"es:Departamento de Alto Paraguay"}}
{"type":"node","id":313928978,"lat":-24.25,"lon":-56.5,"visible":true,"version":6,"timestamp":"2017-09-11T17:41:05Z","tags":{"ISO3166-2":"PY-2","capital_city":"San Pedro de Ycuamandiyú","gns:dsg":"ADM1","gns:uni":"-1350705","is_in:country":"Paraguay","is_in:country_code":"PY","name":"Departamento de San Pedro","name:fr":"San Pedro","name:ru":"Сан-Педро","place":"state","population":"318787","source":"GNS","wikidata":"Q526176","wikipedia":"es:Departamento de San Pedro (Paraguay)"}}
{"type":"node","id":313928979,"lat":-23,"lon":-56,"visible":true,"version":8,"timestamp":"2019-04-09T13:55:59Z","tags":{"ISO3166-2":"PY-13","capital_city":"Pedro Juan Caballero","gns:dsg":"ADM1","gns:uni":"-1347069","name":"Departamento del Amambay","name:fr":"Amambay","name:ru":"Амамбай","place":"state","population":"113888","source":"GNS","wikidata":"Q686586","wikipedia":"es:Departamento Amambay"}}
{"type":"node","id":313928980,"lat":-27,"lon":-57,"visible":true,"version":6,"timestamp":"2017-09-11T17:22:07Z","tags":{"ISO3166-2":"PY-8","capital_city":"San Juan Bautista","gns:dsg":"ADM1","gns:uni":"-1349578","is_in:country":"Paraguay","is_in:country_code":"PY","name":"Departamento de Misiones","name:fr":"Misiones","name:ru":"Мисьонес","old_name":"San Ignacio","place":"state","population":"103633","source":"GNS","wikidata":"Q591194","wikipedia":"es:Departamento de Misiones"}}
{"type":"node","id":313928981,"lat":-26.833333000000003,"lon":-55.833333,"visible":true,"version":6,"timestamp":"2017-09-11T17:22:07Z","tags":{"ISO3166-2":"PY-7","capital_city":"Encarnación","gns:dsg":"ADM1","gns:uni":"-1349228","is_in:country":"Paraguay","is_in:country_code":"PY","name":"Departamento de Itapúa","name:fr":"Itapúa","name:ru":"Итапуа","place":"state","population":"463410","source":"GNS","wikidata":"Q222564","wikipedia":"es:Departamento de Itapúa"}}
{"type":"node","id":313928982,"lat":-23.177500000000002,"lon":-57.167500000000004,"visible":true,"version":6,"timestamp":"2017-09-11T17:36:33Z","tags":{"ISO3166-2":"PY-1","capital_city":"Concepción","gns:dsg":"ADM1","gns:uni":"-1347929","is_in:country":"Paraguay","is_in:country_code":"PY","name":"Departamento de Concepción","name:fr":"Concepción","name:ru":"Консепсьон","place":"state","population":"180277","source":"GNS","wikidata":"Q741009","wikipedia":"es:Departamento de Concepción (Paraguay)"}}
{"type":"node","id":313943105,"lat":-33.4921266,"lon":-57.789310500000006,"visible":true,"version":5,"timestamp":"2020-02-18T19:25:29Z","tags":{"ISO3166-2":"UY-SO","capital_city":"Mercedes","gns:dsg":"ADM1","gns:uni":"-1345729","name":"Soriano","place":"state","population":"84563","source":"GNS","website":"soriano.gub.uy"}}
{"type":"node","id":313943109,"lat":-34.8652724,"lon":-56.1819512,"visible":true,"version":7,"timestamp":"2019-09-11T19:51:56Z","tags":{"ISO3166-2":"UY-MO","capital_city":"Montevideo","description":"Departamento de Montevideo","gns:dsg":"ADM1","gns:uni":"-1342492","name":"Montevideo","place":"state","population":"1319018","source":"GNS","source:population":"http://www.ine.gub.uy/censos2011/resultadosfinales/montevideo.html","website":"http://montevideo.gub.uy"}}
{"type":"node","id":313943111,"lat":-32.7257419,"lon":-57.387578000000005,"visible":true,"version":5,"timestamp":"2020-02-17T18:53:30Z","tags":{"ISO3166-2":"UY-RN","capital_city":"Fray Bentos","gns:dsg":"ADM1","gns:uni":"-1344121","name":"Río Negro","place":"state","population":"53989","source":"GNS","website":"rionegro.gub.uy"}}
{"type":"node","id":313943113,"lat":-33.583333,"lon":-56.833333,"visible":true,"version":4,"timestamp":"2019-09-11T19:51:56Z","tags":{"ISO3166-2":"UY-FS","capital_city":"Trinidad","description":"Named after the former Colorado Party leader, Venancio Flores, who was born in Trinidad in the nineteenth century.","gns:dsg":"ADM1","gns:uni":"-1340271","name":"Flores","place":"state","population":"25104","source":"GNS","website":"imflores.gub.uy"}}
{"type":"node","id":313943115,"lat":-32.333333,"lon":-54.333333,"visible":true,"version":4,"timestamp":"2019-09-11T19:51:56Z","tags":{"ISO3166-2":"UY-CL","capital_city":"Melo","gns:dsg":"ADM1","gns:uni":"-1339105","name":"Cerro Largo","place":"state","population":"86564","source":"GNS","website":"cerrolargo.gub.uy"}}
{"type":"node","id":313943117,"lat":-32.166667000000004,"lon":-55.5,"visible":true,"version":8,"timestamp":"2019-09-11T19:51:56Z","tags":{"ISO3166-2":"UY-TA","capital_city":"Tacuarembó","gns:dsg":"ADM1","gns:uni":"-1345779","name":"Tacuarembó","place":"state","population":"90053","source":"GNS","source:population":"http://www.ine.gub.uy/censos2011/resultadosfinales/tacuarembo.html","website":"imtacuarembo.gub.uy","wikidata":"Q16587","wikipedia":"es:Departamento de Tacuarembó"}}
{"type":"node","id":313943119,"lat":-34.455000000000005,"lon":-56.616944000000004,"visible":true,"version":4,"timestamp":"2019-09-11T19:51:56Z","tags":{"ISO3166-2":"UY-SJ","capital_city":"San José de Mayo","gns:dsg":"ADM1","gns:uni":"-1344413","name":"San José","place":"state","population":"103104","source":"GNS","website":"imsj.gub.uy"}}
{"type":"node","id":313943121,"lat":-31.357156500000002,"lon":-57.004446,"visible":true,"version":8,"timestamp":"2019-09-11T19:51:56Z","tags":{"ISO3166-2":"UY-SA","capital_city":"Salto","gns:dsg":"ADM1","gns:uni":"-1344281","name":"Salto","place":"state","population":"123120","source":"GNS","website":"https://www.salto.gub.uy/"}}
{"type":"node","id":313943124,"lat":-32,"lon":-57.25000000000001,"visible":true,"version":7,"timestamp":"2019-09-11T19:51:56Z","tags":{"ISO3166-2":"UY-PA","capital_city":"Paysandú","gns:dsg":"ADM1","gns:uni":"-1343197","name":"Paysandú","place":"state","population":"113244","source":"GNS","website":"https://paysandu.gub.uy/"}}
{"type":"node","id":313943128,"lat":-34.666667000000004,"lon":-54.916667000000004,"visible":true,"version":13,"timestamp":"2019-09-11T19:51:56Z","tags":{"ISO3166-2":"UY-MA","capital_city":"Maldonado","gns:dsg":"ADM1","gns:uni":"-1341785","name":"Maldonado","name:lt":"Maldonado departamentas","name:ru":"Мальдонадо","name:uk":"Мальдонадо","place":"state","population":"164300","source":"GNS","source:population":"http://www.ine.gub.uy/censos2011/resultadosfinales/maldonado.html","website":"www.maldonado.gub.uy","wikidata":"Q331196","wikipedia":"es:Departamento de Maldonado"}}
{"type":"node","id":313943132,"lat":-33.833333,"lon":-55.916667000000004,"visible":true,"version":4,"timestamp":"2019-09-11T19:51:56Z","tags":{"ISO3166-2":"UY-FD","capital_city":"Florida","gns:dsg":"ADM1","gns:uni":"-1340280","name":"Florida","place":"state","population":"68181","source":"GNS","website":"imf.gub.uy"}}
{"type":"node","id":313943136,"lat":-33.9971964,"lon":-54.9992242,"visible":true,"version":14,"timestamp":"2019-09-11T19:51:56Z","tags":{"ISO3166-2":"UY-LA","capital_city":"Minas","gns:dsg":"ADM1","gns:uni":"-1341535","name":"Lavalleja","name:lt":"Lavaljechos departamentas","name:ru":"Лавальеха","name:uk":"Лавальєха","place":"state","population":"60925","source":"GNS","website":"www.lavalleja.gub.uy","wikidata":"Q460435","wikipedia":"es:Departamento de Lavalleja"}}
{"type":"node","id":313943137,"lat":-34.6222482,"lon":-55.990379700000005,"visible":true,"version":5,"timestamp":"2019-09-11T19:51:56Z","tags":{"ISO3166-2":"UY-CA","capital_city":"Canelones","gns:dsg":"ADM1","gns:uni":"-1338596","name":"Canelones","place":"state","population":"485028","source":"GNS"}}
{"type":"node","id":313943138,"lat":-34,"lon":-54,"visible":true,"version":5,"timestamp":"2019-09-11T19:51:56Z","tags":{"ISO3166-2":"UY-RO","capital_city":"Rocha","gns:dsg":"ADM1","gns:uni":"-1344155","name":"Rocha","place":"state","population":"68088","source":"GNS","source:population":"http://www.ine.gub.uy/censos2011/resultadosfinales/rocha.html","website":"rocha.gub.uy"}}
{"type":"node","id":313943139,"lat":-33,"lon":-54.25,"visible":true,"version":4,"timestamp":"2019-09-11T19:51:56Z","tags":{"ISO3166-2":"UY-TT","capital_city":"Treinta y Tres","description":"'Treinta y Tres' is Spanish for 'Thirty-Three'. The department is named after 33 19th century patriots honoured by Uruguayans.","gns:dsg":"ADM1","gns:uni":"-1346338","name":"Treinta y Tres","place":"state","population":"49318","source":"GNS","website":"imtt.gub.uy"}}
{"type":"node","id":313943140,"lat":-33.0833329,"lon":-56.083333100000004,"visible":true,"version":5,"timestamp":"2019-09-11T19:51:56Z","tags":{"ISO3166-2":"UY-DU","capital_city":"Durazno","gns:dsg":"ADM1","gns:uni":"-1340009","name":"Durazno","place":"state","population":"58859","source":"GNS","website":"durazno.gub.uy"}}
{"type":"node","id":313943141,"lat":-31.500000000000004,"lon":-55.25,"visible":true,"version":6,"timestamp":"2019-09-11T19:51:56Z","tags":{"ISO3166-2":"UY-RV","capital_city":"Rivera","gns:dsg":"ADM1","gns:uni":"-1344139","name":"Rivera","place":"state","population":"103493","source":"GNS","source:population":"http://www.ine.gub.uy/censos2011/resultadosfinales/rivera.html","website":"rivera.gub.uy"}}
{"type":"node","id":415522239,"lat":-15.9323662,"lon":-50.1392928,"visible":true,"version":18,"timestamp":"2019-05-07T21:12:03Z","tags":{"name":"Goiás","name:abbreviation":"GO","name:eo":"Gojaso","name:ja":"ゴイアス","name:pt":"Goiás","name:uk":"Гояс","place":"state","population":"24605","ref":"GO","source":"IBGE","state_code":"GO"}}
{"type":"node","id":470256961,"lat":-0.7626471,"lon":-77.9701878,"visible":true,"version":17,"timestamp":"2020-04-20T00:21:32Z","tags":{"ISO3166-2":"EC-N","gns_classification":"ADM1","name":"Napo","name:ru":"Напо","place":"state","ref":"NA","source":"GNS"}}
{"type":"node","id":470257133,"lat":-0.7861800000000001,"lon":-76.4803184,"visible":true,"version":19,"timestamp":"2020-04-20T00:21:32Z","tags":{"ISO3166-2":"EC-D","gns_classification":"ADM1","name":"Orellana","name:ru":"Орельяна","place":"state","ref":"OR","source":"GNS"}}
{"type":"node","id":470260937,"lat":-2.6232969,"lon":-78.0048106,"visible":true,"version":12,"timestamp":"2020-04-20T00:21:32Z","tags":{"ISO3166-2":"EC-S","gns_classification":"ADM1","name":"Morona Santiago","name:ru":"Морона-Сантьяго","place":"state","ref":"MS","source":"GNS"}}
{"type":"node","id":470261838,"lat":-4.0620183,"lon":-78.7751588,"visible":true,"version":14,"timestamp":"2020-04-20T00:21:32Z","tags":{"ISO3166-2":"EC-Z","gns_classification":"ADM1","name":"Zamora Chinchipe","name:ru":"Самора-Чинчипе","place":"state","ref":"ZC","source":"GNS"}}
{"type":"node","id":470265002,"lat":-4.0528506,"lon":-79.80534250000001,"visible":true,"version":11,"timestamp":"2020-04-20T00:21:32Z","tags":{"ISO3166-2":"EC-L","gns_classification":"ADM1","name":"Loja","name:ru":"Лоха","place":"state","ref":"LJ","source":"GNS"}}
{"type":"node","id":470265571,"lat":-3.5311093000000002,"lon":-79.83332340000001,"visible":true,"version":10,"timestamp":"2020-04-20T00:21:32Z","tags":{"ISO3166-2":"EC-O","gns_classification":"ADM1","name":"El Oro","name:ru":"Эль-Оро","place":"state","ref":"EO","source":"GNS"}}
{"type":"node","id":470265856,"lat":-3.0524451000000004,"lon":-79.2395135,"visible":true,"version":18,"timestamp":"2020-04-20T00:21:32Z","tags":{"ISO3166-2":"EC-A","gns_classification":"ADM1","name":"Azuay","name:ru":"Асуай","place":"state","ref":"AZ","source":"GNS","wikidata":"Q220451","wikipedia":"en:Azuay Province"}}
{"type":"node","id":470284543,"lat":-2.574484,"lon":-78.9804678,"visible":true,"version":9,"timestamp":"2020-04-20T00:21:32Z","tags":{"ISO3166-2":"EC-F","gns_classification":"ADM1","name":"Cañar","name:ru":"Каньяр","place":"state","ref":"CN","source":"GNS"}}
{"type":"node","id":470284940,"lat":-2.1954593,"lon":-80.56691670000001,"visible":true,"version":12,"timestamp":"2020-04-20T00:21:32Z","tags":{"gns_classification":"ADM1","name":"Santa Elena","name:ru":"Провинция Святой Елены","place":"state","ref":"SE","source":"GNS","url":"http://www.hcpse.gov.ec","wikidata":"Q1124125","wikipedia":"es:Provincia de Santa Elena"}}
{"type":"node","id":470285642,"lat":-1.9262626,"lon":-78.72977990000001,"visible":true,"version":9,"timestamp":"2020-04-20T00:21:32Z","tags":{"ISO3166-2":"EC-H","gns_classification":"ADM1","name":"Chimborazo","name:ru":"Чимборасо","place":"state","ref":"CB","source":"GNS"}}
{"type":"node","id":470287016,"lat":-1.2765895,"lon":-78.4754667,"visible":true,"version":13,"timestamp":"2020-04-20T00:21:32Z","tags":{"ISO3166-2":"EC-T","gns_classification":"ADM1","name":"Tungurahua","name:ru":"Тункурагуа","place":"state","ref":"TU","source":"GNS"}}
{"type":"node","id":470287322,"lat":-0.8268521000000001,"lon":-78.8937757,"visible":true,"version":10,"timestamp":"2020-04-20T00:21:32Z","tags":{"ISO3166-2":"EC-X","gns_classification":"ADM1","name":"Cotopaxi","name:ru":"Котопакси","place":"state","ref":"CT","source":"bing, own surveys, locals"}}
{"type":"node","id":470287874,"lat":0.7343619,"lon":-79.3858867,"visible":true,"version":10,"timestamp":"2020-04-20T00:21:32Z","tags":{"ISO3166-2":"EC-E","gns_classification":"ADM1","name":"Esmeraldas","name:ru":"Эсмеральдас","place":"state","ref":"ES","source":"GNS"}}
{"type":"node","id":470290033,"lat":-0.0584893,"lon":-78.3284371,"visible":true,"version":10,"timestamp":"2020-04-20T00:21:32Z","tags":{"ISO3166-2":"EC-P","gns_classification":"ADM1","name":"Pichincha","name:ru":"Пичинча","place":"state","ref":"PC","source":"GNS"}}
{"type":"node","id":470293880,"lat":0.37536210000000003,"lon":-78.355681,"visible":true,"version":10,"timestamp":"2020-04-20T00:21:32Z","tags":{"ISO3166-2":"EC-I","gns_classification":"ADM1","name":"Imbabura","name:ru":"Имбабура","place":"state","ref":"IM","source":"GNS"}}
{"type":"node","id":470295913,"lat":0.8375163000000001,"lon":-78.2075154,"visible":true,"version":10,"timestamp":"2020-04-20T00:21:33Z","tags":{"ISO3166-2":"EC-C","gns_classification":"ADM1","name":"Carchi","name:ru":"Карчи","place":"state","ref":"CR","source":"GNS"}}
{"type":"node","id":470298090,"lat":-1.4941273000000002,"lon":-79.5542485,"visible":true,"version":9,"timestamp":"2020-04-20T00:21:33Z","tags":{"ISO3166-2":"EC-R","gns_classification":"ADM1","name":"Los Ríos","name:ru":"Лос-Риос","place":"state","ref":"LR","source":"GNS"}}
{"type":"node","id":470298798,"lat":-0.7588025,"lon":-80.0612131,"visible":true,"version":10,"timestamp":"2020-04-20T00:21:33Z","tags":{"ISO3166-2":"EC-M","gns_classification":"ADM1","name":"Manabí","name:ru":"Манаби","place":"state","ref":"MN","source":"GNS"}}
{"type":"node","id":502334045,"lat":-18.5264844,"lon":-44.1588654,"visible":true,"version":11,"timestamp":"2019-05-07T21:00:16Z","tags":{"name":"Minas Gerais","name:eo":"Minas-Ĝerajso","name:ja":"ミナス ジェライス","name:pt":"Minas Gerais","name:ru":"Минас-Жерайс","name:uk":"Мінас-Жерайс","place":"state","ref":"MG","short_name":"MG","state_code":"MG"}}
{"type":"node","id":504798993,"lat":-22.070270500000003,"lon":-48.4333875,"visible":true,"version":16,"timestamp":"2022-02-20T13:44:45Z","tags":{"capital_city":"São Paulo","is_in:country":"Brasil","is_in:country_code":"BR","name":"São Paulo","name:abbreviation":"SP","name:eo":"San-Paŭlo","name:fr":"São Paulo","name:ja":"サン・パウロ","name:ja_rm":"san pauro","name:pt":"São Paulo","name:ru":"Сан-Паулу","name:uk":"Сан-Паулу","place":"state","population":"45538936","population:date":"2018","ref":"SP","short_name":"SP","source:population":"IBGE","state_code":"SP","wikidata":"Q175","wikipedia":"pt:São Paulo (estado)"}}
{"type":"node","id":504799970,"lat":-22.2752762,"lon":-42.419415,"visible":true,"version":9,"timestamp":"2019-04-13T23:41:41Z","tags":{"is_in:country":"Brasil","name":"Rio de Janeiro","name:abbreviation":"RJ","name:eo":"Rio-de-Ĵanejrio","name:ja":"リオ デ ジャネイロ","name:pt":"Rio de Janeiro","name:ru":"Рио-де-Жанейро","name:uk":"Ріо-де-Жанейро","place":"state","ref":"RJ","state_code":"RJ"}}
{"type":"node","id":504800102,"lat":-19.5687682,"lon":-40.1721991,"visible":true,"version":12,"timestamp":"2019-09-11T16:05:30Z","tags":{"is_in:country":"Brasil","is_in:country_code":"BR","name":"Espírito Santo","name:abbreviation":"ES","name:eo":"Espirito-Santo","name:ja":"エスピリト サント","name:pt":"Espírito Santo","name:ru":"Эспириту-Санту","name:uk":"Еспіріту-Санту","place":"state","ref":"ES","state_code":"ES"}}
{"type":"node","id":504800252,"lat":-29.842528400000003,"lon":-53.7680577,"visible":true,"version":15,"timestamp":"2016-07-07T06:44:00Z","tags":{"is_in:country":"Brasil","is_in:country_code":"BR","name":"Rio Grande do Sul","name:abbreviation":"RS","name:eo":"Suda Rio-Grando","name:ja":"リオグランデ・ド・スル","name:pt":"Rio Grande do Sul","name:ru":"Южный Риу-Гранди","name:uk":"Ріу-Гранді-ду-Сул","note":"Estudos apontaram ser este o centro geográfico do RS (-53.767225,-29.8518). Motivo ao qual Santa Maria é conhecida como coração do Rio Grande","place":"state","ref":"RS","state_code":"RS"}}
{"type":"node","id":530657872,"lat":-22.6643064,"lon":-61.0015877,"visible":true,"version":9,"timestamp":"2017-09-11T06:02:31Z","tags":{"ISO3166-2":"PY-19","capital_city":"Filadelfia","gns:dsg":"ADM1","gns:uni":"-1347216","is_in:country":"Paraguay","is_in:country_code":"PY","name":"Departamento de Boquerón","name:fr":"Boquerón","name:ko":"보케론 주","name:ru":"Бокерон","name:zh":"博克龙省","place":"state","population":"45617","source":"GNS","wikidata":"Q741017","wikipedia":"es:Departamento de Boquerón"}}
{"type":"node","id":539668890,"lat":-27.062836700000002,"lon":-51.114965000000005,"visible":true,"version":8,"timestamp":"2016-07-07T06:44:00Z","tags":{"is_in:country":"Brasil","is_in:country_code":"BR","name":"Santa Catarina","name:abbreviation":"SC","name:eo":"Sankta Katarino","name:ja":"サンタ カタリーナ","name:pt":"Santa Catarina","name:ru":"Санта-Катарина","name:uk":"Санта-Катаріна","place":"state","ref":"SC","state_code":"SC"}}
{"type":"node","id":539672077,"lat":-24.484218700000003,"lon":-51.8148872,"visible":true,"version":8,"timestamp":"2016-07-07T06:43:58Z","tags":{"is_in:country":"Brasil","is_in:country_code":"BR","name":"Paraná","name:abbreviation":"PR","name:eo":"Paranao","name:ja":"パラナ","name:pt":"Paraná","name:ru":"Парана","name:uk":"Парана","place":"state","ref":"PR","state_code":"PR"}}
{"type":"node","id":539676406,"lat":-4.7493933,"lon":-52.8973006,"visible":true,"version":10,"timestamp":"2020-06-11T14:42:12Z","tags":{"name":"Pará","name:abbreviation":"PA","name:eo":"Parao","name:ja":"パラー","name:pt":"Pará","name:ru":"Пара","name:uk":"Пара","place":"state","ref":"PA","state_code":"PA"}}
{"type":"node","id":539680936,"lat":1.3545442,"lon":-51.916197700000005,"visible":true,"version":11,"timestamp":"2019-04-13T13:25:12Z","tags":{"is_in:continent":"South America","is_in:country":"Brasil","name":"Amapá","name:abbreviation":"AP","name:eo":"Amapao","name:ja":"アマパー","name:pt":"Amapá","name:ru":"Амапа","name:uk":"Амапа","place":"state","ref":"AP"}}
{"type":"node","id":539687471,"lat":-9.0478679,"lon":-70.5264976,"visible":true,"version":13,"timestamp":"2020-06-11T14:18:51Z","tags":{"name":"Acre","name:abbreviation":"AC","name:eo":"Akro","name:ja":"アクレ","name:pt":"Acre","name:ru":"Акри","name:uk":"Акрі","place":"state","ref":"AC","source":"IBGE","state_code":"AC","wikidata":"Q40780","wikipedia":"pt:Acre"}}
{"type":"node","id":539689822,"lat":2.135138,"lon":-61.3631922,"visible":true,"version":10,"timestamp":"2019-08-29T22:47:09Z","tags":{"name":"Roraima","name:abbreviation":"RR","name:eo":"Rorajmo","name:ja":"ロライマ","name:pt":"Roraima","name:ru":"Рорайма","name:uk":"Рорайма","place":"state","ref":"RR","state_code":"RR"}}
{"type":"node","id":539691270,"lat":-12.285251,"lon":-41.929477600000006,"visible":true,"version":14,"timestamp":"2019-04-13T22:41:30Z","tags":{"name":"Bahia","name:abbreviation":"BA","name:eo":"Bahio","name:ja":"バイーア","name:pt":"Bahia","name:ru":"Баия","name:uk":"Баїя","place":"state","ref":"BA","state_code":"BA","wikidata":"Q40430","wikipedia":"pt:Bahia"}}
{"type":"node","id":539693378,"lat":-19.585256400000002,"lon":-54.4794731,"visible":true,"version":8,"timestamp":"2019-04-09T13:56:00Z","tags":{"name":"Mato Grosso do Sul","name:abbreviation":"MS","name:ar":"ماتو غروسو دو سول","name:be":"Мату-Гросу-ду-Сул","name:bg":"Мату-Гросу-ду-Сул","name:eo":"Suda Mato-Groso","name:es":"Mato Grosso del Sur","name:eu":"Hegoaldeko Mato Grosso","name:fa":"ماتوگروسو جنوبی","name:gl":"Mato Groso do Sur","name:he":"מאטו גרוסו דו סול","name:hi":"मातो ग्रोसो दो सुल","name:hy":"Մատու Գրոսու դու Սուլ","name:ja":"マットグロッソ・ド・スル州","name:ka":"მატუ-გროსუ-დუ-სული","name:ko":"마투그로수두술 주","name:lt":"Pietų Mato Grosas","name:lv":"Matugrosu du Sula","name:mr":"मातो ग्रोसो दो सुल","name:pa":"ماتو گروسو دو سول","name:qu":"Urin Mato Grosso suyu","name:ru":"Мату-Гросу-ду-Сул","name:sr":"Мато Гросо до Сул","name:th":"รัฐมาตูโกรสซูโดซู","name:uk":"Мату-Гросу-ду-Сул","name:zh":"南马托格罗索州","place":"state","ref":"MS","state_code":"MS"}}
{"type":"node","id":539830692,"lat":-7.121936600000001,"lon":-36.7246845,"visible":true,"version":12,"timestamp":"2019-04-13T23:20:02Z","tags":{"name":"Paraíba","name:abbreviation":"PB","name:eo":"Paraibo","name:ja":"パライバ","name:pt":"Paraíba","name:ru":"Параиба","name:uk":"Параїба","place":"state","ref":"PB","state_code":"PB","wikidata":"Q38088"}}
{"type":"node","id":539830860,"lat":-5.6781175,"lon":-36.4781776,"visible":true,"version":13,"timestamp":"2019-04-24T16:09:56Z","tags":{"name":"Rio Grande do Norte","name:abbreviation":"RN","name:eo":"Norda Rio-Grando","name:ja":"リオグランデ・ド・ノルテ","name:pt":"Rio Grande do Norte","name:ru":"Северный Риу-Гранде","name:uk":"Ріу-Гранді-ду-Норті","place":"state","ref":"RN","state_code":"RN","wikidata":"Q43255"}}
{"type":"node","id":539831949,"lat":-8.4116316,"lon":-37.5919699,"visible":true,"version":17,"timestamp":"2019-04-13T16:44:30Z","tags":{"name":"Pernambuco","name:abbreviation":"PE","name:eo":"Pernambuko","name:fr":"Pernambouc","name:ja":"ペルナンブーコ","name:lt":"Pernambukas","name:pl":"Pernambuco","name:pt":"Pernambuco","name:ru":"Пернамбуку","name:uk":"Пернамбуку","place":"state","postal_code:source":"50000-000 56999-999","ref":"PE","state_code":"PE","wikidata":"Q40942","wikipedia":"pt:Pernambuco"}}
{"type":"node","id":539832191,"lat":-5.3264703,"lon":-39.7156073,"visible":true,"version":11,"timestamp":"2019-04-13T16:32:13Z","tags":{"name":"Ceará","name:abbreviation":"CE","name:eo":"Cearao","name:ja":"セアラー","name:pt":"Ceará","name:ru":"Сеара","name:uk":"Сеара","place":"state","ref":"CE","state_code":"CE","wikidata":"Q40123"}}
{"type":"node","id":541425925,"lat":-7.6992782,"lon":-42.504378700000004,"visible":true,"version":14,"timestamp":"2020-06-11T17:24:02Z","tags":{"name":"Piauí","name:abbreviation":"PI","name:eo":"Piaŭio","name:ja":"ピアウイー","name:pt":"Piauí","name:ru":"Пиауи","name:uk":"Піауї","place":"state","ref":"PI","state_code":"PI","wikidata":"Q42722"}}
{"type":"node","id":541426952,"lat":-5.208550300000001,"lon":-45.3930262,"visible":true,"version":11,"timestamp":"2019-04-13T13:53:28Z","tags":{"name":"Maranhão","name:abbreviation":"MA","name:eo":"Maranjo","name:ja":"マラニョン","name:pt":"Maranhão","name:ru":"Мараньян","name:uk":"Мараньян","place":"state","ref":"MA","state_code":"MA","wikidata":"Q42362"}}
{"type":"node","id":541429445,"lat":-9.6611661,"lon":-36.650242600000006,"visible":true,"version":11,"timestamp":"2019-04-14T02:42:51Z","tags":{"name":"Alagoas","name:abbreviation":"AL","name:eo":"Alagoaso","name:ja":"アラゴアス","name:pt":"Alagoas","name:ru":"Алагоас","name:uk":"Алагоас","place":"state","ref":"AL","state_code":"AL"}}
{"type":"node","id":541429632,"lat":-10.674391100000001,"lon":-37.3773519,"visible":true,"version":14,"timestamp":"2020-06-11T21:43:12Z","tags":{"name":"Sergipe","name:abbreviation":"SE","name:eo":"Serĝipo","name:ja":"セルジッペ","name:pt":"Sergipe","name:ru":"Сержипи","name:uk":"Сержипі","place":"state","ref":"SE","state_code":"SE"}}
{"type":"node","id":565543192,"lat":-10.943145000000001,"lon":-62.82778630000001,"visible":true,"version":10,"timestamp":"2019-04-13T15:27:47Z","tags":{"name":"Rondônia","name:abbreviation":"RO","name:eo":"Rondonio","name:ja":"ロンドニア","name:pt":"Rondônia","name:ru":"Рондония","name:uk":"Рондонія","place":"state","ref":"RO","state_code":"RO"}}
{"type":"node","id":565543876,"lat":-12.2115009,"lon":-55.5716547,"visible":true,"version":9,"timestamp":"2019-04-13T15:31:01Z","tags":{"name":"Mato Grosso","name:abbreviation":"MT","name:eo":"Mato-Groso","name:ja":"マット グロッソ","name:pt":"Mato Grosso","name:ru":"Мату-Гросу","name:uk":"Мату-Гросу","place":"state","ref":"MT","state_code":"MT"}}
{"type":"node","id":565545457,"lat":-10.8855129,"lon":-48.3716912,"visible":true,"version":9,"timestamp":"2020-06-11T14:49:21Z","tags":{"name":"Tocantins","name:abbreviation":"TO","name:eo":"Tokantinso","name:ja":"トカンティンス","name:pt":"Tocantins","name:ru":"Токантинс","name:uk":"Токантінс","place":"state","ref":"TO","state_code":"TO"}}
{"type":"node","id":618278412,"lat":-37.2314643,"lon":-65.3972948,"visible":true,"version":12,"timestamp":"2019-07-31T21:29:55Z","tags":{"name":"La Pampa","name:abbreviation":"L","name:eo":"Pampa Provinco","name:ru":"Ла-Пампа","place":"state","ref":"L"}}
{"type":"node","id":618289560,"lat":-33.276220200000004,"lon":-65.95155460000001,"visible":true,"version":16,"timestamp":"2019-07-31T21:29:55Z","tags":{"name":"San Luis","name:abbreviation":"D","name:el":"Σαν Λουίς","name:eo":"San-Luisa Provinco","name:ru":"Сан-Луис","official_name":"Provincia de San Luis","place":"state","ref":"D"}}
{"type":"node","id":618290080,"lat":-32.0967361,"lon":-63.7940923,"visible":true,"version":18,"timestamp":"2019-05-04T21:49:25Z","tags":{"name":"Córdoba","name:abbreviation":"X","name:ar":"كوردوبا","name:bat-smg":"Kuorduoba","name:be":"Кордава","name:be-tarask":"Кордава","name:bg":"Кордоба","name:ce":"Кордова","name:el":"Κόρδοβα","name:eo":"Kordoba Provinco","name:fa":"کوردوبا، آرژانتین","name:he":"קורדובה","name:hy":"Կորդովա","name:it":"Cordova","name:ja":"コルドバ","name:ka":"კორდოვა","name:ko":"코르도바","name:la":"Corduba","name:lmo":"Còrdoba","name:lt":"Kordoba","name:lv":"Kordova","name:mn":"Кордова","name:mr":"कोर्दोबा","name:os":"Кордовæ","name:pnb":"کاردوبا","name:ru":"Кордова","name:sr":"Кордоба","name:th":"กอร์โดบา","name:uk":"Кордова","name:ur":"قرطبہ","name:yi":"קארדאבע","name:zh":"科尔多瓦","place":"state","ref":"X"}}
{"type":"node","id":618291415,"lat":-38.369505700000005,"lon":-69.83227500000001,"visible":true,"version":13,"timestamp":"2019-07-31T21:29:55Z","tags":{"name":"Neuquén","name:abbreviation":"NQN","name:el":"Νεουκέν","name:eo":"Neŭkena Provinco","place":"state","ref":"Q"}}
{"type":"node","id":618300940,"lat":-54.4071064,"lon":-67.8974895,"visible":true,"version":19,"timestamp":"2019-07-31T21:29:55Z","tags":{"name":"Tierra del Fuego","name:abbreviation":"V","name:de":"Feuerland","name:el":"Γή του Πυρός","name:eo":"Fajrolando","name:fr":"Terre de Feu","name:it":"Terra del Fuoco","name:pt":"Terra do Fogo","name:ru":"Огненная Земля","official_name":"Provincia de Tierra del Fuego, Antártida e Islas del Atlántico Sur","official_name:de":"Provinz Feuerland, Antarktis und südatlantische Inseln","place":"state","ref":"V","wikidata":"Q44832","wikipedia":"en:Tierra del Fuego Province, Argentina"}}
{"type":"node","id":618300941,"lat":-48.569332700000004,"lon":-70.16067670000001,"visible":true,"version":12,"timestamp":"2019-07-31T21:29:55Z","tags":{"name":"Santa Cruz","name:abbreviation":"Z","name:el":"Σάντα Κρουζ","name:eo":"Santa-Cruza Provinco","name:ru":"Санта-Крус","place":"state","ref":"Z"}}
{"type":"node","id":618300942,"lat":-43.712835600000005,"lon":-68.74618170000001,"visible":true,"version":16,"timestamp":"2022-01-14T11:00:21Z","tags":{"name":"Chubut","name:abbreviation":"U","name:el":"Τσουμπούτ","name:en":"Chubut Province","name:eo":"Ĉubutia Provinco","name:pt":"Chubut","name:ru":"Чубут","place":"state","ref":"U"}}
{"type":"node","id":618300943,"lat":-40.481197300000005,"lon":-67.6145911,"visible":true,"version":13,"timestamp":"2019-07-31T21:29:55Z","tags":{"name":"Río Negro","name:abbreviation":"R","name:el":"Ρίο Νέγκρο","name:eo":"Rio-Negra Provinco","name:ru":"Рио-Негро","place":"state","ref":"R"}}
{"type":"node","id":618300944,"lat":-30.705436300000002,"lon":-69.19882220000001,"visible":true,"version":12,"timestamp":"2019-07-31T21:29:55Z","tags":{"name":"San Juan","name:abbreviation":"J","name:el":"Σαν Χουάν","name:eo":"Sankta-Johana Provinco","name:ru":"Сан-Хуан","place":"state","ref":"J"}}
{"type":"node","id":618300945,"lat":-29.972978100000002,"lon":-67.0487944,"visible":true,"version":13,"timestamp":"2019-07-31T21:29:55Z","tags":{"name":"La Rioja","name:abbreviation":"F","name:eo":"Rioĥa Provinco","name:ru":"Ла-Риоха","place":"state","ref":"F"}}
{"type":"node","id":618300946,"lat":-31.625284200000003,"lon":-59.3539578,"visible":true,"version":13,"timestamp":"2019-07-31T21:29:55Z","tags":{"name":"Entre Ríos","name:abbreviation":"E","name:el":"Έντρε Ρίος","name:eo":"Interriveroj Provinco","name:ru":"Междуречье","place":"state","ref":"E"}}
{"type":"node","id":618300947,"lat":-30.3154739,"lon":-61.1645076,"visible":true,"version":16,"timestamp":"2020-01-10T01:09:54Z","tags":{"name":"Santa Fe","name:abbreviation":"S","name:ar":"سانتا في","name:azb":"سانتا فه","name:el":"Σάντα Φε","name:en":"Santa Fe","name:eo":"Sankta Fido","name:fa":"سانتافه","name:he":"סנטה פה","name:pnb":"سانتا فے","name:ru":"Санта-Фе","name:uk":"Санта-Фе","name:ur":"سانتا فے","official_name":"Provincia de Santa Fe","official_name:ar":"محافظة سانتا في","place":"state","ref":"S"}}
{"type":"node","id":618300948,"lat":-28.591231500000003,"lon":-57.9394658,"visible":true,"version":13,"timestamp":"2019-07-31T21:29:55Z","tags":{"name":"Corrientes","name:abbreviation":"W","name:el":"Κορριέντες","name:eo":"Provinco de Riveroj","place":"state","ref":"W"}}
{"type":"node","id":618300949,"lat":-27.1910825,"lon":-67.105374,"visible":true,"version":13,"timestamp":"2019-07-31T21:29:55Z","tags":{"name":"Catamarca","name:abbreviation":"K","name:el":"Καταμάρκα","name:eo":"Katamarkio","name:ru":"Катамарка","place":"state","ref":"K"}}
{"type":"node","id":618300951,"lat":-27.6431016,"lon":-63.540854200000005,"visible":true,"version":12,"timestamp":"2019-07-31T21:29:55Z","tags":{"name":"Santiago del Estero","name:abbreviation":"G","name:el":"Σαντιάγκο ντελ Εστέρο","name:eo":"Santiaga Provinco","name:ru":"Сантьяго-дель-Эстеро","place":"state","ref":"G"}}
{"type":"node","id":618300953,"lat":-25.1076701,"lon":-64.3494964,"visible":true,"version":13,"timestamp":"2019-07-31T21:29:55Z","tags":{"name":"Salta","name:abbreviation":"A","name:el":"Σάλτα","name:eo":"Salta Provinco","name:ru":"Сальта","place":"state","ref":"A"}}
{"type":"node","id":618300954,"lat":-26.382964700000002,"lon":-60.88160920000001,"visible":true,"version":14,"timestamp":"2019-07-31T21:29:55Z","tags":{"name":"Chaco","name:abbreviation":"H","name:el":"Τσάκο","name:eo":"Ĉako","name:ru":"Чако","place":"state","ref":"H"}}
{"type":"node","id":618300955,"lat":-24.5955306,"lon":-60.42897180000001,"visible":true,"version":14,"timestamp":"2019-07-31T21:29:55Z","tags":{"name":"Formosa","name:abbreviation":"P","name:el":"Φορμόσα","name:eo":"Formosa Provinco","name:ru":"Формоса","place":"state","ref":"P"}}
{"type":"node","id":618300956,"lat":-26.737224,"lon":-54.4315257,"visible":true,"version":12,"timestamp":"2019-07-31T21:29:55Z","tags":{"name":"Misiones","name:abbreviation":"N","name:eo":"Provinco de Misioj","name:ru":"Мисьонес","place":"state","ref":"N"}}
{"type":"node","id":647606814,"lat":-34.534538000000005,"lon":-71.0354822,"visible":true,"version":11,"timestamp":"2018-03-08T21:38:04Z","tags":{"is_in:country":"Chile","is_in:country_code":"CL","name":"Región del Libertador General Bernardo O'Higgins","name:abbreviation":"VI","name:ca":"Regió d'O'Higgins","name:en":"O'Higgins Region","name:es":"Región del Libertador General Bernardo O'Higgins","name:fr":"Libertador General Bernardo O'Higgins","name:hu":"Libertador General Bernardo O'Higgins","name:it":"Regione del Libertador General Bernardo O'Higgins","name:ja":"リベルタドール・ベルナルド・オイギンス州","name:la":"Regio O'higginiana seu Libertatoris Ducis Bernardi O'Higginii","name:pt":"Região de O'Higgins","name:rm":"VI Regiun dal Libertador General Bernardo O'Higgins","name:ru":"О-Хиггинс","place":"state","population":"849120","ref":"VI","wikidata":"Q2133","wikipedia":"es:Región del Libertador General Bernardo O'Higgins"}}
{"type":"node","id":647620803,"lat":-35.5972284,"lon":-71.48868,"visible":true,"version":12,"timestamp":"2018-03-08T21:38:05Z","tags":{"is_in:country":"Chile","is_in:country_code":"CL","name":"Región del Maule","name:abbreviation":"VII","name:ca":"Regió del Maule","name:en":"Maule Region","name:es":"Región del Maule","name:fr":"Maule","name:hu":"Maule","name:it":"Regione del Maule","name:ja":"マウレ州","name:la":"Regio Mauleufina seu Fluvii Mauleufi","name:pt":"Região de Maule","name:ru":"Мауле","name:tr":"Maule bölgesi","name:uk":"VII Регіон Мауле","name:zh":"马乌莱大区","place":"state","population":"999685","ref":"VII","wikidata":"Q2166","wikipedia":"es:Región del Maule"}}
{"type":"node","id":647623220,"lat":-30.7546652,"lon":-70.90055360000001,"visible":true,"version":9,"timestamp":"2018-03-08T21:38:05Z","tags":{"name":"Región de Coquimbo","name:abbreviation":"IV","name:en":"Coquimbo Region","name:eo":"Kokimbio","name:es":"Región de Coquimbo","name:fr":"Coquimbo","name:la":"Regio Cucimpensis seu Cucimpi","name:pt":"Região de Coquimbo","name:ru":"Кокимбо","place":"state","population":"687659","ref":"IV","wikidata":"Q2121","wikipedia":"es:Región de Coquimbo"}}
{"type":"node","id":647624375,"lat":-27.5571783,"lon":-70.0156882,"visible":true,"version":9,"timestamp":"2018-03-08T21:38:05Z","tags":{"name":"Región de Atacama","name:abbreviation":"III","name:en":"Atacama Region","name:eo":"Atakamo","name:es":"Región de Atacama","name:fr":"Atacama","name:it":"Regione di Atacama","name:ja":"アタカマ州","name:ro":"Regiunea Atacama","name:ru":"Атакама","name:uk":"III Регіон Атакама","name:zh":"阿塔卡马大区","place":"state","population":"272402","ref":"III","wikidata":"Q2120","wikipedia":"es:Región de Atacama"}}
{"type":"node","id":647624582,"lat":-23.6041314,"lon":-69.08427830000001,"visible":true,"version":8,"timestamp":"2018-03-08T21:38:06Z","tags":{"name":"Región de Antofagasta","name:abbreviation":"II","name:en":"Antofagasta Region","name:es":"Región de Antofagasta","name:fr":"Antofagasta","name:it":"Regione di Antofagasta","name:pt":"Região de Antofagasta","name:ru":"Антофагаста","name:uk":"II Регіон Антофаґаста","place":"state","ref":"II","wikidata":"Q2118","wikipedia":"es:Región de Antofagasta"}}
{"type":"node","id":655417187,"lat":-37.3391407,"lon":-72.41068250000001,"visible":true,"version":11,"timestamp":"2018-03-08T21:38:06Z","tags":{"is_in:country":"Chile","is_in:country_code":"CL","name":"Región del Biobío","name:abbreviation":"VIII","name:ca":"Regió del Bío-Bío","name:en":"Biobío Region","name:es":"Región del Biobío","name:fr":"Biobío","name:hu":"Bío-Bío","name:it":"Regione del Bío Bío","name:ja":"ビオビオ州","name:la":"Regio Fiofina seu Fluvii Fiofii","name:pt":"Região de Bío-Bío","name:ru":"Био-Био","name:uk":"VIII Регіон Біобіо","name:zh":"比奥比奥大区","place":"state","ref":"VIII","wikidata":"Q2170","wikipedia":"es:Región del Biobío"}}
{"type":"node","id":655420663,"lat":-38.6678955,"lon":-72.2610066,"visible":true,"version":12,"timestamp":"2021-01-15T19:17:50Z","tags":{"name":"Región de la Araucanía","name:abbreviation":"IX","name:de":"Region IX Araukanien","name:en":"Araucanía Region","name:es":"Región de la Araucanía","name:fr":"Araucanie","name:hu":"Araucanía","name:it":"Regione dell'Araucanía","name:ja":"ラ・アラウカニア州","name:la":"Regio Raucana seu Araucaniae","name:ru":"Араукания","name:uk":"IX Регіон Арауканія","name:zh":"阿劳卡尼亚大区","place":"state","ref":"IX","wikidata":"Q2176","wikipedia":"es:Región de la Araucanía"}}
{"type":"node","id":655422989,"lat":-39.9742911,"lon":-72.667478,"visible":true,"version":8,"timestamp":"2017-11-16T07:13:22Z","tags":{"is_in:country":"Chile","is_in:country_code":"CL","name":"Región de Los Ríos","name:abbreviation":"XIV","name:en":"Los Ríos Region","name:es":"Región de Los Ríos","name:fr":"Fleuves","name:hu":"Los Ríos","name:it":"Regione di Los Ríos","name:ja":"ロス・リオス州","name:la":"Regio Fluminum","name:pt":"Região de Los Rios","name:ru":"Лос-Риос","name:uk":"XIV Регіон Лос-Ріос","name:zh":"河大区","place":"state","ref":"XIV","wikidata":"Q2177","wikipedia":"es:Región de Los Ríos"}}
{"type":"node","id":655426487,"lat":-42.300844000000005,"lon":-73.10538700000001,"visible":true,"version":9,"timestamp":"2017-11-16T07:13:22Z","tags":{"is_in:country":"Chile","is_in:country_code":"CL","name":"Región de Los Lagos","name:abbreviation":"X","name:ca":"Regió de Los Lagos","name:en":"Los Lagos Region","name:es":"Región de Los Lagos","name:fr":"Lacs","name:hu":"Los Lagos","name:it":"Regione di Los Lagos","name:ja":"ロス・ラゴス州","name:la":"Regio Lacustris seu Lacuum","name:pt":"Região de Los Lagos","name:ru":"Лос-Лагос","name:uk":"X Регіон Лос-Лаґос","name:zh":"湖大区","place":"state","population":"716739","ref":"X","wikidata":"Q2178","wikipedia":"es:Región de Los Lagos"}}
{"type":"node","id":655430254,"lat":-46.4711556,"lon":-73.5206714,"visible":true,"version":10,"timestamp":"2018-03-08T21:38:06Z","tags":{"name":"Región Aysén del General Carlos Ibáñez del Campo","name:abbreviation":"XI","name:ca":"Regió d'Aysén","name:da":"Aisén-regionen","name:en":"Aysén Region","name:es":"Región Aysén del General Carlos Ibáñez del Campo","name:fr":"Aisén du Général Carlos Ibáñez del Campo","name:it":"Regione di Aysén","name:ja":"アイセン・デル・G・カルロス・イバニェス・デル・カンポ州","name:la":"Regio Aicetzenina Ducis Caroli Ibañezii Camposii","name:lt":"Aiseno regionas","name:pt":"Região de Aisén","name:ru":"Айсен","name:uk":"XI Регіон Айсен","name:zh":"伊瓦涅斯将军艾森大区","place":"state","population":"100417","ref":"XI"}}
{"type":"node","id":655433494,"lat":-53.3527518,"lon":-71.5547782,"visible":true,"version":12,"timestamp":"2017-11-16T07:13:23Z","tags":{"is_in:country":"Chile","is_in:country_code":"CL","name":"Región de Magallanes y de la Antártica Chilena","name:abbreviation":"XII","name:da":"Magallanes og Antártica Chilena-regionen","name:en":"Magallanes and Antartica Chilena Region","name:es":"Región de Magallanes y de la Antártica Chilena","name:fr":"Magellan et Antarctique chilien","name:hu":"Magallanes y de la Antártica Chilena","name:lt":"Magelano ir Čilės Antarktidos regionas","name:ru":"Магальянес и Чилийская Антарктика","name:uk":"XII Регіон Маґаянес і Чилійська Антарктика","place":"state","population":"156502","ref":"XII","wikidata":"Q2189","wikipedia":"es:Región de Magallanes y de la Antártica Chilena"}}
{"type":"node","id":655437768,"lat":-20.163667200000003,"lon":-69.5463448,"visible":true,"version":10,"timestamp":"2018-03-08T21:38:07Z","tags":{"is_in:country":"Chile","is_in:country_code":"CL","name":"Región de Tarapacá","name:abbreviation":"I","name:ca":"Regió de Tarapacá","name:en":"Tarapacá Region","name:eo":"Tarapakio","name:es":"Región de Tarapacá","name:fr":"Tarapacá","name:hu":"Tarapaca","name:it":"Regione di Tarapacá","name:ja":"タラパカ州","name:pt":"Região de Tarapacá","name:ru":"Тарапака","name:uk":"I Регіон Тарапака","name:zh":"塔拉帕卡大区","place":"state","population":"286105","ref":"I","wikidata":"Q2114","wikipedia":"es:Región de Tarapacá"}}
{"type":"node","id":655443563,"lat":-18.5713496,"lon":-69.7884774,"visible":true,"version":8,"timestamp":"2020-07-16T23:25:30Z","tags":{"is_in:country":"Chile","is_in:country_code":"CL","name":"Región de Arica y Parinacota","name:abbreviation":"XV","name:en":"Arica and Parinacota Region","name:es":"Región de Arica y Parinacota","name:fr":"Arica et Parinacota","name:hu":"Arica y Parinacota","name:it":"Regione di Arica e Parinacota","name:ru":"Арика-и-Паринакота","place":"state","population":"175441","ref":"XV"}}
{"type":"node","id":924836600,"lat":-32.597608900000004,"lon":-70.85297530000001,"visible":true,"version":9,"timestamp":"2022-03-16T07:57:41Z","tags":{"name":"Región de Valparaíso","name:abbreviation":"V","name:en":"Valparaiso Region","name:eo":"Valparaiso","name:es":"Región de Valparaíso","name:fr":"Région de Valparaíso","name:it":"Regione di Valparaiso","name:pt":"Região de Valparaiso","name:zh":"瓦尔帕莱索大区","place":"state","ref":"V","wikidata":"Q219458","wikipedia":"es:Región de Valparaíso"}}
{"type":"node","id":1230774980,"lat":-8,"lon":-78.5,"visible":true,"version":4,"timestamp":"2019-04-13T16:59:34Z","tags":{"gns_classification":"ADM1","gns_uni":"-529734","name":"La Libertad","name:abbreviation":"LAL","name:en":"Department of La Libertad","name:es":"Departamento de La Libertad","name:ru":"Ла-Либертад","name:uk":"Ла-Лібертад","place":"state","population":"1617050","ref":"LAL","source":"GNS"}}
{"type":"node","id":1230774993,"lat":-13,"lon":-75,"visible":true,"version":5,"timestamp":"2019-04-13T16:59:34Z","tags":{"gns_classification":"ADM1","gns_uni":"-526069","name":"Huancavelica","name:abbreviation":"HUV","name:en":"Department of Huancavelica","name:eo":"Ŭankavilkio","name:es":"Departamento de Huancavelica","name:ru":"Уанкавелика","name:uk":"Уанкавеліка","place":"state","population":"454797","ref":"HUV","source":"GNS"}}
{"type":"node","id":1230775000,"lat":-9.5,"lon":-75.83333300000001,"visible":true,"version":5,"timestamp":"2019-04-13T16:59:35Z","tags":{"gns_classification":"ADM1","gns_uni":"-526223","name":"Huánuco","name:abbreviation":"HUC","name:en":"Department of Huánuco","name:eo":"Ŭanukio","name:es":"Departamento de Huánuco","name:ru":"Уануко","name:uk":"Уануко","place":"state","population":"762223","ref":"HUC","source":"GNS"}}
{"type":"node","id":1230775012,"lat":-3.833333,"lon":-80.5,"visible":true,"version":12,"timestamp":"2020-09-09T18:52:02Z","tags":{"admin_level":"4","gns_classification":"ADM1","gns_uni":"-547876","name":"Tumbes","name:abbreviation":"TUM","name:en":"Department of Tumbes","name:eo":"Tumpio","name:es":"Departamento de Tumbes","name:pl":"Region Tumbes","name:ru":"Тумбес","name:uk":"Тумбес","place":"state","population":"200306","ref":"TUM","source":"GNS","wikidata":"Q209597","wikipedia":"es:Departamento de Tumbes","wikipedia:en":"Tumbes Region"}}
{"type":"node","id":1230775023,"lat":-6.3333330000000005,"lon":-80,"visible":true,"version":9,"timestamp":"2019-04-13T16:59:35Z","tags":{"gns_classification":"ADM1","gns_uni":"-529801","name":"Lambayeque","name:abbreviation":"LAM","name:en":"Department of Lambayeque","name:eo":"Lambajekio","name:es":"Departamento de Lambayeque","name:ru":"Ламбаеке","name:uk":"Ламбаєке","place":"state","population":"1112868","ref":"LAM","short_name":"Lambayeque","source":"GNS","wikidata":"Q210061","wikipedia":"es:Departamento de Lambayeque","wikipedia:ay":"Lampalliqi jach'a suyu","wikipedia:en":"Lambayeque Region","wikipedia:qu":"Lampalliqi suyu"}}
{"type":"node","id":1230775030,"lat":-17.666667,"lon":-70.33333300000001,"visible":true,"version":5,"timestamp":"2019-04-13T16:59:35Z","tags":{"gns_classification":"ADM1","gns_uni":"-545739","name":"Tacna","name:abbreviation":"TAC","name:en":"Department of Tacna","name:eo":"Taknio","name:es":"Departamento de Tacna","name:ru":"Такна","name:uk":"Такна","place":"state","population":"288781","ref":"TAC","source":"GNS"}}
{"type":"node","id":1230775043,"lat":-16,"lon":-72.25,"visible":true,"version":5,"timestamp":"2019-04-13T16:59:36Z","tags":{"gns_classification":"ADM1","gns_uni":"-512518","name":"Arequipa","name:abbreviation":"ARE","name:en":"Department of Arequipa","name:eo":"Arekipio","name:es":"Departamento de Arequipa","name:ru":"Арекипа","name:uk":"Арекіпа","place":"state","population":"1152303","ref":"ARE","source":"GNS"}}
{"type":"node","id":1230775049,"lat":-11.5,"lon":-75,"visible":true,"version":9,"timestamp":"2019-04-13T16:59:36Z","tags":{"gns_classification":"ADM1","gns_uni":"-528903","name":"Junin","name:abbreviation":"JUN","name:en":"Department of Junín","name:eo":"Ŝuninio","name:es":"Departamento de Junín","name:ru":"Хунин","name:uk":"Хунін","place":"state","population":"1232611","ref":"JUN","source":"GNS","wikidata":"Q207973","wikipedia":"es:Departamento de Junín","wikipedia:ay":"Hunin jach'a suyu","wikipedia:en":"Junín Region","wikipedia:qu":"Sunin suyu"}}
{"type":"node","id":1230775060,"lat":-14.332500000000001,"lon":-75.499722,"visible":true,"version":5,"timestamp":"2019-04-13T16:59:36Z","tags":{"gns_classification":"ADM1","gns_uni":"-527446","name":"Ica","name:abbreviation":"ICA","name:en":"Department of Ica","name:eo":"Ikio","name:es":"Departamento de Ica","name:ru":"Ика","name:uk":"Іка","place":"state","population":"711932","ref":"ICA","source":"GNS"}}
{"type":"node","id":1230775072,"lat":-9,"lon":-73.5,"visible":true,"version":5,"timestamp":"2019-04-13T16:59:36Z","tags":{"gns_classification":"ADM1","gns_uni":"-548080","name":"Ucayali","name:abbreviation":"UCA","name:en":"Department of Ucayali","name:eo":"Ukajalio","name:es":"Departamento de Ucayali","name:ru":"Укаяли","name:uk":"Укаялі","place":"state","population":"432159","ref":"UCA","source":"GNS"}}
{"type":"node","id":1230775077,"lat":-12,"lon":-70.25,"visible":true,"version":5,"timestamp":"2019-04-13T16:59:36Z","tags":{"gns_classification":"ADM1","gns_uni":"-532321","name":"Madre de Dios","name:abbreviation":"MDD","name:en":"Department of Madre de Dios","name:eo":"Dipatrinio","name:es":"Departamento de Madre de Dios","name:ru":"Мадре-де-Дьос","name:uk":"Мадре-де-Дьйос","place":"state","population":"109555","ref":"MDD","source":"GNS"}}
{"type":"node","id":1230775088,"lat":-9.5,"lon":-77.75,"visible":true,"version":7,"timestamp":"2019-04-13T16:59:37Z","tags":{"gns_classification":"ADM1","gns_uni":"-511728","name":"Ancash","name:abbreviation":"ANC","name:en":"Department of Ancash","name:eo":"Ankaŝio","name:es":"Departamento de Ancash","name:ru":"Анкаш","name:uk":"Анкаш","place":"state","population":"1063459","ref":"ANC","short_name":"Ancash","source":"GNS"}}
{"type":"node","id":1230775094,"lat":-5,"lon":-75,"visible":true,"version":5,"timestamp":"2019-04-13T16:59:37Z","tags":{"gns_classification":"ADM1","gns_uni":"-531652","name":"Loreto","name:abbreviation":"LOR","name:en":"Department of Loreto","name:eo":"Loreto","name:es":"Departamento de Loreto","name:ru":"Лорето","name:uk":"Лорето","place":"state","population":"891732","ref":"LOR","source":"GNS"}}
{"type":"node","id":1230775107,"lat":-5,"lon":-80.33333300000001,"visible":true,"version":10,"timestamp":"2020-09-09T18:53:03Z","tags":{"admin_level":"4","gns_classification":"ADM1","gns_uni":"-538502","name":"Piura","name:abbreviation":"PIU","name:en":"Department of Piura","name:eo":"Piŭrio","name:es":"Departamento de Piura","name:pl":"Region Piura","name:ru":"Пьюра","name:uk":"Піура","place":"state","population":"1676315","ref":"PIU","source":"GNS","wikidata":"Q208183","wikipedia":"es:Departamento de Piura","wikipedia:en":"Piura Region"}}
{"type":"node","id":1230775126,"lat":-14,"lon":-73,"visible":true,"version":5,"timestamp":"2019-04-13T16:59:37Z","tags":{"gns_classification":"ADM1","gns_uni":"-512339","name":"Apurímac","name:abbreviation":"APU","name:en":"Department of Apurímac","name:eo":"Apurimako","name:es":"Departamento de Apurímac","name:ru":"Апуримак","name:uk":"Апурімак","place":"state","population":"1063459","ref":"APU","source":"GNS"}}
{"type":"node","id":1230775133,"lat":-6.25,"lon":-78.83333300000001,"visible":true,"version":5,"timestamp":"2019-04-13T16:59:37Z","tags":{"gns_classification":"ADM1","gns_uni":"-514386","name":"Cajamarca","name:abbreviation":"CAJ","name:en":"Department of Cajamarca","name:eo":"Kaŝamarkio","name:es":"Departamento de Cajamarca","name:ru":"Кахамарка","name:uk":"Кахамарка","place":"state","population":"1387809","ref":"CAJ","source":"GNS"}}
{"type":"node","id":1230775156,"lat":-12.5,"lon":-72.5,"visible":true,"version":5,"timestamp":"2019-04-13T16:59:38Z","tags":{"gns_classification":"ADM1","gns_uni":"-521838","name":"Cusco","name:abbreviation":"CUS","name:en":"Department of Cusco","name:eo":"Kuskio","name:es":"Departamento de Cusco","name:ru":"Куско","name:uk":"Куско","place":"state","population":"1171403","ref":"CUS","source":"GNS"}}
{"type":"node","id":1230775171,"lat":-12.200109300000001,"lon":-76.2850579,"visible":true,"version":8,"timestamp":"2019-04-13T16:59:38Z","tags":{"gns_classification":"ADM1","gns_uni":"-530960","name":"Lima","name:abbreviation":"LIM","name:en":"Department of Lima","name:eo":"Limio","name:es":"Departamento de Lima","name:ru":"Лима","name:uk":"Ліма","place":"state","population":"8445211","ref":"LIM","source":"GNS","wikidata":"Q211795","wikipedia":"es:Departamento de Lima","wikipedia:en":"Lima Region"}}
{"type":"node","id":1230775198,"lat":-7,"lon":-76.83333300000001,"visible":true,"version":4,"timestamp":"2019-04-13T16:59:38Z","tags":{"gns_classification":"ADM1","gns_uni":"-543170","name":"San Martín","name:abbreviation":"SAM","name:en":"Department of San Martín","name:es":"Departamento de San Martín","name:ru":"Сан-Мартин","name:uk":"Сан-Мартін","place":"state","population":"728808","ref":"SAM","source":"GNS"}}
{"type":"node","id":1230775201,"lat":-10.5,"lon":-75.25,"visible":true,"version":5,"timestamp":"2019-04-13T16:59:38Z","tags":{"gns_classification":"ADM1","gns_uni":"-537237","name":"Pasco","name:abbreviation":"PAS","name:en":"Department of Pasco","name:eo":"Paskio","name:es":"Departamento de Pasco","name:ru":"Паско","name:uk":"Паско","place":"state","population":"280449","ref":"PAS","source":"GNS"}}
{"type":"node","id":1230775224,"lat":-14,"lon":-74,"visible":true,"version":5,"timestamp":"2019-04-13T16:59:38Z","tags":{"gns_classification":"ADM1","gns_uni":"-512966","name":"Ayacucho","name:abbreviation":"AYA","name:en":"Department of Ayacucho","name:eo":"Ajakuĉio","name:es":"Departamento de Ayacucho","name:ru":"Аякучо","name:uk":"Аякучо","place":"state","population":"612489","ref":"AYA","source":"GNS"}}
{"type":"node","id":1230775247,"lat":-15.000000000000002,"lon":-70,"visible":true,"version":5,"timestamp":"2019-04-13T16:59:39Z","tags":{"gns_classification":"ADM1","gns_uni":"-539960","name":"Puno","name:abbreviation":"PUN","name:en":"Department of Puno","name:eo":"Punio","name:es":"Departamento de Puno","name:ru":"Пуно","name:uk":"Пуно","place":"state","population":"1268441","ref":"PUN","source":"GNS"}}
{"type":"node","id":1230775254,"lat":-5,"lon":-78,"visible":true,"version":5,"timestamp":"2019-04-13T16:59:39Z","tags":{"gns_classification":"ADM1","gns_uni":"-511559","name":"Amazonas","name:abbreviation":"AMA","name:en":"Department of Amazonas","name:eo":"Amazonjo","name:es":"Departamento de Amazonas","name:ru":"Амасонас","name:uk":"Амазонас","place":"state","population":"375993","ref":"AMA","source":"GNS"}}
{"type":"node","id":1230775270,"lat":-16.833333,"lon":-70.916667,"visible":true,"version":5,"timestamp":"2019-04-13T16:59:39Z","tags":{"gns_classification":"ADM1","gns_uni":"-534170","name":"Moquegua","name:abbreviation":"MOQ","name:en":"Department of Moquegua","name:eo":"Mokegvio","name:es":"Departamento de Moquegua","name:ru":"Мокегуа","name:uk":"Мокеґуа","place":"state","population":"161533","ref":"MOQ","source":"GNS"}}
{"type":"node","id":1366269650,"lat":-26.5643582,"lon":-64.882397,"visible":true,"version":9,"timestamp":"2019-07-31T21:29:55Z","tags":{"name":"Tucumán","name:abbreviation":"T","name:el":"Τουκουμάν","name:eo":"Tukumano","place":"state"}}
{"type":"node","id":1417530830,"lat":-30.617075600000003,"lon":-56.9373451,"visible":true,"version":5,"timestamp":"2019-09-11T19:51:56Z","tags":{"ISO3166-2":"UY-AR","capital_city":"Artigas","description":"Named after José Artigas (1764-1850), leader of the orientales (inhabitants of the Banda Oriental, the Eastern Bank of the Uruguay River) during the wars of Independence.","gns:dsg":"ADM1","gns:uni":"-1337894","name":"Artigas","place":"state","population":"78019","website":"www.artigas.gub.uy"}}
{"type":"node","id":1976165729,"lat":-34.1664516,"lon":-57.499326800000006,"visible":true,"version":3,"timestamp":"2019-09-11T19:51:56Z","tags":{"ISO3166-2":"UY-CO","capital_city":"Colonia del Sacramento","gns:dsg":"ADM1","gns:uni":"-1339422","name":"Colonia","place":"state","population":"119266","source":"GNS"}}
{"type":"node","id":2526052935,"lat":9.572153400000001,"lon":-70.53630790000001,"visible":true,"version":2,"timestamp":"2016-07-07T11:57:45Z","tags":{"is_in:country":"Venezuela","is_in:country_code":"VE","name":"Trujillo","name:eo":"Trujillo","place":"state","ref":"T","source":"GNS"}}
{"type":"node","id":2614266154,"lat":-4.479925000000001,"lon":-63.518539600000004,"visible":true,"version":13,"timestamp":"2019-04-14T01:45:37Z","tags":{"name":"Amazonas","name:abbreviation":"AM","name:eo":"Amazonio","name:ja":"アマゾナス","name:pt":"Amazonas","name:ru":"Амазонас","name:uk":"Амазонас","place":"state","ref":"AM","state_code":"AM","wikidata":"Q40040","wikipedia":"pt:Amazonas"}}
{"type":"node","id":2614275264,"lat":-15.775446200000001,"lon":-47.7970891,"visible":true,"version":8,"timestamp":"2019-05-07T21:12:04Z","tags":{"is_in:country":"Brazil","name":"Distrito Federal","name:ar":"القطاع الفدرالي","name:be":"Федэральная акруга","name:bg":"Федерален окръг","name:br":"Distrig kevreadel","name:ca":"Districte Federal","name:cz":"Federální distrikt","name:de":"Bundesdistrikt","name:en":"Federal District","name:eo":"Federacia Distrikto","name:es":"Distrito Federal","name:et":"Liiduringkond","name:eu":"Barruti Federala","name:fa":"منطقه فدرال","name:fr":"District fédéral","name:he":"המחוז הפדרלי","name:hr":"Federalni distrikt","name:hy":"Դաշնային շրջան","name:ia":"Districto Federal","name:id":"Distrik Federal","name:it":"Distretto Federale","name:ja":"連邦直轄区","name:ka":"ფედერალური ოლქი","name:ko":"연방구","name:kw":"Ranndir an Kesunyans","name:la":"Pagus Foederalis","name:lt":"Federalinė teritorija","name:lv":"Federālais distrikts","name:mk":"Федерален округ","name:mr":"शासकीय जिल्हा","name:ms":"Wilayah Persekutuan","name:nl":"Federaal District","name:oc":"Districte federal","name:os":"Федералон зылд","name:pl":"Dystrykt Federalny","name:pt":"Distrito Federal","name:qu":"Tantasqap","name:ro":"Districtul Federal","name:ru":"Федеральный округ","name:sh":"Federalni distrikt","name:sq":"Distrikti Federal","name:sr":"Савезни дистрикт","name:sv":"Federala distrikt","name:tg":"Савезни дистрикт","name:th":"เฟเดอรัลดิสตริกต์","name:tr":"Federal Bölge","name:uk":"Федеральний округ","name:uz":"Federal okrugi","name:vi":"Quận liên bang","name:zh":"聯邦區","place":"state","population":"2789761"}}
{"type":"node","id":2854906387,"lat":-14,"lon":-65,"visible":true,"version":3,"timestamp":"2019-07-23T23:54:47Z","tags":{"contact:website":"https://beni.gob.bo","name":"Beni","name:eo":"Beniio","place":"state","wikidata":"Q233169","wikipedia":"es:Departamento del Beni"}}
{"type":"node","id":2854906388,"lat":-20,"lon":-64.416667,"visible":true,"version":3,"timestamp":"2019-07-23T23:54:47Z","tags":{"contact:website":"https://chuquisaca.gob.bo","name":"Chuquisaca","name:eo":"Ĉukisakio","place":"state","wikidata":"Q235110","wikipedia":"es:Departamento de Chuquisaca"}}
{"type":"node","id":2854906389,"lat":-17.3330142,"lon":-65.5010931,"visible":true,"version":4,"timestamp":"2019-07-23T23:54:47Z","tags":{"contact:website":"http://gobernaciondecochabamba.bo","name":"Cochabamba","name:eo":"Koĉapampio","place":"state","wikidata":"Q233917","wikipedia":"es:Departamento de Cochabamba"}}
{"type":"node","id":2854906390,"lat":-15.000000000000002,"lon":-68.33333300000001,"visible":true,"version":4,"timestamp":"2020-09-20T13:53:14Z","tags":{"contact:website":"http://gobernacionlapaz.gob.bo","name":"La Paz","name:eo":"La-Pazio","name:zh":"拉巴斯省","name:zh-Hans":"拉巴斯省","place":"state","wikidata":"Q272784","wikipedia":"es:Departamento de La Paz (Bolivia)"}}
{"type":"node","id":2854906391,"lat":-11.183333000000001,"lon":-67.183333,"visible":true,"version":5,"timestamp":"2019-07-23T23:54:47Z","tags":{"contact:website":"http://pando.gob.bo","name":"Pando","name:eo":"Pando","place":"state","wikidata":"Q235362","wikipedia":"es:Departamento de Pando"}}
{"type":"node","id":2854906392,"lat":-17.333333,"lon":-61.50000000000001,"visible":true,"version":4,"timestamp":"2019-07-23T23:54:47Z","tags":{"contact:website":"http://santacruz.gob.bo","name":"Santa Cruz","name:eo":"Santa-Kruzio","name:ru":"Санта-Круз","place":"state","wikidata":"Q235106","wikipedia":"es:Departamento de Santa Cruz (Bolivia)"}}
{"type":"node","id":2854906393,"lat":-21.583333,"lon":-63.833333,"visible":true,"version":3,"timestamp":"2019-07-23T23:54:47Z","tags":{"contact:website":"http://tarija.gob.bo/","name":"Tarija","name:eo":"Tariŝio","place":"state","wikidata":"Q233933","wikipedia":"es:Departamento de Tarija"}}
{"type":"node","id":2890584085,"lat":-18.666667,"lon":-67.666667,"visible":true,"version":4,"timestamp":"2020-09-20T13:53:14Z","tags":{"contact:website":"http://oruro.gob.bo","name":"Oruro","name:eo":"Uruio","name:zh":"奥鲁罗省","name:zh-Hans":"奥鲁罗省","place":"state","wikidata":"Q1061368","wikipedia":"es:Departamento de Oruro"}}
{"type":"node","id":2890584086,"lat":-20.666667,"lon":-66.666667,"visible":true,"version":3,"timestamp":"2019-07-23T23:54:47Z","tags":{"contact:website":"http://potosi.gob.bo","name":"Potosí","name:eo":"Potosiio","place":"state","wikidata":"Q238079","wikipedia":"es:Departamento de Potosí"}}
{"type":"node","id":3573560593,"lat":-23.3161458,"lon":-65.7595288,"visible":true,"version":4,"timestamp":"2019-07-31T21:29:55Z","tags":{"name":"Jujuy","name:abbreviation":"Y","name:el":"Χουχούι","name:eo":"Ĥuĥujo","place":"state","ref":"Y"}}
{"type":"node","id":5465479519,"lat":-33.5739341,"lon":-70.6205518,"visible":true,"version":1,"timestamp":"2018-03-08T21:38:04Z","tags":{"name":"Región Metropolitana de Santiago","name:en":"Santiago Metropolitan Region","name:es":"Región Metropolitana de Santiago","name:fr":"Métropolitaine de Santiago","name:ja":"首都州","name:pt":"Região Metropolitana de Santiago","name:ru":"Столичная область","name:ur":"سانتیاگو میٹروپولیٹن علاقہ","name:zh":"圣地亚哥首都大区","place":"state","ref":"RM","wikidata":"Q2131","wikipedia":"es:Región Metropolitana de Santiago"}}
{"type":"node","id":5465479520,"lat":-36.633157700000005,"lon":-71.9384821,"visible":true,"version":1,"timestamp":"2018-03-08T21:38:04Z","tags":{"name":"Región de Ñuble","name:en":"Ñuble Region","name:es":"Región de Ñuble","name:fr":"Ñuble","place":"state","ref":"XVI","wikidata":"Q24076693","wikipedia":"es:Región de Ñuble"}}
{"type":"node","id":7423950470,"lat":-0.31585260000000004,"lon":-79.2224149,"visible":true,"version":1,"timestamp":"2020-04-20T00:21:31Z","tags":{"name":"Santo Domingo de los Tsáchilas","place":"state"}}
{"type":"node","id":7423950471,"lat":-1.5392733,"lon":-79.08165050000001,"visible":true,"version":1,"timestamp":"2020-04-20T00:21:31Z","tags":{"name":"Bolívar","place":"state"}}
{"type":"node","id":8793120704,"lat":9.366047700000001,"lon":-74.8023636,"visible":true,"version":3,"timestamp":"2021-06-02T22:14:29Z","tags":{"gns:dsg":"ADM1","gns:uni":"-816151","is_in:country":"Colombia","is_in:country_code":"CO","name":"Bolívar","name:eo":"Bolivaro","name:ru":"Боливар","place":"state","population":"2229967","ref":"BOL","source":"GNS","state_capital":"Cartagena","state_code":"BOL"}}
{"type":"node","id":8793182637,"lat":10.5808075,"lon":-74.06856690000001,"visible":true,"version":2,"timestamp":"2021-06-02T22:31:00Z","tags":{"gns:dsg":"ADM1","gns:uni":"-834731","is_in:country":"Colombia","is_in:country_code":"CO","name":"Magdalena","name:eo":"Magdaleno","name:ru":"Магдалена","place":"state","population":"1403318","ref":"MAG","source":"GNS","state_capital":"Santa Marta","state_code":"MAG"}}
{"type":"node","id":8793182648,"lat":10.8891416,"lon":-74.9773598,"visible":true,"version":2,"timestamp":"2021-06-02T22:41:39Z","tags":{"gns:dsg":"ADM1","gns:uni":"-815064","is_in:country":"Colombia","is_in:country_code":"CO","name":"Atlántico","name:eo":"Atlantiko","name:ru":"Атлантико","place":"state","population":"2365663","ref":"ATL","source":"GNS","state_capital":"Barranquilla","state_code":"ATL"}}
{"type":"node","id":8793236417,"lat":11.4354118,"lon":-72.90021610000001,"visible":true,"version":2,"timestamp":"2021-06-02T22:48:27Z","tags":{"gns:dsg":"ADM1","gns:uni":"-831001","is_in:country":"Colombia","is_in:country_code":"CO","name":"La Guajira","name:eo":"La Gŭaĥira","name:ru":"Гуахира","place":"state","population":"524619","ref":"LAG","source":"GNS","state_capital":"Riohacha","state_code":"LAG"}}
